{"type": "FeatureCollection", "features": [{"type": "Feature", "properties": {"name": "New York Urban Core", "classification": "Urban Core", "type": "Urban Core"}, "geometry": {"type": "Point", "coordinates": [-74.006, 40.7128]}}, {"type": "Feature", "properties": {"name": "Los Angeles Urban Core", "classification": "Urban Core", "type": "Urban Core"}, "geometry": {"type": "Point", "coordinates": [-118.2437, 34.0522]}}, {"type": "Feature", "properties": {"name": "Chicago Urban Core", "classification": "Urban Core", "type": "Urban Core"}, "geometry": {"type": "Point", "coordinates": [-87.6298, 41.8781]}}, {"type": "Feature", "properties": {"name": "Houston Urban Core", "classification": "Urban Core", "type": "Urban Core"}, "geometry": {"type": "Point", "coordinates": [-95.3698, 29.7604]}}, {"type": "Feature", "properties": {"name": "Phoenix Urban Core", "classification": "Urban Core", "type": "Urban Core"}, "geometry": {"type": "Point", "coordinates": [-112.074, 33.4484]}}, {"type": "Feature", "properties": {"name": "Philadelphia Urban Core", "classification": "Urban Core", "type": "Urban Core"}, "geometry": {"type": "Point", "coordinates": [-75.1652, 39.9526]}}, {"type": "Feature", "properties": {"name": "San Antonio Urban Core", "classification": "Urban Core", "type": "Urban Core"}, "geometry": {"type": "Point", "coordinates": [-98.4936, 29.4241]}}, {"type": "Feature", "properties": {"name": "Dallas Urban Core", "classification": "Urban Core", "type": "Urban Core"}, "geometry": {"type": "Point", "coordinates": [-96.797, 32.7767]}}, {"type": "Feature", "properties": {"name": "San Jose Urban Core", "classification": "Urban Core", "type": "Urban Core"}, "geometry": {"type": "Point", "coordinates": [-121.8863, 37.3382]}}, {"type": "Feature", "properties": {"name": "Austin Urban Core", "classification": "Urban Core", "type": "Urban Core"}, "geometry": {"type": "Point", "coordinates": [-97.7431, 30.2672]}}, {"type": "Feature", "properties": {"name": "Jacksonville Urban Core", "classification": "Urban Core", "type": "Urban Core"}, "geometry": {"type": "Point", "coordinates": [-81.6557, 30.3322]}}, {"type": "Feature", "properties": {"name": "Fort Worth Urban Core", "classification": "Urban Core", "type": "Urban Core"}, "geometry": {"type": "Point", "coordinates": [-97.3308, 32.7554]}}, {"type": "Feature", "properties": {"name": "Columbus Urban Core", "classification": "Urban Core", "type": "Urban Core"}, "geometry": {"type": "Point", "coordinates": [-82.9988, 39.9612]}}, {"type": "Feature", "properties": {"name": "Charlotte Urban Core", "classification": "Urban Core", "type": "Urban Core"}, "geometry": {"type": "Point", "coordinates": [-80.8431, 35.2271]}}, {"type": "Feature", "properties": {"name": "Indianapolis Urban Core", "classification": "Urban Core", "type": "Urban Core"}, "geometry": {"type": "Point", "coordinates": [-86.1581, 39.7684]}}, {"type": "Feature", "properties": {"name": "San Francisco Urban Core", "classification": "Urban Core", "type": "Urban Core"}, "geometry": {"type": "Point", "coordinates": [-122.4194, 37.7749]}}, {"type": "Feature", "properties": {"name": "Seattle Urban Core", "classification": "Urban Core", "type": "Urban Core"}, "geometry": {"type": "Point", "coordinates": [-122.3321, 47.6062]}}, {"type": "Feature", "properties": {"name": "Denver Urban Core", "classification": "Urban Core", "type": "Urban Core"}, "geometry": {"type": "Point", "coordinates": [-104.9903, 39.7392]}}, {"type": "Feature", "properties": {"name": "Nashville Urban Core", "classification": "Urban Core", "type": "Urban Core"}, "geometry": {"type": "Point", "coordinates": [-86.7816, 36.1627]}}, {"type": "Feature", "properties": {"name": "Oklahoma City Urban Core", "classification": "Urban Core", "type": "Urban Core"}, "geometry": {"type": "Point", "coordinates": [-97.5164, 35.4676]}}, {"type": "Feature", "properties": {"name": "Great Plains Rural Hub - Abilene KS", "classification": "Rural Hub", "type": "Rural Hub"}, "geometry": {"type": "Point", "coordinates": [-97.2139, 38.9172]}}, {"type": "Feature", "properties": {"name": "Great Plains Rural Hub - Garden City KS", "classification": "Rural Hub", "type": "Rural Hub"}, "geometry": {"type": "Point", "coordinates": [-100.8726, 37.9717]}}, {"type": "Feature", "properties": {"name": "Mountain West Rural Hub - Billings MT", "classification": "Rural Hub", "type": "Rural Hub"}, "geometry": {"type": "Point", "coordinates": [-108.5007, 45.7833]}}, {"type": "Feature", "properties": {"name": "Mountain West Rural Hub - Casper WY", "classification": "Rural Hub", "type": "Rural Hub"}, "geometry": {"type": "Point", "coordinates": [-106.3131, 42.8666]}}, {"type": "Feature", "properties": {"name": "Mountain West Rural Hub - Pocatello ID", "classification": "Rural Hub", "type": "Rural Hub"}, "geometry": {"type": "Point", "coordinates": [-112.4455, 42.8713]}}, {"type": "Feature", "properties": {"name": "Southwest Rural Hub - Flagstaff AZ", "classification": "Rural Hub", "type": "Rural Hub"}, "geometry": {"type": "Point", "coordinates": [-111.6513, 35.1983]}}, {"type": "Feature", "properties": {"name": "Southwest Rural Hub - Farmington NM", "classification": "Rural Hub", "type": "Rural Hub"}, "geometry": {"type": "Point", "coordinates": [-108.2087, 36.7281]}}, {"type": "Feature", "properties": {"name": "Midwest Rural Hub - Sioux City IA", "classification": "Rural Hub", "type": "Rural Hub"}, "geometry": {"type": "Point", "coordinates": [-96.4003, 42.4999]}}, {"type": "Feature", "properties": {"name": "Midwest Rural Hub - Fargo ND", "classification": "Rural Hub", "type": "Rural Hub"}, "geometry": {"type": "Point", "coordinates": [-96.7898, 46.8772]}}, {"type": "Feature", "properties": {"name": "Midwest Rural Hub - Rapid City SD", "classification": "Rural Hub", "type": "Rural Hub"}, "geometry": {"type": "Point", "coordinates": [-103.231, 44.0805]}}, {"type": "Feature", "properties": {"name": "South Rural Hub - Hattiesburg MS", "classification": "Rural Hub", "type": "Rural Hub"}, "geometry": {"type": "Point", "coordinates": [-89.2903, 31.3271]}}, {"type": "Feature", "properties": {"name": "South Rural Hub - Meridian MS", "classification": "Rural Hub", "type": "Rural Hub"}, "geometry": {"type": "Point", "coordinates": [-88.7037, 32.3643]}}, {"type": "Feature", "properties": {"name": "Appalachian Hub - Clarksburg WV", "classification": "Rural Hub", "type": "Rural Hub"}, "geometry": {"type": "Point", "coordinates": [-80.3412, 39.2806]}}, {"type": "Feature", "properties": {"name": "Appalachian Hub - Bluefield WV", "classification": "Rural Hub", "type": "Rural Hub"}, "geometry": {"type": "Point", "coordinates": [-81.2215, 37.2698]}}, {"type": "Feature", "properties": {"name": "Northeast Rural Hub - Burlington VT", "classification": "Rural Hub", "type": "Rural Hub"}, "geometry": {"type": "Point", "coordinates": [-73.2121, 44.4759]}}, {"type": "Feature", "properties": {"name": "Northeast Rural Hub - Bangor ME", "classification": "Rural Hub", "type": "Rural Hub"}, "geometry": {"type": "Point", "coordinates": [-68.7712, 44.8016]}}, {"type": "Feature", "properties": {"name": "Pacific Northwest Rural Hub - Medford OR", "classification": "Rural Hub", "type": "Rural Hub"}, "geometry": {"type": "Point", "coordinates": [-122.8756, 42.3265]}}, {"type": "Feature", "properties": {"name": "Pacific Northwest Rural Hub - Yakima WA", "classification": "Rural Hub", "type": "Rural Hub"}, "geometry": {"type": "Point", "coordinates": [-120.5059, 46.6021]}}, {"type": "Feature", "properties": {"name": "Alaska Hub - Fairbanks", "classification": "Rural Hub", "type": "Rural Hub"}, "geometry": {"type": "Point", "coordinates": [-147.72, 64.8401]}}, {"type": "Feature", "properties": {"name": "Hawaii Outer Island - Hilo", "classification": "Rural Hub", "type": "Rural Hub"}, "geometry": {"type": "Point", "coordinates": [-155.09, 19.7297]}}]}