{"type": "FeatureCollection", "features": [{"type": "Feature", "properties": {"name": "Los Angeles County CA", "population": 10014009, "density": "Very High", "type": "Population Zone"}, "geometry": {"type": "Polygon", "coordinates": [[[-117.9813, 34.0522], [-117.9903, 34.1085], [-118.0165, 34.1609], [-118.0582, 34.2059], [-118.1125, 34.2405], [-118.1758, 34.2622], [-118.2437, 34.2696], [-118.3116, 34.2622], [-118.3749, 34.2405], [-118.4292, 34.2059], [-118.4709, 34.1609], [-118.4971, 34.1085], [-118.5061, 34.0522], [-118.4971, 33.9959], [-118.4709, 33.9435], [-118.4292, 33.8985], [-118.3749, 33.8639], [-118.3116, 33.8422], [-118.2437, 33.8348], [-118.1758, 33.8422], [-118.1125, 33.8639], [-118.0582, 33.8985], [-118.0165, 33.9435], [-117.9903, 33.9959], [-117.9813, 34.0522]]]}}, {"type": "Feature", "properties": {"name": "Cook County IL", "population": 5275541, "density": "Very High", "type": "Population Zone"}, "geometry": {"type": "Polygon", "coordinates": [[[-87.3378, 41.8781], [-87.3478, 41.9344], [-87.3769, 41.9868], [-87.4233, 42.0318], [-87.4838, 42.0664], [-87.5542, 42.0881], [-87.6298, 42.0955], [-87.7054, 42.0881], [-87.7758, 42.0664], [-87.8363, 42.0318], [-87.8827, 41.9868], [-87.9118, 41.9344], [-87.9218, 41.8781], [-87.9118, 41.8218], [-87.8827, 41.7694], [-87.8363, 41.7244], [-87.7758, 41.6898], [-87.7054, 41.6681], [-87.6298, 41.6607], [-87.5542, 41.6681], [-87.4838, 41.6898], [-87.4233, 41.7244], [-87.3769, 41.7694], [-87.3478, 41.8218], [-87.3378, 41.8781]]]}}, {"type": "Feature", "properties": {"name": "Harris County TX", "population": 4731145, "density": "Very High", "type": "Population Zone"}, "geometry": {"type": "Polygon", "coordinates": [[[-95.1194, 29.7604], [-95.1279, 29.8167], [-95.1529, 29.8691], [-95.1927, 29.9141], [-95.2446, 29.9487], [-95.305, 29.9704], [-95.3698, 29.9778], [-95.4346, 29.9704], [-95.495, 29.9487], [-95.5469, 29.9141], [-95.5867, 29.8691], [-95.6117, 29.8167], [-95.6202, 29.7604], [-95.6117, 29.7041], [-95.5867, 29.6517], [-95.5469, 29.6067], [-95.495, 29.5721], [-95.4346, 29.5504], [-95.3698, 29.543], [-95.305, 29.5504], [-95.2446, 29.5721], [-95.1927, 29.6067], [-95.1529, 29.6517], [-95.1279, 29.7041], [-95.1194, 29.7604]]]}}, {"type": "Feature", "properties": {"name": "Maricopa County AZ", "population": 4485414, "density": "Very High", "type": "Population Zone"}, "geometry": {"type": "Polygon", "coordinates": [[[-111.8135, 33.4484], [-111.8223, 33.5047], [-111.8484, 33.5571], [-111.8898, 33.6021], [-111.9437, 33.6367], [-112.0066, 33.6584], [-112.074, 33.6658], [-112.1414, 33.6584], [-112.2043, 33.6367], [-112.2582, 33.6021], [-112.2996, 33.5571], [-112.3257, 33.5047], [-112.3345, 33.4484], [-112.3257, 33.3921], [-112.2996, 33.3397], [-112.2582, 33.2947], [-112.2043, 33.2601], [-112.1414, 33.2384], [-112.074, 33.231], [-112.0066, 33.2384], [-111.9437, 33.2601], [-111.8898, 33.2947], [-111.8484, 33.3397], [-111.8223, 33.3921], [-111.8135, 33.4484]]]}}, {"type": "Feature", "properties": {"name": "San Diego County CA", "population": 3338330, "density": "Very High", "type": "Population Zone"}, "geometry": {"type": "Polygon", "coordinates": [[[-116.9027, 32.7157], [-116.9115, 32.772], [-116.9373, 32.8244], [-116.9784, 32.8694], [-117.0319, 32.904], [-117.0942, 32.9257], [-117.1611, 32.9331], [-117.228, 32.9257], [-117.2903, 32.904], [-117.3438, 32.8694], [-117.3849, 32.8244], [-117.4107, 32.772], [-117.4195, 32.7157], [-117.4107, 32.6594], [-117.3849, 32.607], [-117.3438, 32.562], [-117.2903, 32.5274], [-117.228, 32.5057], [-117.1611, 32.4983], [-117.0942, 32.5057], [-117.0319, 32.5274], [-116.9784, 32.562], [-116.9373, 32.607], [-116.9115, 32.6594], [-116.9027, 32.7157]]]}}, {"type": "Feature", "properties": {"name": "Orange County CA", "population": 3175692, "density": "Very High", "type": "Population Zone"}, "geometry": {"type": "Polygon", "coordinates": [[[-117.5915, 33.7879], [-117.6004, 33.8442], [-117.6266, 33.8966], [-117.6681, 33.9416], [-117.7223, 33.9762], [-117.7854, 33.9979], [-117.8531, 34.0053], [-117.9208, 33.9979], [-117.9839, 33.9762], [-118.0381, 33.9416], [-118.0796, 33.8966], [-118.1058, 33.8442], [-118.1147, 33.7879], [-118.1058, 33.7316], [-118.0796, 33.6792], [-118.0381, 33.6342], [-117.9839, 33.5996], [-117.9208, 33.5779], [-117.8531, 33.5705], [-117.7854, 33.5779], [-117.7223, 33.5996], [-117.6681, 33.6342], [-117.6266, 33.6792], [-117.6004, 33.7316], [-117.5915, 33.7879]]]}}, {"type": "Feature", "properties": {"name": "Miami-Dade County FL", "population": 2716940, "density": "Very High", "type": "Population Zone"}, "geometry": {"type": "Polygon", "coordinates": [[[-79.9504, 25.7617], [-79.9586, 25.818], [-79.9828, 25.8704], [-80.0211, 25.9154], [-80.0711, 25.95], [-80.1293, 25.9717], [-80.1918, 25.9791], [-80.2543, 25.9717], [-80.3125, 25.95], [-80.3625, 25.9154], [-80.4008, 25.8704], [-80.425, 25.818], [-80.4332, 25.7617], [-80.425, 25.7054], [-80.4008, 25.653], [-80.3625, 25.608], [-80.3125, 25.5734], [-80.2543, 25.5517], [-80.1918, 25.5443], [-80.1293, 25.5517], [-80.0711, 25.5734], [-80.0211, 25.608], [-79.9828, 25.653], [-79.9586, 25.7054], [-79.9504, 25.7617]]]}}, {"type": "Feature", "properties": {"name": "Dallas County TX", "population": 2613539, "density": "Very High", "type": "Population Zone"}, "geometry": {"type": "Polygon", "coordinates": [[[-96.5384, 32.7767], [-96.5473, 32.833], [-96.5731, 32.8854], [-96.6142, 32.9304], [-96.6677, 32.965], [-96.7301, 32.9867], [-96.797, 32.9941], [-96.8639, 32.9867], [-96.9263, 32.965], [-96.9798, 32.9304], [-97.0209, 32.8854], [-97.0467, 32.833], [-97.0556, 32.7767], [-97.0467, 32.7204], [-97.0209, 32.668], [-96.9798, 32.623], [-96.9263, 32.5884], [-96.8639, 32.5667], [-96.797, 32.5593], [-96.7301, 32.5667], [-96.6677, 32.5884], [-96.6142, 32.623], [-96.5731, 32.668], [-96.5473, 32.7204], [-96.5384, 32.7767]]]}}, {"type": "Feature", "properties": {"name": "Riverside County CA", "population": 2418185, "density": "Very High", "type": "Population Zone"}, "geometry": {"type": "Polygon", "coordinates": [[[-115.1362, 33.7005], [-115.1451, 33.7568], [-115.1712, 33.8092], [-115.2127, 33.8542], [-115.2668, 33.8888], [-115.3299, 33.9105], [-115.3975, 33.9179], [-115.4651, 33.9105], [-115.5282, 33.8888], [-115.5823, 33.8542], [-115.6238, 33.8092], [-115.6499, 33.7568], [-115.6588, 33.7005], [-115.6499, 33.6442], [-115.6238, 33.5918], [-115.5823, 33.5468], [-115.5282, 33.5122], [-115.4651, 33.4905], [-115.3975, 33.4831], [-115.3299, 33.4905], [-115.2668, 33.5122], [-115.2127, 33.5468], [-115.1712, 33.5918], [-115.1451, 33.6442], [-115.1362, 33.7005]]]}}, {"type": "Feature", "properties": {"name": "King County WA", "population": 2252782, "density": "Very High", "type": "Population Zone"}, "geometry": {"type": "Polygon", "coordinates": [[[-121.8877, 47.4799], [-121.8987, 47.5362], [-121.9308, 47.5886], [-121.982, 47.6336], [-122.0486, 47.6682], [-122.1261, 47.6899], [-122.2094, 47.6973], [-122.2927, 47.6899], [-122.3702, 47.6682], [-122.4368, 47.6336], [-122.488, 47.5886], [-122.5201, 47.5362], [-122.5311, 47.4799], [-122.5201, 47.4236], [-122.488, 47.3712], [-122.4368, 47.3262], [-122.3702, 47.2916], [-122.2927, 47.2699], [-122.2094, 47.2625], [-122.1261, 47.2699], [-122.0486, 47.2916], [-121.982, 47.3262], [-121.9308, 47.3712], [-121.8987, 47.4236], [-121.8877, 47.4799]]]}}, {"type": "Feature", "properties": {"name": "Clark County NV", "population": 2265461, "density": "Very High", "type": "Population Zone"}, "geometry": {"type": "Polygon", "coordinates": [[[-114.8705, 36.1699], [-114.8797, 36.2262], [-114.9066, 36.2786], [-114.9494, 36.3236], [-115.0052, 36.3582], [-115.0701, 36.3799], [-115.1398, 36.3873], [-115.2095, 36.3799], [-115.2744, 36.3582], [-115.3302, 36.3236], [-115.373, 36.2786], [-115.3999, 36.2262], [-115.4091, 36.1699], [-115.3999, 36.1136], [-115.373, 36.0612], [-115.3302, 36.0162], [-115.2744, 35.9816], [-115.2095, 35.9599], [-115.1398, 35.9525], [-115.0701, 35.9599], [-115.0052, 35.9816], [-114.9494, 36.0162], [-114.9066, 36.0612], [-114.8797, 36.1136], [-114.8705, 36.1699]]]}}, {"type": "Feature", "properties": {"name": "Tarrant County TX", "population": 2102515, "density": "Very High", "type": "Population Zone"}, "geometry": {"type": "Polygon", "coordinates": [[[-97.0723, 32.7554], [-97.0811, 32.8117], [-97.1069, 32.8641], [-97.148, 32.9091], [-97.2016, 32.9437], [-97.2639, 32.9654], [-97.3308, 32.9728], [-97.3977, 32.9654], [-97.46, 32.9437], [-97.5136, 32.9091], [-97.5547, 32.8641], [-97.5805, 32.8117], [-97.5893, 32.7554], [-97.5805, 32.6991], [-97.5547, 32.6467], [-97.5136, 32.6017], [-97.46, 32.5671], [-97.3977, 32.5454], [-97.3308, 32.538], [-97.2639, 32.5454], [-97.2016, 32.5671], [-97.148, 32.6017], [-97.1069, 32.6467], [-97.0811, 32.6991], [-97.0723, 32.7554]]]}}, {"type": "Feature", "properties": {"name": "Santa Clara County CA", "population": 1936259, "density": "Very High", "type": "Population Zone"}, "geometry": {"type": "Polygon", "coordinates": [[[-121.6129, 37.3382], [-121.6222, 37.3945], [-121.6495, 37.4469], [-121.693, 37.4919], [-121.7496, 37.5265], [-121.8155, 37.5482], [-121.8863, 37.5556], [-121.9571, 37.5482], [-122.023, 37.5265], [-122.0796, 37.4919], [-122.1231, 37.4469], [-122.1504, 37.3945], [-122.1597, 37.3382], [-122.1504, 37.2819], [-122.1231, 37.2295], [-122.0796, 37.1845], [-122.023, 37.1499], [-121.9571, 37.1282], [-121.8863, 37.1208], [-121.8155, 37.1282], [-121.7496, 37.1499], [-121.693, 37.1845], [-121.6495, 37.2295], [-121.6222, 37.2819], [-121.6129, 37.3382]]]}}, {"type": "Feature", "properties": {"name": "Bexar County TX", "population": 2009324, "density": "Very High", "type": "Population Zone"}, "geometry": {"type": "Polygon", "coordinates": [[[-98.244, 29.4241], [-98.2525, 29.4804], [-98.2775, 29.5328], [-98.3171, 29.5778], [-98.3688, 29.6124], [-98.429, 29.6341], [-98.4936, 29.6415], [-98.5582, 29.6341], [-98.6184, 29.6124], [-98.6701, 29.5778], [-98.7097, 29.5328], [-98.7347, 29.4804], [-98.7432, 29.4241], [-98.7347, 29.3678], [-98.7097, 29.3154], [-98.6701, 29.2704], [-98.6184, 29.2358], [-98.5582, 29.2141], [-98.4936, 29.2067], [-98.429, 29.2141], [-98.3688, 29.2358], [-98.3171, 29.2704], [-98.2775, 29.3154], [-98.2525, 29.3678], [-98.244, 29.4241]]]}}, {"type": "Feature", "properties": {"name": "Broward County FL", "population": 1952778, "density": "Very High", "type": "Population Zone"}, "geometry": {"type": "Polygon", "coordinates": [[[-79.8952, 26.1224], [-79.9034, 26.1787], [-79.9276, 26.2311], [-79.9661, 26.2761], [-80.0162, 26.3107], [-80.0746, 26.3324], [-80.1373, 26.3398], [-80.2, 26.3324], [-80.2584, 26.3107], [-80.3085, 26.2761], [-80.347, 26.2311], [-80.3712, 26.1787], [-80.3794, 26.1224], [-80.3712, 26.0661], [-80.347, 26.0137], [-80.3085, 25.9687], [-80.2584, 25.9341], [-80.2, 25.9124], [-80.1373, 25.905], [-80.0746, 25.9124], [-80.0162, 25.9341], [-79.9661, 25.9687], [-79.9276, 26.0137], [-79.9034, 26.0661], [-79.8952, 26.1224]]]}}, {"type": "Feature", "properties": {"name": "Wayne County MI", "population": 1793561, "density": "Very High", "type": "Population Zone"}, "geometry": {"type": "Polygon", "coordinates": [[[-82.7517, 42.3314], [-82.7618, 42.3877], [-82.7911, 42.4401], [-82.8379, 42.4851], [-82.8988, 42.5197], [-82.9697, 42.5414], [-83.0458, 42.5488], [-83.1219, 42.5414], [-83.1928, 42.5197], [-83.2537, 42.4851], [-83.3005, 42.4401], [-83.3298, 42.3877], [-83.3399, 42.3314], [-83.3298, 42.2751], [-83.3005, 42.2227], [-83.2537, 42.1777], [-83.1928, 42.1431], [-83.1219, 42.1214], [-83.0458, 42.114], [-82.9697, 42.1214], [-82.8988, 42.1431], [-82.8379, 42.1777], [-82.7911, 42.2227], [-82.7618, 42.2751], [-82.7517, 42.3314]]]}}, {"type": "Feature", "properties": {"name": "Middlesex County MA", "population": 1611699, "density": "Very High", "type": "Population Zone"}, "geometry": {"type": "Polygon", "coordinates": [[[-70.7647, 42.3601], [-70.7747, 42.4164], [-70.8041, 42.4688], [-70.8509, 42.5138], [-70.9118, 42.5484], [-70.9828, 42.5701], [-71.0589, 42.5775], [-71.135, 42.5701], [-71.206, 42.5484], [-71.2669, 42.5138], [-71.3137, 42.4688], [-71.3431, 42.4164], [-71.3531, 42.3601], [-71.3431, 42.3038], [-71.3137, 42.2514], [-71.2669, 42.2064], [-71.206, 42.1718], [-71.135, 42.1501], [-71.0589, 42.1427], [-70.9828, 42.1501], [-70.9118, 42.1718], [-70.8509, 42.2064], [-70.8041, 42.2514], [-70.7747, 42.3038], [-70.7647, 42.3601]]]}}, {"type": "Feature", "properties": {"name": "New York County NY", "population": 1694251, "density": "Very High", "type": "Population Zone"}, "geometry": {"type": "Polygon", "coordinates": [[[-73.6841, 40.7831], [-73.6939, 40.8394], [-73.7226, 40.8918], [-73.7682, 40.9368], [-73.8276, 40.9714], [-73.8969, 40.9931], [-73.9712, 41.0005], [-74.0455, 40.9931], [-74.1148, 40.9714], [-74.1742, 40.9368], [-74.2198, 40.8918], [-74.2485, 40.8394], [-74.2583, 40.7831], [-74.2485, 40.7268], [-74.2198, 40.6744], [-74.1742, 40.6294], [-74.1148, 40.5948], [-74.0455, 40.5731], [-73.9712, 40.5657], [-73.8969, 40.5731], [-73.8276, 40.5948], [-73.7682, 40.6294], [-73.7226, 40.6744], [-73.6939, 40.7268], [-73.6841, 40.7831]]]}}, {"type": "Feature", "properties": {"name": "Kings County NY", "population": 2736074, "density": "Very High", "type": "Population Zone"}, "geometry": {"type": "Polygon", "coordinates": [[[-73.6631, 40.6501], [-73.6728, 40.7064], [-73.7015, 40.7588], [-73.747, 40.8038], [-73.8063, 40.8384], [-73.8754, 40.8601], [-73.9496, 40.8675], [-74.0238, 40.8601], [-74.0929, 40.8384], [-74.1522, 40.8038], [-74.1977, 40.7588], [-74.2264, 40.7064], [-74.2361, 40.6501], [-74.2264, 40.5938], [-74.1977, 40.5414], [-74.1522, 40.4964], [-74.0929, 40.4618], [-74.0238, 40.4401], [-73.9496, 40.4327], [-73.8754, 40.4401], [-73.8063, 40.4618], [-73.747, 40.4964], [-73.7015, 40.5414], [-73.6728, 40.5938], [-73.6631, 40.6501]]]}}, {"type": "Feature", "properties": {"name": "Queens County NY", "population": 2405464, "density": "Very High", "type": "Population Zone"}, "geometry": {"type": "Polygon", "coordinates": [[[-73.508, 40.7282], [-73.5178, 40.7845], [-73.5465, 40.8369], [-73.5921, 40.8819], [-73.6515, 40.9165], [-73.7207, 40.9382], [-73.7949, 40.9456], [-73.8691, 40.9382], [-73.9383, 40.9165], [-73.9977, 40.8819], [-74.0433, 40.8369], [-74.072, 40.7845], [-74.0818, 40.7282], [-74.072, 40.6719], [-74.0433, 40.6195], [-73.9977, 40.5745], [-73.9383, 40.5399], [-73.8691, 40.5182], [-73.7949, 40.5108], [-73.7207, 40.5182], [-73.6515, 40.5399], [-73.5921, 40.5745], [-73.5465, 40.6195], [-73.5178, 40.6719], [-73.508, 40.7282]]]}}, {"type": "Feature", "properties": {"name": "Bronx County NY", "population": 1472654, "density": "Very High", "type": "Population Zone"}, "geometry": {"type": "Polygon", "coordinates": [[[-73.5774, 40.8448], [-73.5872, 40.9011], [-73.6159, 40.9535], [-73.6616, 40.9985], [-73.7211, 41.0331], [-73.7904, 41.0548], [-73.8648, 41.0622], [-73.9392, 41.0548], [-74.0085, 41.0331], [-74.068, 40.9985], [-74.1137, 40.9535], [-74.1424, 40.9011], [-74.1522, 40.8448], [-74.1424, 40.7885], [-74.1137, 40.7361], [-74.068, 40.6911], [-74.0085, 40.6565], [-73.9392, 40.6348], [-73.8648, 40.6274], [-73.7904, 40.6348], [-73.7211, 40.6565], [-73.6616, 40.6911], [-73.6159, 40.7361], [-73.5872, 40.7885], [-73.5774, 40.8448]]]}}, {"type": "Feature", "properties": {"name": "Philadelphia County PA", "population": 1603797, "density": "Very High", "type": "Population Zone"}, "geometry": {"type": "Polygon", "coordinates": [[[-74.8816, 39.9526], [-74.8913, 40.0089], [-74.9196, 40.0613], [-74.9647, 40.1063], [-75.0234, 40.1409], [-75.0918, 40.1626], [-75.1652, 40.17], [-75.2386, 40.1626], [-75.307, 40.1409], [-75.3657, 40.1063], [-75.4108, 40.0613], [-75.4391, 40.0089], [-75.4488, 39.9526], [-75.4391, 39.8963], [-75.4108, 39.8439], [-75.3657, 39.7989], [-75.307, 39.7643], [-75.2386, 39.7426], [-75.1652, 39.7352], [-75.0918, 39.7426], [-75.0234, 39.7643], [-74.9647, 39.7989], [-74.9196, 39.8439], [-74.8913, 39.8963], [-74.8816, 39.9526]]]}}, {"type": "Feature", "properties": {"name": "Alameda County CA", "population": 1682353, "density": "Very High", "type": "Population Zone"}, "geometry": {"type": "Polygon", "coordinates": [[[-121.4451, 37.6017], [-121.4545, 37.658], [-121.4819, 37.7104], [-121.5255, 37.7554], [-121.5823, 37.79], [-121.6485, 37.8117], [-121.7195, 37.8191], [-121.7905, 37.8117], [-121.8567, 37.79], [-121.9135, 37.7554], [-121.9571, 37.7104], [-121.9845, 37.658], [-121.9939, 37.6017], [-121.9845, 37.5454], [-121.9571, 37.493], [-121.9135, 37.448], [-121.8567, 37.4134], [-121.7905, 37.3917], [-121.7195, 37.3843], [-121.6485, 37.3917], [-121.5823, 37.4134], [-121.5255, 37.448], [-121.4819, 37.493], [-121.4545, 37.5454], [-121.4451, 37.6017]]]}}, {"type": "Feature", "properties": {"name": "Sacramento County CA", "population": 1585055, "density": "Very High", "type": "Population Zone"}, "geometry": {"type": "Polygon", "coordinates": [[[-121.2163, 38.5816], [-121.2258, 38.6379], [-121.2536, 38.6903], [-121.2978, 38.7353], [-121.3554, 38.7699], [-121.4224, 38.7916], [-121.4944, 38.799], [-121.5664, 38.7916], [-121.6334, 38.7699], [-121.691, 38.7353], [-121.7352, 38.6903], [-121.763, 38.6379], [-121.7725, 38.5816], [-121.763, 38.5253], [-121.7352, 38.4729], [-121.691, 38.4279], [-121.6334, 38.3933], [-121.5664, 38.3716], [-121.4944, 38.3642], [-121.4224, 38.3716], [-121.3554, 38.3933], [-121.2978, 38.4279], [-121.2536, 38.4729], [-121.2258, 38.5253], [-121.2163, 38.5816]]]}}, {"type": "Feature", "properties": {"name": "Collin County TX", "population": 1064465, "density": "High", "type": "Population Zone"}, "geometry": {"type": "Polygon", "coordinates": [[[-96.1535, 33.1581], [-96.1653, 33.2331], [-96.1999, 33.303], [-96.2549, 33.3631], [-96.3266, 33.4091], [-96.4101, 33.4381], [-96.4997, 33.448], [-96.5893, 33.4381], [-96.6728, 33.4091], [-96.7445, 33.3631], [-96.7995, 33.303], [-96.8341, 33.2331], [-96.8459, 33.1581], [-96.8341, 33.0831], [-96.7995, 33.0132], [-96.7445, 32.9531], [-96.6728, 32.9071], [-96.5893, 32.8781], [-96.4997, 32.8682], [-96.4101, 32.8781], [-96.3266, 32.9071], [-96.2549, 32.9531], [-96.1999, 33.0132], [-96.1653, 33.0831], [-96.1535, 33.1581]]]}}, {"type": "Feature", "properties": {"name": "Contra Costa County CA", "population": 1165927, "density": "High", "type": "Population Zone"}, "geometry": {"type": "Polygon", "coordinates": [[[-121.6978, 37.9221], [-121.7103, 37.9971], [-121.747, 38.067], [-121.8054, 38.1271], [-121.8815, 38.1731], [-121.9701, 38.2021], [-122.0652, 38.212], [-122.1603, 38.2021], [-122.2489, 38.1731], [-122.325, 38.1271], [-122.3834, 38.067], [-122.4201, 37.9971], [-122.4326, 37.9221], [-122.4201, 37.8471], [-122.3834, 37.7772], [-122.325, 37.7171], [-122.2489, 37.6711], [-122.1603, 37.6421], [-122.0652, 37.6322], [-121.9701, 37.6421], [-121.8815, 37.6711], [-121.8054, 37.7171], [-121.747, 37.7772], [-121.7103, 37.8471], [-121.6978, 37.9221]]]}}, {"type": "Feature", "properties": {"name": "Travis County TX", "population": 1290188, "density": "High", "type": "Population Zone"}, "geometry": {"type": "Polygon", "coordinates": [[[-97.4075, 30.2672], [-97.4189, 30.3422], [-97.4525, 30.4121], [-97.5058, 30.4722], [-97.5753, 30.5182], [-97.6562, 30.5472], [-97.7431, 30.5571], [-97.83, 30.5472], [-97.9109, 30.5182], [-97.9804, 30.4722], [-98.0337, 30.4121], [-98.0673, 30.3422], [-98.0787, 30.2672], [-98.0673, 30.1922], [-98.0337, 30.1223], [-97.9804, 30.0622], [-97.9109, 30.0162], [-97.83, 29.9872], [-97.7431, 29.9773], [-97.6562, 29.9872], [-97.5753, 30.0162], [-97.5058, 30.0622], [-97.4525, 30.1223], [-97.4189, 30.1922], [-97.4075, 30.2672]]]}}, {"type": "Feature", "properties": {"name": "Palm Beach County FL", "population": 1496770, "density": "High", "type": "Population Zone"}, "geometry": {"type": "Polygon", "coordinates": [[[-79.7289, 26.7153], [-79.74, 26.7903], [-79.7724, 26.8602], [-79.8239, 26.9203], [-79.8912, 26.9663], [-79.9694, 26.9953], [-80.0534, 27.0052], [-80.1374, 26.9953], [-80.2156, 26.9663], [-80.2829, 26.9203], [-80.3344, 26.8602], [-80.3668, 26.7903], [-80.3779, 26.7153], [-80.3668, 26.6403], [-80.3344, 26.5704], [-80.2829, 26.5103], [-80.2156, 26.4643], [-80.1374, 26.4353], [-80.0534, 26.4254], [-79.9694, 26.4353], [-79.8912, 26.4643], [-79.8239, 26.5103], [-79.7724, 26.5704], [-79.74, 26.6403], [-79.7289, 26.7153]]]}}, {"type": "Feature", "properties": {"name": "Hillsborough County FL", "population": 1459762, "density": "High", "type": "Population Zone"}, "geometry": {"type": "Polygon", "coordinates": [[[-82.266, 27.9947], [-82.2772, 28.0697], [-82.31, 28.1396], [-82.3622, 28.1997], [-82.4302, 28.2457], [-82.5093, 28.2747], [-82.5943, 28.2846], [-82.6793, 28.2747], [-82.7584, 28.2457], [-82.8264, 28.1997], [-82.8786, 28.1396], [-82.9114, 28.0697], [-82.9226, 27.9947], [-82.9114, 27.9197], [-82.8786, 27.8498], [-82.8264, 27.7897], [-82.7584, 27.7437], [-82.6793, 27.7147], [-82.5943, 27.7048], [-82.5093, 27.7147], [-82.4302, 27.7437], [-82.3622, 27.7897], [-82.31, 27.8498], [-82.2772, 27.9197], [-82.266, 27.9947]]]}}, {"type": "Feature", "properties": {"name": "Denver County CO", "population": 705576, "density": "High", "type": "Population Zone"}, "geometry": {"type": "Polygon", "coordinates": [[[-104.6134, 39.7392], [-104.6262, 39.8142], [-104.6639, 39.8841], [-104.7238, 39.9442], [-104.8018, 39.9902], [-104.8927, 40.0192], [-104.9903, 40.0291], [-105.0879, 40.0192], [-105.1788, 39.9902], [-105.2568, 39.9442], [-105.3167, 39.8841], [-105.3544, 39.8142], [-105.3672, 39.7392], [-105.3544, 39.6642], [-105.3167, 39.5943], [-105.2568, 39.5342], [-105.1788, 39.4882], [-105.0879, 39.4592], [-104.9903, 39.4493], [-104.8927, 39.4592], [-104.8018, 39.4882], [-104.7238, 39.5342], [-104.6639, 39.5943], [-104.6262, 39.6642], [-104.6134, 39.7392]]]}}, {"type": "Feature", "properties": {"name": "Hennepin County MN", "population": 1281565, "density": "High", "type": "Population Zone"}, "geometry": {"type": "Polygon", "coordinates": [[[-92.8226, 44.9733], [-92.8365, 45.0483], [-92.8775, 45.1182], [-92.9426, 45.1783], [-93.0274, 45.2243], [-93.1263, 45.2533], [-93.2323, 45.2632], [-93.3383, 45.2533], [-93.4372, 45.2243], [-93.522, 45.1783], [-93.5871, 45.1182], [-93.6281, 45.0483], [-93.642, 44.9733], [-93.6281, 44.8983], [-93.5871, 44.8284], [-93.522, 44.7683], [-93.4372, 44.7223], [-93.3383, 44.6933], [-93.2323, 44.6834], [-93.1263, 44.6933], [-93.0274, 44.7223], [-92.9426, 44.7683], [-92.8775, 44.8284], [-92.8365, 44.8983], [-92.8226, 44.9733]]]}}, {"type": "Feature", "properties": {"name": "Cuyahoga County OH", "population": 1264817, "density": "High", "type": "Population Zone"}, "geometry": {"type": "Polygon", "coordinates": [[[-81.3074, 41.4993], [-81.3206, 41.5743], [-81.3592, 41.6442], [-81.4207, 41.7043], [-81.5009, 41.7503], [-81.5942, 41.7793], [-81.6944, 41.7892], [-81.7946, 41.7793], [-81.8879, 41.7503], [-81.9681, 41.7043], [-82.0296, 41.6442], [-82.0682, 41.5743], [-82.0814, 41.4993], [-82.0682, 41.4243], [-82.0296, 41.3544], [-81.9681, 41.2943], [-81.8879, 41.2483], [-81.7946, 41.2193], [-81.6944, 41.2094], [-81.5942, 41.2193], [-81.5009, 41.2483], [-81.4207, 41.2943], [-81.3592, 41.3544], [-81.3206, 41.4243], [-81.3074, 41.4993]]]}}, {"type": "Feature", "properties": {"name": "Franklin County OH", "population": 1323807, "density": "High", "type": "Population Zone"}, "geometry": {"type": "Polygon", "coordinates": [[[-82.6206, 39.9612], [-82.6335, 40.0362], [-82.6713, 40.1061], [-82.7314, 40.1662], [-82.8097, 40.2122], [-82.9009, 40.2412], [-82.9988, 40.2511], [-83.0967, 40.2412], [-83.1879, 40.2122], [-83.2662, 40.1662], [-83.3263, 40.1061], [-83.3641, 40.0362], [-83.377, 39.9612], [-83.3641, 39.8862], [-83.3263, 39.8163], [-83.2662, 39.7562], [-83.1879, 39.7102], [-83.0967, 39.6812], [-82.9988, 39.6713], [-82.9009, 39.6812], [-82.8097, 39.7102], [-82.7314, 39.7562], [-82.6713, 39.8163], [-82.6335, 39.8862], [-82.6206, 39.9612]]]}}, {"type": "Feature", "properties": {"name": "Fulton County GA", "population": 1066710, "density": "High", "type": "Population Zone"}, "geometry": {"type": "Polygon", "coordinates": [[[-84.1189, 33.79], [-84.1308, 33.865], [-84.1657, 33.9349], [-84.2211, 33.995], [-84.2933, 34.041], [-84.3774, 34.07], [-84.4677, 34.0799], [-84.558, 34.07], [-84.6421, 34.041], [-84.7143, 33.995], [-84.7697, 33.9349], [-84.8046, 33.865], [-84.8165, 33.79], [-84.8046, 33.715], [-84.7697, 33.6451], [-84.7143, 33.585], [-84.6421, 33.539], [-84.558, 33.51], [-84.4677, 33.5001], [-84.3774, 33.51], [-84.2933, 33.539], [-84.2211, 33.585], [-84.1657, 33.6451], [-84.1308, 33.715], [-84.1189, 33.79]]]}}, {"type": "Feature", "properties": {"name": "Baltimore City MD", "population": 585708, "density": "High", "type": "Population Zone"}, "geometry": {"type": "Polygon", "coordinates": [[[-76.2377, 39.2904], [-76.2504, 39.3654], [-76.2879, 39.4353], [-76.3474, 39.4954], [-76.4249, 39.5414], [-76.5153, 39.5704], [-76.6122, 39.5803], [-76.7091, 39.5704], [-76.7995, 39.5414], [-76.877, 39.4954], [-76.9365, 39.4353], [-76.974, 39.3654], [-76.9867, 39.2904], [-76.974, 39.2154], [-76.9365, 39.1455], [-76.877, 39.0854], [-76.7995, 39.0394], [-76.7091, 39.0104], [-76.6122, 39.0005], [-76.5153, 39.0104], [-76.4249, 39.0394], [-76.3474, 39.0854], [-76.2879, 39.1455], [-76.2504, 39.2154], [-76.2377, 39.2904]]]}}, {"type": "Feature", "properties": {"name": "St. Louis County MO", "population": 1004125, "density": "High", "type": "Population Zone"}, "geometry": {"type": "Polygon", "coordinates": [[[-90.0184, 38.6476], [-90.031, 38.7226], [-90.0681, 38.7925], [-90.1271, 38.8526], [-90.2039, 38.8986], [-90.2934, 38.9276], [-90.3895, 38.9375], [-90.4856, 38.9276], [-90.5751, 38.8986], [-90.6519, 38.8526], [-90.7109, 38.7925], [-90.748, 38.7226], [-90.7606, 38.6476], [-90.748, 38.5726], [-90.7109, 38.5027], [-90.6519, 38.4426], [-90.5751, 38.3966], [-90.4856, 38.3676], [-90.3895, 38.3577], [-90.2934, 38.3676], [-90.2039, 38.3966], [-90.1271, 38.4426], [-90.0681, 38.5027], [-90.031, 38.5726], [-90.0184, 38.6476]]]}}, {"type": "Feature", "properties": {"name": "Multnomah County OR", "population": 812855, "density": "High", "type": "Population Zone"}, "geometry": {"type": "Polygon", "coordinates": [[[-122.2614, 45.5051], [-122.2755, 45.5801], [-122.3168, 45.65], [-122.3826, 45.7101], [-122.4682, 45.7561], [-122.568, 45.7851], [-122.675, 45.795], [-122.782, 45.7851], [-122.8818, 45.7561], [-122.9674, 45.7101], [-123.0332, 45.65], [-123.0745, 45.5801], [-123.0886, 45.5051], [-123.0745, 45.4301], [-123.0332, 45.3602], [-122.9674, 45.3001], [-122.8818, 45.2541], [-122.782, 45.2251], [-122.675, 45.2152], [-122.568, 45.2251], [-122.4682, 45.2541], [-122.3826, 45.3001], [-122.3168, 45.3602], [-122.2755, 45.4301], [-122.2614, 45.5051]]]}}, {"type": "Feature", "properties": {"name": "Shelby County TN", "population": 929744, "density": "High", "type": "Population Zone"}, "geometry": {"type": "Polygon", "coordinates": [[[-89.6945, 35.1495], [-89.7066, 35.2245], [-89.742, 35.2944], [-89.7983, 35.3545], [-89.8718, 35.4005], [-89.9572, 35.4295], [-90.049, 35.4394], [-90.1408, 35.4295], [-90.2262, 35.4005], [-90.2997, 35.3545], [-90.356, 35.2944], [-90.3914, 35.2245], [-90.4035, 35.1495], [-90.3914, 35.0745], [-90.356, 35.0046], [-90.2997, 34.9445], [-90.2262, 34.8985], [-90.1408, 34.8695], [-90.049, 34.8596], [-89.9572, 34.8695], [-89.8718, 34.8985], [-89.7983, 34.9445], [-89.742, 35.0046], [-89.7066, 35.0745], [-89.6945, 35.1495]]]}}, {"type": "Feature", "properties": {"name": "Orleans County LA", "population": 383997, "density": "High", "type": "Population Zone"}, "geometry": {"type": "Polygon", "coordinates": [[[-89.737, 29.9511], [-89.7484, 30.0261], [-89.7818, 30.096], [-89.835, 30.1561], [-89.9042, 30.2021], [-89.9849, 30.2311], [-90.0715, 30.241], [-90.1581, 30.2311], [-90.2388, 30.2021], [-90.308, 30.1561], [-90.3612, 30.096], [-90.3946, 30.0261], [-90.406, 29.9511], [-90.3946, 29.8761], [-90.3612, 29.8062], [-90.308, 29.7461], [-90.2388, 29.7001], [-90.1581, 29.6711], [-90.0715, 29.6612], [-89.9849, 29.6711], [-89.9042, 29.7001], [-89.835, 29.7461], [-89.7818, 29.8062], [-89.7484, 29.8761], [-89.737, 29.9511]]]}}, {"type": "Feature", "properties": {"name": "Jefferson County AL", "population": 674721, "density": "High", "type": "Population Zone"}, "geometry": {"type": "Polygon", "coordinates": [[[-86.4548, 33.5207], [-86.4667, 33.5957], [-86.5014, 33.6656], [-86.5567, 33.7257], [-86.6287, 33.7717], [-86.7125, 33.8007], [-86.8025, 33.8106], [-86.8925, 33.8007], [-86.9763, 33.7717], [-87.0483, 33.7257], [-87.1036, 33.6656], [-87.1383, 33.5957], [-87.1502, 33.5207], [-87.1383, 33.4457], [-87.1036, 33.3758], [-87.0483, 33.3157], [-86.9763, 33.2697], [-86.8925, 33.2407], [-86.8025, 33.2308], [-86.7125, 33.2407], [-86.6287, 33.2697], [-86.5567, 33.3157], [-86.5014, 33.3758], [-86.4667, 33.4457], [-86.4548, 33.5207]]]}}, {"type": "Feature", "properties": {"name": "Wake County NC", "population": 1129410, "density": "High", "type": "Population Zone"}, "geometry": {"type": "Polygon", "coordinates": [[[-78.2809, 35.7796], [-78.2931, 35.8546], [-78.3288, 35.9245], [-78.3856, 35.9846], [-78.4596, 36.0306], [-78.5457, 36.0596], [-78.6382, 36.0695], [-78.7307, 36.0596], [-78.8168, 36.0306], [-78.8908, 35.9846], [-78.9476, 35.9245], [-78.9833, 35.8546], [-78.9955, 35.7796], [-78.9833, 35.7046], [-78.9476, 35.6347], [-78.8908, 35.5746], [-78.8168, 35.5286], [-78.7307, 35.4996], [-78.6382, 35.4897], [-78.5457, 35.4996], [-78.4596, 35.5286], [-78.3856, 35.5746], [-78.3288, 35.6347], [-78.2931, 35.7046], [-78.2809, 35.7796]]]}}, {"type": "Feature", "properties": {"name": "Mecklenburg County NC", "population": 1115482, "density": "High", "type": "Population Zone"}, "geometry": {"type": "Polygon", "coordinates": [[[-80.4883, 35.2271], [-80.5004, 35.3021], [-80.5358, 35.372], [-80.5922, 35.4321], [-80.6657, 35.4781], [-80.7513, 35.5071], [-80.8431, 35.517], [-80.9349, 35.5071], [-81.0205, 35.4781], [-81.094, 35.4321], [-81.1504, 35.372], [-81.1858, 35.3021], [-81.1979, 35.2271], [-81.1858, 35.1521], [-81.1504, 35.0822], [-81.094, 35.0221], [-81.0205, 34.9761], [-80.9349, 34.9471], [-80.8431, 34.9372], [-80.7513, 34.9471], [-80.6657, 34.9761], [-80.5922, 35.0221], [-80.5358, 35.0822], [-80.5004, 35.1521], [-80.4883, 35.2271]]]}}, {"type": "Feature", "properties": {"name": "Hamilton County OH", "population": 830639, "density": "High", "type": "Population Zone"}, "geometry": {"type": "Polygon", "coordinates": [[[-84.1385, 39.1031], [-84.1512, 39.1781], [-84.1885, 39.248], [-84.2479, 39.3081], [-84.3252, 39.3541], [-84.4153, 39.3831], [-84.512, 39.393], [-84.6087, 39.3831], [-84.6988, 39.3541], [-84.7761, 39.3081], [-84.8355, 39.248], [-84.8728, 39.1781], [-84.8855, 39.1031], [-84.8728, 39.0281], [-84.8355, 38.9582], [-84.7761, 38.8981], [-84.6988, 38.8521], [-84.6087, 38.8231], [-84.512, 38.8132], [-84.4153, 38.8231], [-84.3252, 38.8521], [-84.2479, 38.8981], [-84.1885, 38.9582], [-84.1512, 39.0281], [-84.1385, 39.1031]]]}}, {"type": "Feature", "properties": {"name": "Marion County IN", "population": 977203, "density": "High", "type": "Population Zone"}, "geometry": {"type": "Polygon", "coordinates": [[[-85.781, 39.7684], [-85.7938, 39.8434], [-85.8315, 39.9133], [-85.8914, 39.9734], [-85.9695, 40.0194], [-86.0605, 40.0484], [-86.1581, 40.0583], [-86.2557, 40.0484], [-86.3467, 40.0194], [-86.4248, 39.9734], [-86.4847, 39.9133], [-86.5224, 39.8434], [-86.5352, 39.7684], [-86.5224, 39.6934], [-86.4847, 39.6235], [-86.4248, 39.5634], [-86.3467, 39.5174], [-86.2557, 39.4884], [-86.1581, 39.4785], [-86.0605, 39.4884], [-85.9695, 39.5174], [-85.8914, 39.5634], [-85.8315, 39.6235], [-85.7938, 39.6934], [-85.781, 39.7684]]]}}, {"type": "Feature", "properties": {"name": "Dane County WI", "population": 561504, "density": "High", "type": "Population Zone"}, "geometry": {"type": "Polygon", "coordinates": [[[-89.0044, 43.0731], [-89.0179, 43.1481], [-89.0576, 43.218], [-89.1206, 43.2781], [-89.2028, 43.3241], [-89.2985, 43.3531], [-89.4012, 43.363], [-89.5039, 43.3531], [-89.5996, 43.3241], [-89.6818, 43.2781], [-89.7448, 43.218], [-89.7845, 43.1481], [-89.798, 43.0731], [-89.7845, 42.9981], [-89.7448, 42.9282], [-89.6818, 42.8681], [-89.5996, 42.8221], [-89.5039, 42.7931], [-89.4012, 42.7832], [-89.2985, 42.7931], [-89.2028, 42.8221], [-89.1206, 42.8681], [-89.0576, 42.9282], [-89.0179, 42.9981], [-89.0044, 43.0731]]]}}, {"type": "Feature", "properties": {"name": "Milwaukee County WI", "population": 939489, "density": "High", "type": "Population Zone"}, "geometry": {"type": "Polygon", "coordinates": [[[-87.64, 43.0389], [-87.6535, 43.1139], [-87.6932, 43.1838], [-87.7562, 43.2439], [-87.8383, 43.2899], [-87.934, 43.3189], [-88.0366, 43.3288], [-88.1392, 43.3189], [-88.2349, 43.2899], [-88.317, 43.2439], [-88.38, 43.1838], [-88.4197, 43.1139], [-88.4332, 43.0389], [-88.4197, 42.9639], [-88.38, 42.894], [-88.317, 42.8339], [-88.2349, 42.7879], [-88.1392, 42.7589], [-88.0366, 42.749], [-87.934, 42.7589], [-87.8383, 42.7879], [-87.7562, 42.8339], [-87.6932, 42.894], [-87.6535, 42.9639], [-87.64, 43.0389]]]}}, {"type": "Feature", "properties": {"name": "Jefferson County CO", "population": 582881, "density": "High", "type": "Population Zone"}, "geometry": {"type": "Polygon", "coordinates": [[[-104.7059, 39.5831], [-104.7187, 39.6581], [-104.7563, 39.728], [-104.8161, 39.7881], [-104.894, 39.8341], [-104.9847, 39.8631], [-105.082, 39.873], [-105.1793, 39.8631], [-105.27, 39.8341], [-105.3479, 39.7881], [-105.4077, 39.728], [-105.4453, 39.6581], [-105.4581, 39.5831], [-105.4453, 39.5081], [-105.4077, 39.4382], [-105.3479, 39.3781], [-105.27, 39.3321], [-105.1793, 39.3031], [-105.082, 39.2932], [-104.9847, 39.3031], [-104.894, 39.3321], [-104.8161, 39.3781], [-104.7563, 39.4382], [-104.7187, 39.5081], [-104.7059, 39.5831]]]}}, {"type": "Feature", "properties": {"name": "Arapahoe County CO", "population": 656590, "density": "High", "type": "Population Zone"}, "geometry": {"type": "Polygon", "coordinates": [[[-104.4014, 39.6534], [-104.4143, 39.7284], [-104.4519, 39.7983], [-104.5117, 39.8584], [-104.5897, 39.9044], [-104.6805, 39.9334], [-104.7779, 39.9433], [-104.8753, 39.9334], [-104.9661, 39.9044], [-105.0441, 39.8584], [-105.1039, 39.7983], [-105.1415, 39.7284], [-105.1544, 39.6534], [-105.1415, 39.5784], [-105.1039, 39.5085], [-105.0441, 39.4484], [-104.9661, 39.4024], [-104.8753, 39.3734], [-104.7779, 39.3635], [-104.6805, 39.3734], [-104.5897, 39.4024], [-104.5117, 39.4484], [-104.4519, 39.5085], [-104.4143, 39.5784], [-104.4014, 39.6534]]]}}, {"type": "Feature", "properties": {"name": "Salt Lake County UT", "population": 1185238, "density": "High", "type": "Population Zone"}, "geometry": {"type": "Polygon", "coordinates": [[[-111.5083, 40.7608], [-111.5214, 40.8358], [-111.5596, 40.9057], [-111.6204, 40.9658], [-111.6997, 41.0118], [-111.792, 41.0408], [-111.891, 41.0507], [-111.99, 41.0408], [-112.0823, 41.0118], [-112.1616, 40.9658], [-112.2224, 40.9057], [-112.2606, 40.8358], [-112.2737, 40.7608], [-112.2606, 40.6858], [-112.2224, 40.6159], [-112.1616, 40.5558], [-112.0823, 40.5098], [-111.99, 40.4808], [-111.891, 40.4709], [-111.792, 40.4808], [-111.6997, 40.5098], [-111.6204, 40.5558], [-111.5596, 40.6159], [-111.5214, 40.6858], [-111.5083, 40.7608]]]}}, {"type": "Feature", "properties": {"name": "Ada County ID", "population": 502607, "density": "Medium", "type": "Population Zone"}, "geometry": {"type": "Polygon", "coordinates": [[[-115.7019, 43.615], [-115.7189, 43.7088], [-115.7689, 43.7962], [-115.8484, 43.8712], [-115.9521, 43.9288], [-116.0728, 43.965], [-116.2023, 43.9773], [-116.3318, 43.965], [-116.4525, 43.9288], [-116.5562, 43.8712], [-116.6357, 43.7962], [-116.6857, 43.7088], [-116.7027, 43.615], [-116.6857, 43.5212], [-116.6357, 43.4338], [-116.5562, 43.3588], [-116.4525, 43.3012], [-116.3318, 43.265], [-116.2023, 43.2527], [-116.0728, 43.265], [-115.9521, 43.3012], [-115.8484, 43.3588], [-115.7689, 43.4338], [-115.7189, 43.5212], [-115.7019, 43.615]]]}}, {"type": "Feature", "properties": {"name": "Pima County AZ", "population": 1047279, "density": "High", "type": "Population Zone"}, "geometry": {"type": "Polygon", "coordinates": [[[-110.6074, 32.2319], [-110.6191, 32.3069], [-110.6533, 32.3768], [-110.7078, 32.4369], [-110.7788, 32.4829], [-110.8614, 32.5119], [-110.9501, 32.5218], [-111.0388, 32.5119], [-111.1214, 32.4829], [-111.1924, 32.4369], [-111.2469, 32.3768], [-111.2811, 32.3069], [-111.2928, 32.2319], [-111.2811, 32.1569], [-111.2469, 32.087], [-111.1924, 32.0269], [-111.1214, 31.9809], [-111.0388, 31.9519], [-110.9501, 31.942], [-110.8614, 31.9519], [-110.7788, 31.9809], [-110.7078, 32.0269], [-110.6533, 32.087], [-110.6191, 32.1569], [-110.6074, 32.2319]]]}}, {"type": "Feature", "properties": {"name": "Snohomish County WA", "population": 858600, "density": "High", "type": "Population Zone"}, "geometry": {"type": "Polygon", "coordinates": [[[-121.5509, 47.9479], [-121.5656, 48.0229], [-121.6088, 48.0928], [-121.6776, 48.1529], [-121.7672, 48.1989], [-121.8716, 48.2279], [-121.9836, 48.2378], [-122.0956, 48.2279], [-122.2, 48.1989], [-122.2896, 48.1529], [-122.3584, 48.0928], [-122.4016, 48.0229], [-122.4163, 47.9479], [-122.4016, 47.8729], [-122.3584, 47.803], [-122.2896, 47.7429], [-122.2, 47.6969], [-122.0956, 47.6679], [-121.9836, 47.658], [-121.8716, 47.6679], [-121.7672, 47.6969], [-121.6776, 47.7429], [-121.6088, 47.803], [-121.5656, 47.8729], [-121.5509, 47.9479]]]}}, {"type": "Feature", "properties": {"name": "Pierce County WA", "population": 921130, "density": "High", "type": "Population Zone"}, "geometry": {"type": "Polygon", "coordinates": [[[-121.8754, 47.0379], [-121.8899, 47.1129], [-121.9324, 47.1828], [-122.0, 47.2429], [-122.088, 47.2889], [-122.1906, 47.3179], [-122.3007, 47.3278], [-122.4108, 47.3179], [-122.5134, 47.2889], [-122.6014, 47.2429], [-122.669, 47.1828], [-122.7115, 47.1129], [-122.726, 47.0379], [-122.7115, 46.9629], [-122.669, 46.893], [-122.6014, 46.8329], [-122.5134, 46.7869], [-122.4108, 46.7579], [-122.3007, 46.748], [-122.1906, 46.7579], [-122.088, 46.7869], [-122.0, 46.8329], [-121.9324, 46.893], [-121.8899, 46.9629], [-121.8754, 47.0379]]]}}, {"type": "Feature", "properties": {"name": "DuPage County IL", "population": 929292, "density": "High", "type": "Population Zone"}, "geometry": {"type": "Polygon", "coordinates": [[[-87.6926, 41.8534], [-87.7058, 41.9284], [-87.7447, 41.9983], [-87.8065, 42.0584], [-87.8871, 42.1044], [-87.981, 42.1334], [-88.0817, 42.1433], [-88.1824, 42.1334], [-88.2763, 42.1044], [-88.3569, 42.0584], [-88.4187, 41.9983], [-88.4576, 41.9284], [-88.4708, 41.8534], [-88.4576, 41.7784], [-88.4187, 41.7085], [-88.3569, 41.6484], [-88.2763, 41.6024], [-88.1824, 41.5734], [-88.0817, 41.5635], [-87.981, 41.5734], [-87.8871, 41.6024], [-87.8065, 41.6484], [-87.7447, 41.7085], [-87.7058, 41.7784], [-87.6926, 41.8534]]]}}, {"type": "Feature", "properties": {"name": "Bergen County NJ", "population": 955732, "density": "High", "type": "Population Zone"}, "geometry": {"type": "Polygon", "coordinates": [[[-73.6907, 40.9265], [-73.7037, 41.0015], [-73.7421, 41.0714], [-73.803, 41.1315], [-73.8825, 41.1775], [-73.975, 41.2065], [-74.0743, 41.2164], [-74.1736, 41.2065], [-74.2661, 41.1775], [-74.3456, 41.1315], [-74.4065, 41.0714], [-74.4449, 41.0015], [-74.4579, 40.9265], [-74.4449, 40.8515], [-74.4065, 40.7816], [-74.3456, 40.7215], [-74.2661, 40.6755], [-74.1736, 40.6465], [-74.0743, 40.6366], [-73.975, 40.6465], [-73.8825, 40.6755], [-73.803, 40.7215], [-73.7421, 40.7816], [-73.7037, 40.8515], [-73.6907, 40.9265]]]}}, {"type": "Feature", "properties": {"name": "Essex County NJ", "population": 863728, "density": "High", "type": "Population Zone"}, "geometry": {"type": "Polygon", "coordinates": [[[-73.8621, 40.7831], [-73.8751, 40.8581], [-73.9134, 40.928], [-73.9742, 40.9881], [-74.0535, 41.0341], [-74.1458, 41.0631], [-74.2449, 41.073], [-74.344, 41.0631], [-74.4363, 41.0341], [-74.5156, 40.9881], [-74.5764, 40.928], [-74.6147, 40.8581], [-74.6277, 40.7831], [-74.6147, 40.7081], [-74.5764, 40.6382], [-74.5156, 40.5781], [-74.4363, 40.5321], [-74.344, 40.5031], [-74.2449, 40.4932], [-74.1458, 40.5031], [-74.0535, 40.5321], [-73.9742, 40.5781], [-73.9134, 40.6382], [-73.8751, 40.7081], [-73.8621, 40.7831]]]}}, {"type": "Feature", "properties": {"name": "Westchester County NY", "population": 1004457, "density": "High", "type": "Population Zone"}, "geometry": {"type": "Polygon", "coordinates": [[[-73.3785, 41.0534], [-73.3916, 41.1284], [-73.43, 41.1983], [-73.4911, 41.2584], [-73.5707, 41.3044], [-73.6634, 41.3334], [-73.7629, 41.3433], [-73.8624, 41.3334], [-73.9551, 41.3044], [-74.0347, 41.2584], [-74.0958, 41.1983], [-74.1342, 41.1284], [-74.1473, 41.0534], [-74.1342, 40.9784], [-74.0958, 40.9085], [-74.0347, 40.8484], [-73.9551, 40.8024], [-73.8624, 40.7734], [-73.7629, 40.7635], [-73.6634, 40.7734], [-73.5707, 40.8024], [-73.4911, 40.8484], [-73.43, 40.9085], [-73.3916, 40.9784], [-73.3785, 41.0534]]]}}, {"type": "Feature", "properties": {"name": "Nassau County NY", "population": 1395774, "density": "Very High", "type": "Population Zone"}, "geometry": {"type": "Polygon", "coordinates": [[[-73.2818, 40.6501], [-73.2915, 40.7064], [-73.3202, 40.7588], [-73.3657, 40.8038], [-73.425, 40.8384], [-73.4941, 40.8601], [-73.5683, 40.8675], [-73.6425, 40.8601], [-73.7116, 40.8384], [-73.7709, 40.8038], [-73.8164, 40.7588], [-73.8451, 40.7064], [-73.8548, 40.6501], [-73.8451, 40.5938], [-73.8164, 40.5414], [-73.7709, 40.4964], [-73.7116, 40.4618], [-73.6425, 40.4401], [-73.5683, 40.4327], [-73.4941, 40.4401], [-73.425, 40.4618], [-73.3657, 40.4964], [-73.3202, 40.5414], [-73.2915, 40.5938], [-73.2818, 40.6501]]]}}, {"type": "Feature", "properties": {"name": "Suffolk County NY", "population": 1525920, "density": "Very High", "type": "Population Zone"}, "geometry": {"type": "Polygon", "coordinates": [[[-72.4149, 40.9176], [-72.4247, 40.9739], [-72.4535, 41.0263], [-72.4992, 41.0713], [-72.5588, 41.1059], [-72.6281, 41.1276], [-72.7026, 41.135], [-72.7771, 41.1276], [-72.8464, 41.1059], [-72.906, 41.0713], [-72.9517, 41.0263], [-72.9805, 40.9739], [-72.9903, 40.9176], [-72.9805, 40.8613], [-72.9517, 40.8089], [-72.906, 40.7639], [-72.8464, 40.7293], [-72.7771, 40.7076], [-72.7026, 40.7002], [-72.6281, 40.7076], [-72.5588, 40.7293], [-72.4992, 40.7639], [-72.4535, 40.8089], [-72.4247, 40.8613], [-72.4149, 40.9176]]]}}, {"type": "Feature", "properties": {"name": "Montgomery County MD", "population": 1062061, "density": "Very High", "type": "Population Zone"}, "geometry": {"type": "Polygon", "coordinates": [[[-76.9602, 39.1547], [-76.9697, 39.211], [-76.9977, 39.2634], [-77.0423, 39.3084], [-77.1003, 39.343], [-77.1679, 39.3647], [-77.2405, 39.3721], [-77.3131, 39.3647], [-77.3807, 39.343], [-77.4387, 39.3084], [-77.4833, 39.2634], [-77.5113, 39.211], [-77.5208, 39.1547], [-77.5113, 39.0984], [-77.4833, 39.046], [-77.4387, 39.001], [-77.3807, 38.9664], [-77.3131, 38.9447], [-77.2405, 38.9373], [-77.1679, 38.9447], [-77.1003, 38.9664], [-77.0423, 39.001], [-76.9977, 39.046], [-76.9697, 39.0984], [-76.9602, 39.1547]]]}}, {"type": "Feature", "properties": {"name": "Prince George County MD", "population": 967201, "density": "High", "type": "Population Zone"}, "geometry": {"type": "Polygon", "coordinates": [[[-76.4956, 38.8468], [-76.5083, 38.9218], [-76.5455, 38.9917], [-76.6046, 39.0518], [-76.6817, 39.0978], [-76.7715, 39.1268], [-76.8678, 39.1367], [-76.9641, 39.1268], [-77.0539, 39.0978], [-77.131, 39.0518], [-77.1901, 38.9917], [-77.2273, 38.9218], [-77.24, 38.8468], [-77.2273, 38.7718], [-77.1901, 38.7019], [-77.131, 38.6418], [-77.0539, 38.5958], [-76.9641, 38.5668], [-76.8678, 38.5569], [-76.7715, 38.5668], [-76.6817, 38.5958], [-76.6046, 38.6418], [-76.5455, 38.7019], [-76.5083, 38.7718], [-76.4956, 38.8468]]]}}, {"type": "Feature", "properties": {"name": "Fairfax County VA", "population": 1150309, "density": "Very High", "type": "Population Zone"}, "geometry": {"type": "Polygon", "coordinates": [[[-77.0273, 38.8462], [-77.0368, 38.9025], [-77.0647, 38.9549], [-77.109, 38.9999], [-77.1668, 39.0345], [-77.2342, 39.0562], [-77.3064, 39.0636], [-77.3786, 39.0562], [-77.446, 39.0345], [-77.5038, 38.9999], [-77.5481, 38.9549], [-77.576, 38.9025], [-77.5855, 38.8462], [-77.576, 38.7899], [-77.5481, 38.7375], [-77.5038, 38.6925], [-77.446, 38.6579], [-77.3786, 38.6362], [-77.3064, 38.6288], [-77.2342, 38.6362], [-77.1668, 38.6579], [-77.109, 38.6925], [-77.0647, 38.7375], [-77.0368, 38.7899], [-77.0273, 38.8462]]]}}]}