{"type":"FeatureCollection","features":[{"type":"Feature","geometry":{"type":"Point","coordinates":[-149.894852,61.2163129]},"properties":{"city":"Anchorage","state":"Alaska","cityStateKey":"Anchorage|Alaska","cityLevel":1,"isPriority":true,"ooCount":0,"partnerCount":1,"totalSites":1,"totalTCAs":1,"inProcess":1,"cleared":0,"siteActivated":false}},{"type":"Feature","geometry":{"type":"Point","coordinates":[-147.716675,64.837845]},"properties":{"city":"Fairbanks","state":"Alaska","cityStateKey":"Fairbanks|Alaska","cityLevel":2,"isPriority":true,"ooCount":0,"partnerCount":1,"totalSites":1,"totalTCAs":2,"inProcess":1,"cleared":0,"siteActivated":false}},{"type":"Feature","geometry":{"type":"Point","coordinates":[-134.4196751,58.3019613]},"properties":{"city":"Juneau","state":"Alaska","cityStateKey":"Juneau|Alaska","cityLevel":3,"isPriority":true,"ooCount":0,"partnerCount":1,"totalSites":1,"totalTCAs":2,"inProcess":2,"cleared":0,"siteActivated":false}},{"type":"Feature","geometry":{"type":"Point","coordinates":[-86.9711698,34.8045487]},"properties":{"city":"Athens","state":"Alabama","cityStateKey":"Athens|Alabama","cityLevel":1,"isPriority":true,"ooCount":0,"partnerCount":1,"totalSites":1,"totalTCAs":2,"inProcess":2,"cleared":0,"siteActivated":false}},{"type":"Feature","geometry":{"type":"Point","coordinates":[-86.8024326,33.5206824]},"properties":{"city":"Birmingham","state":"Alabama","cityStateKey":"Birmingham|Alabama","cityLevel":2,"isPriority":true,"ooCount":1,"partnerCount":0,"totalSites":1,"totalTCAs":2,"inProcess":0,"cleared":0,"siteActivated":false}},{"type":"Feature","geometry":{"type":"Point","coordinates":[-86.5859011,34.729847]},"properties":{"city":"Huntsville","state":"Alabama","cityStateKey":"Huntsville|Alabama","cityLevel":1,"isPriority":true,"ooCount":1,"partnerCount":0,"totalSites":1,"totalTCAs":3,"inProcess":0,"cleared":0,"siteActivated":false}},{"type":"Feature","geometry":{"type":"Point","coordinates":[-88.0437509,30.6913462]},"properties":{"city":"Mobile","state":"Alabama","cityStateKey":"Mobile|Alabama","cityLevel":4,"isPriority":false,"ooCount":1,"partnerCount":0,"totalSites":1,"totalTCAs":12,"inProcess":4,"cleared":1,"siteActivated":true}},{"type":"Feature","geometry":{"type":"Point","coordinates":[-86.3090775,32.3777111]},"properties":{"city":"Montgomery","state":"Alabama","cityStateKey":"Montgomery|Alabama","cityLevel":3,"isPriority":true,"ooCount":1,"partnerCount":0,"totalSites":1,"totalTCAs":3,"inProcess":0,"cleared":1,"siteActivated":true}},{"type":"Feature","geometry":{"type":"Point","coordinates":[-94.1574328,36.0625843]},"properties":{"city":"Fayetteville","state":"Arkansas","cityStateKey":"Fayetteville|Arkansas","cityLevel":2,"isPriority":true,"ooCount":0,"partnerCount":1,"totalSites":1,"totalTCAs":1,"inProcess":0,"cleared":0,"siteActivated":false}},{"type":"Feature","geometry":{"type":"Point","coordinates":[-94.4265011,35.3880338]},"properties":{"city":"Fort Smith","state":"Arkansas","cityStateKey":"Fort Smith|Arkansas","cityLevel":3,"isPriority":true,"ooCount":0,"partnerCount":1,"totalSites":1,"totalTCAs":2,"inProcess":2,"cleared":0,"siteActivated":false}},{"type":"Feature","geometry":{"type":"Point","coordinates":[-92.2896267,34.7465071]},"properties":{"city":"Little Rock","state":"Arkansas","cityStateKey":"Little Rock|Arkansas","cityLevel":1,"isPriority":true,"ooCount":0,"partnerCount":1,"totalSites":1,"totalTCAs":1,"inProcess":0,"cleared":0,"siteActivated":false}},{"type":"Feature","geometry":{"type":"Point","coordinates":[-112.074141,33.4484367]},"properties":{"city":"Phoenix","state":"Arizona","cityStateKey":"Phoenix|Arizona","cityLevel":1,"isPriority":true,"ooCount":0,"partnerCount":1,"totalSites":1,"totalTCAs":9,"inProcess":3,"cleared":0,"siteActivated":false}},{"type":"Feature","geometry":{"type":"Point","coordinates":[-111.940016,33.4255117]},"properties":{"city":"Tempe","state":"Arizona","cityStateKey":"Tempe|Arizona","cityLevel":3,"isPriority":true,"ooCount":0,"partnerCount":1,"totalSites":1,"totalTCAs":7,"inProcess":2,"cleared":0,"siteActivated":false}},{"type":"Feature","geometry":{"type":"Point","coordinates":[-110.974847,32.2228765]},"properties":{"city":"Tucson","state":"Arizona","cityStateKey":"Tucson|Arizona","cityLevel":2,"isPriority":true,"ooCount":0,"partnerCount":1,"totalSites":1,"totalTCAs":5,"inProcess":1,"cleared":0,"siteActivated":false}},{"type":"Feature","geometry":{"type":"Point","coordinates":[-118.7655456,34.1481692]},"properties":{"city":"Agoura Hills","state":"California","cityStateKey":"Agoura Hills|California","cityLevel":1,"isPriority":true,"ooCount":1,"partnerCount":0,"totalSites":1,"totalTCAs":11,"inProcess":6,"cleared":3,"siteActivated":true}},{"type":"Feature","geometry":{"type":"Point","coordinates":[-120.6707255,35.4894169]},"properties":{"city":"Atascadero","state":"California","cityStateKey":"Atascadero|California","cityLevel":4,"isPriority":false,"ooCount":1,"partnerCount":0,"totalSites":1,"totalTCAs":5,"inProcess":3,"cleared":2,"siteActivated":true}},{"type":"Feature","geometry":{"type":"Point","coordinates":[-119.019463,35.3738712]},"properties":{"city":"Bakersfield","state":"California","cityStateKey":"Bakersfield|California","cityLevel":4,"isPriority":false,"ooCount":1,"partnerCount":0,"totalSites":1,"totalTCAs":5,"inProcess":4,"cleared":1,"siteActivated":true}},{"type":"Feature","geometry":{"type":"Point","coordinates":[-118.2517547,33.8322043]},"properties":{"city":"Carson","state":"California","cityStateKey":"Carson|California","cityLevel":4,"isPriority":false,"ooCount":1,"partnerCount":0,"totalSites":1,"totalTCAs":6,"inProcess":2,"cleared":3,"siteActivated":true}},{"type":"Feature","geometry":{"type":"Point","coordinates":[-117.8103367,34.0286226]},"properties":{"city":"Diamond Bar","state":"California","cityStateKey":"Diamond Bar|California","cityLevel":4,"isPriority":false,"ooCount":1,"partnerCount":0,"totalSites":1,"totalTCAs":13,"inProcess":5,"cleared":0,"siteActivated":false}},{"type":"Feature","geometry":{"type":"Point","coordinates":[-118.036849,34.0751571]},"properties":{"city":"El Monte","state":"California","cityStateKey":"El Monte|California","cityLevel":4,"isPriority":false,"ooCount":1,"partnerCount":0,"totalSites":1,"totalTCAs":0,"inProcess":0,"cleared":0,"siteActivated":false}},{"type":"Feature","geometry":{"type":"Point","coordinates":[-119.78483,36.7394421]},"properties":{"city":"Fresno","state":"California","cityStateKey":"Fresno|California","cityLevel":4,"isPriority":false,"ooCount":1,"partnerCount":0,"totalSites":1,"totalTCAs":7,"inProcess":4,"cleared":2,"siteActivated":true}},{"type":"Feature","geometry":{"type":"Point","coordinates":[-117.3046869,34.4220358]},"properties":{"city":"Hesperia","state":"California","cityStateKey":"Hesperia|California","cityLevel":4,"isPriority":false,"ooCount":0,"partnerCount":1,"totalSites":1,"totalTCAs":0,"inProcess":0,"cleared":0,"siteActivated":false}},{"type":"Feature","geometry":{"type":"Point","coordinates":[-117.825981,33.6856969]},"properties":{"city":"Irvine","state":"California","cityStateKey":"Irvine|California","cityLevel":4,"isPriority":false,"ooCount":1,"partnerCount":0,"totalSites":1,"totalTCAs":13,"inProcess":7,"cleared":3,"siteActivated":true}},{"type":"Feature","geometry":{"type":"Point","coordinates":[-118.3526323,33.8951219]},"properties":{"city":"Lawndale","state":"California","cityStateKey":"Lawndale|California","cityLevel":4,"isPriority":false,"ooCount":1,"partnerCount":0,"totalSites":1,"totalTCAs":7,"inProcess":3,"cleared":1,"siteActivated":true}},{"type":"Feature","geometry":{"type":"Point","coordinates":[-122.391675,40.5863563]},"properties":{"city":"Redding","state":"California","cityStateKey":"Redding|California","cityLevel":4,"isPriority":false,"ooCount":1,"partnerCount":0,"totalSites":1,"totalTCAs":5,"inProcess":3,"cleared":0,"siteActivated":false}},{"type":"Feature","geometry":{"type":"Point","coordinates":[-117.374238,33.9824949]},"properties":{"city":"Riverside","state":"California","cityStateKey":"Riverside|California","cityLevel":4,"isPriority":false,"ooCount":1,"partnerCount":0,"totalSites":1,"totalTCAs":20,"inProcess":11,"cleared":4,"siteActivated":true}},{"type":"Feature","geometry":{"type":"Point","coordinates":[-121.493895,38.5810606]},"properties":{"city":"Sacramento","state":"California","cityStateKey":"Sacramento|California","cityLevel":4,"isPriority":false,"ooCount":1,"partnerCount":0,"totalSites":1,"totalTCAs":20,"inProcess":12,"cleared":2,"siteActivated":true}},{"type":"Feature","geometry":{"type":"Point","coordinates":[-117.162772,32.7174202]},"properties":{"city":"San Diego","state":"California","cityStateKey":"San Diego|California","cityLevel":2,"isPriority":true,"ooCount":1,"partnerCount":0,"totalSites":1,"totalTCAs":22,"inProcess":10,"cleared":4,"siteActivated":true}},{"type":"Feature","geometry":{"type":"Point","coordinates":[-122.4075201,37.7879363]},"properties":{"city":"San Francisco","state":"California","cityStateKey":"San Francisco|California","cityLevel":4,"isPriority":false,"ooCount":1,"partnerCount":0,"totalSites":1,"totalTCAs":14,"inProcess":10,"cleared":3,"siteActivated":true}},{"type":"Feature","geometry":{"type":"Point","coordinates":[-121.955174,37.3541132]},"properties":{"city":"Santa Clara","state":"California","cityStateKey":"Santa Clara|California","cityLevel":3,"isPriority":true,"ooCount":1,"partnerCount":0,"totalSites":1,"totalTCAs":12,"inProcess":3,"cleared":2,"siteActivated":true}},{"type":"Feature","geometry":{"type":"Point","coordinates":[-122.7141049,38.4404925]},"properties":{"city":"Santa Rosa","state":"California","cityStateKey":"Santa Rosa|California","cityLevel":4,"isPriority":false,"ooCount":1,"partnerCount":0,"totalSites":1,"totalTCAs":4,"inProcess":4,"cleared":0,"siteActivated":false}},{"type":"Feature","geometry":{"type":"Point","coordinates":[-122.0215737,37.5872576]},"properties":{"city":"Union City","state":"California","cityStateKey":"Union City|California","cityLevel":4,"isPriority":false,"ooCount":1,"partnerCount":0,"totalSites":1,"totalTCAs":12,"inProcess":8,"cleared":3,"siteActivated":true}},{"type":"Feature","geometry":{"type":"Point","coordinates":[-119.293174,34.2783355]},"properties":{"city":"Ventura","state":"California","cityStateKey":"Ventura|California","cityLevel":4,"isPriority":false,"ooCount":1,"partnerCount":0,"totalSites":1,"totalTCAs":8,"inProcess":4,"cleared":2,"siteActivated":true}},{"type":"Feature","geometry":{"type":"Point","coordinates":[-119.292058,36.3302284]},"properties":{"city":"Visalia","state":"California","cityStateKey":"Visalia|California","cityLevel":4,"isPriority":false,"ooCount":1,"partnerCount":0,"totalSites":1,"totalTCAs":7,"inProcess":3,"cleared":2,"siteActivated":true}},{"type":"Feature","geometry":{"type":"Point","coordinates":[-122.0618702,37.9020731]},"properties":{"city":"Walnut Creek","state":"California","cityStateKey":"Walnut Creek|California","cityLevel":4,"isPriority":false,"ooCount":1,"partnerCount":0,"totalSites":1,"totalTCAs":7,"inProcess":3,"cleared":2,"siteActivated":true}},{"type":"Feature","geometry":{"type":"Point","coordinates":[-104.8769227,39.579155]},"properties":{"city":"Centennial","state":"Colorado","cityStateKey":"Centennial|Colorado","cityLevel":3,"isPriority":true,"ooCount":1,"partnerCount":0,"totalSites":1,"totalTCAs":6,"inProcess":1,"cleared":1,"siteActivated":true}},{"type":"Feature","geometry":{"type":"Point","coordinates":[-104.825348,38.8339578]},"properties":{"city":"Colorado Springs","state":"Colorado","cityStateKey":"Colorado Springs|Colorado","cityLevel":2,"isPriority":true,"ooCount":0,"partnerCount":1,"totalSites":1,"totalTCAs":3,"inProcess":0,"cleared":0,"siteActivated":false}},{"type":"Feature","geometry":{"type":"Point","coordinates":[-107.8766,37.2769484]},"properties":{"city":"Durango","state":"Colorado","cityStateKey":"Durango|Colorado","cityLevel":4,"isPriority":false,"ooCount":1,"partnerCount":0,"totalSites":1,"totalTCAs":3,"inProcess":1,"cleared":2,"siteActivated":true}},{"type":"Feature","geometry":{"type":"Point","coordinates":[-105.0770113,40.5871782]},"properties":{"city":"Fort Collins","state":"Colorado","cityStateKey":"Fort Collins|Colorado","cityLevel":4,"isPriority":false,"ooCount":1,"partnerCount":0,"totalSites":1,"totalTCAs":11,"inProcess":3,"cleared":0,"siteActivated":false}},{"type":"Feature","geometry":{"type":"Point","coordinates":[-108.56448,39.0672568]},"properties":{"city":"Grand Junction","state":"Colorado","cityStateKey":"Grand Junction|Colorado","cityLevel":4,"isPriority":false,"ooCount":1,"partnerCount":0,"totalSites":1,"totalTCAs":4,"inProcess":2,"cleared":0,"siteActivated":false}},{"type":"Feature","geometry":{"type":"Point","coordinates":[-104.6141867,38.263995]},"properties":{"city":"Pueblo","state":"Colorado","cityStateKey":"Pueblo|Colorado","cityLevel":4,"isPriority":false,"ooCount":1,"partnerCount":0,"totalSites":1,"totalTCAs":6,"inProcess":1,"cleared":2,"siteActivated":true}},{"type":"Feature","geometry":{"type":"Point","coordinates":[-105.0772063,39.766098]},"properties":{"city":"Wheat Ridge","state":"Colorado","cityStateKey":"Wheat Ridge|Colorado","cityLevel":1,"isPriority":true,"ooCount":1,"partnerCount":0,"totalSites":1,"totalTCAs":7,"inProcess":1,"cleared":3,"siteActivated":true}},{"type":"Feature","geometry":{"type":"Point","coordinates":[-73.0570603,41.2222218]},"properties":{"city":"Milford","state":"Connecticut","cityStateKey":"Milford|Connecticut","cityLevel":1,"isPriority":true,"ooCount":2,"partnerCount":0,"totalSites":2,"totalTCAs":14,"inProcess":4,"cleared":0,"siteActivated":false}},{"type":"Feature","geometry":{"type":"Point","coordinates":[-72.7420399,41.7620447]},"properties":{"city":"West Hartford","state":"Connecticut","cityStateKey":"West Hartford|Connecticut","cityLevel":4,"isPriority":false,"ooCount":1,"partnerCount":0,"totalSites":1,"totalTCAs":6,"inProcess":3,"cleared":0,"siteActivated":false}},{"type":"Feature","geometry":{"type":"Point","coordinates":[-75.5243682,39.158168]},"properties":{"city":"Dover","state":"Delaware","cityStateKey":"Dover|Delaware","cityLevel":2,"isPriority":true,"ooCount":0,"partnerCount":1,"totalSites":1,"totalTCAs":1,"inProcess":1,"cleared":0,"siteActivated":false}},{"type":"Feature","geometry":{"type":"Point","coordinates":[-80.1935973,25.7741566]},"properties":{"city":"Miami","state":"Florida","cityStateKey":"Miami|Florida","cityLevel":null,"isPriority":false,"ooCount":0,"partnerCount":7,"totalSites":7,"totalTCAs":41,"inProcess":11,"cleared":2,"siteActivated":true}},{"type":"Feature","geometry":{"type":"Point","coordinates":[-80.1935973,25.7741566]},"properties":{"city":"Miami","state":"Fl","cityStateKey":"Miami|Fl","cityLevel":null,"isPriority":false,"ooCount":0,"partnerCount":1,"totalSites":1,"totalTCAs":4,"inProcess":3,"cleared":1,"siteActivated":true}},{"type":"Feature","geometry":{"type":"Point","coordinates":[-81.6579179,30.3262247]},"properties":{"city":"Jacksonville","state":"Florida","cityStateKey":"Jacksonville|Florida","cityLevel":1,"isPriority":true,"ooCount":0,"partnerCount":1,"totalSites":1,"totalTCAs":18,"inProcess":9,"cleared":0,"siteActivated":false}},{"type":"Feature","geometry":{"type":"Point","coordinates":[-81.379045,28.5421218]},"properties":{"city":"Orlando","state":"Florida","cityStateKey":"Orlando|Florida","cityLevel":4,"isPriority":false,"ooCount":0,"partnerCount":1,"totalSites":1,"totalTCAs":18,"inProcess":9,"cleared":0,"siteActivated":false}},{"type":"Feature","geometry":{"type":"Point","coordinates":[-82.4583107,27.9449854]},"properties":{"city":"Tampa","state":"Florida","cityStateKey":"Tampa|Florida","cityLevel":3,"isPriority":true,"ooCount":0,"partnerCount":1,"totalSites":1,"totalTCAs":18,"inProcess":9,"cleared":0,"siteActivated":false}},{"type":"Feature","geometry":{"type":"Point","coordinates":[-84.1441046,34.0028569]},"properties":{"city":"Duluth","state":"Georgia","cityStateKey":"Duluth|Georgia","cityLevel":4,"isPriority":false,"ooCount":1,"partnerCount":0,"totalSites":1,"totalTCAs":8,"inProcess":3,"cleared":1,"siteActivated":true}},{"type":"Feature","geometry":{"type":"Point","coordinates":[-93.6249494,41.5868654]},"properties":{"city":"Des Moines","state":"Iowa","cityStateKey":"Des Moines|Iowa","cityLevel":1,"isPriority":true,"ooCount":1,"partnerCount":0,"totalSites":1,"totalTCAs":4,"inProcess":2,"cleared":0,"siteActivated":false}},{"type":"Feature","geometry":{"type":"Point","coordinates":[-83.6324022,32.8406946]},"properties":{"city":"Macon","state":"Georgia","cityStateKey":"Macon|Georgia","cityLevel":4,"isPriority":false,"ooCount":1,"partnerCount":0,"totalSites":1,"totalTCAs":13,"inProcess":8,"cleared":1,"siteActivated":true}},{"type":"Feature","geometry":{"type":"Point","coordinates":[-84.5496148,33.9528472]},"properties":{"city":"Marietta","state":"Georgia","cityStateKey":"Marietta|Georgia","cityLevel":1,"isPriority":true,"ooCount":1,"partnerCount":0,"totalSites":1,"totalTCAs":16,"inProcess":2,"cleared":4,"siteActivated":true}},{"type":"Feature","geometry":{"type":"Point","coordinates":[-81.0921335,32.0790074]},"properties":{"city":"Savannah","state":"Georgia","cityStateKey":"Savannah|Georgia","cityLevel":4,"isPriority":false,"ooCount":1,"partnerCount":0,"totalSites":1,"totalTCAs":3,"inProcess":1,"cleared":0,"siteActivated":false}},{"type":"Feature","geometry":{"type":"Point","coordinates":[-83.5108284,31.4549719]},"properties":{"city":"Tifton","state":"Georgia","cityStateKey":"Tifton|Georgia","cityLevel":4,"isPriority":false,"ooCount":1,"partnerCount":0,"totalSites":1,"totalTCAs":7,"inProcess":2,"cleared":0,"siteActivated":false}},{"type":"Feature","geometry":{"type":"Point","coordinates":[-157.855676,21.304547]},"properties":{"city":"Honolulu","state":"Hawaii","cityStateKey":"Honolulu|Hawaii","cityLevel":1,"isPriority":true,"ooCount":3,"partnerCount":0,"totalSites":3,"totalTCAs":18,"inProcess":9,"cleared":3,"siteActivated":true}},{"type":"Feature","geometry":{"type":"Point","coordinates":[-91.6704053,41.9758872]},"properties":{"city":"Cedar Rapids","state":"Iowa","cityStateKey":"Cedar Rapids|Iowa","cityLevel":2,"isPriority":true,"ooCount":2,"partnerCount":0,"totalSites":2,"totalTCAs":12,"inProcess":4,"cleared":2,"siteActivated":true}},{"type":"Feature","geometry":{"type":"Point","coordinates":[-95.8519484,41.258841]},"properties":{"city":"Council Bluffs","state":"Iowa","cityStateKey":"Council Bluffs|Iowa","cityLevel":4,"isPriority":false,"ooCount":1,"partnerCount":0,"totalSites":1,"totalTCAs":4,"inProcess":2,"cleared":1,"siteActivated":true}},{"type":"Feature","geometry":{"type":"Point","coordinates":[-116.200886,43.6166163]},"properties":{"city":"Boise","state":"Idaho","cityStateKey":"Boise|Idaho","cityLevel":1,"isPriority":true,"ooCount":3,"partnerCount":0,"totalSites":3,"totalTCAs":9,"inProcess":3,"cleared":6,"siteActivated":true}},{"type":"Feature","geometry":{"type":"Point","coordinates":[-90.1386811,32.3092861]},"properties":{"city":"Flowood","state":"Mississippi","cityStateKey":"Flowood|Mississippi","cityLevel":1,"isPriority":true,"ooCount":1,"partnerCount":0,"totalSites":1,"totalTCAs":2,"inProcess":1,"cleared":1,"siteActivated":true}},{"type":"Feature","geometry":{"type":"Point","coordinates":[-87.6244212,41.8755616]},"properties":{"city":"Chicago","state":"Illinois","cityStateKey":"Chicago|Illinois","cityLevel":1,"isPriority":true,"ooCount":1,"partnerCount":0,"totalSites":1,"totalTCAs":12,"inProcess":6,"cleared":3,"siteActivated":true}},{"type":"Feature","geometry":{"type":"Point","coordinates":[-88.0840212,41.5263603]},"properties":{"city":"Joliet","state":"Illinois","cityStateKey":"Joliet|Illinois","cityLevel":3,"isPriority":true,"ooCount":0,"partnerCount":1,"totalSites":1,"totalTCAs":8,"inProcess":6,"cleared":0,"siteActivated":false}},{"type":"Feature","geometry":{"type":"Point","coordinates":[-88.2054345,41.6086711]},"properties":{"city":"Plainfield","state":"Illinois","cityStateKey":"Plainfield|Illinois","cityLevel":4,"isPriority":false,"ooCount":0,"partnerCount":1,"totalSites":1,"totalTCAs":0,"inProcess":0,"cleared":0,"siteActivated":false}},{"type":"Feature","geometry":{"type":"Point","coordinates":[-89.6439575,39.7990175]},"properties":{"city":"Springfield","state":"Illinois","cityStateKey":"Springfield|Illinois","cityLevel":4,"isPriority":false,"ooCount":1,"partnerCount":0,"totalSites":1,"totalTCAs":4,"inProcess":3,"cleared":1,"siteActivated":true}},{"type":"Feature","geometry":{"type":"Point","coordinates":[-88.174097,41.8179303]},"properties":{"city":"Warrenville","state":"Illinois","cityStateKey":"Warrenville|Illinois","cityLevel":4,"isPriority":false,"ooCount":0,"partnerCount":1,"totalSites":1,"totalTCAs":0,"inProcess":0,"cleared":0,"siteActivated":false}},{"type":"Feature","geometry":{"type":"Point","coordinates":[-85.1386015,41.0799898]},"properties":{"city":"Fort Wayne","state":"Indiana","cityStateKey":"Fort Wayne|Indiana","cityLevel":2,"isPriority":true,"ooCount":0,"partnerCount":1,"totalSites":1,"totalTCAs":8,"inProcess":5,"cleared":1,"siteActivated":true}},{"type":"Feature","geometry":{"type":"Point","coordinates":[-86.1583502,39.7683331]},"properties":{"city":"Indianapolis","state":"Indiana","cityStateKey":"Indianapolis|Indiana","cityLevel":1,"isPriority":true,"ooCount":1,"partnerCount":0,"totalSites":1,"totalTCAs":14,"inProcess":1,"cleared":2,"siteActivated":true}},{"type":"Feature","geometry":{"type":"Point","coordinates":[-94.626497,39.1134562]},"properties":{"city":"Kansas City","state":"Kansas","cityStateKey":"Kansas City|Kansas","cityLevel":3,"isPriority":true,"ooCount":0,"partnerCount":1,"totalSites":1,"totalTCAs":4,"inProcess":4,"cleared":0,"siteActivated":false}},{"type":"Feature","geometry":{"type":"Point","coordinates":[-96.789821,46.877229]},"properties":{"city":"Fargo","state":"North Dakota","cityStateKey":"Fargo|North Dakota","cityLevel":1,"isPriority":true,"ooCount":0,"partnerCount":1,"totalSites":1,"totalTCAs":11,"inProcess":3,"cleared":0,"siteActivated":false}},{"type":"Feature","geometry":{"type":"Point","coordinates":[-94.5781416,39.100105]},"properties":{"city":"Kansas City","state":"Missouri","cityStateKey":"Kansas City|Missouri","cityLevel":1,"isPriority":true,"ooCount":0,"partnerCount":1,"totalSites":1,"totalTCAs":4,"inProcess":4,"cleared":0,"siteActivated":false}},{"type":"Feature","geometry":{"type":"Point","coordinates":[-86.4428677,36.9929203]},"properties":{"city":"Bowling Green","state":"Kentucky","cityStateKey":"Bowling Green|Kentucky","cityLevel":3,"isPriority":true,"ooCount":0,"partnerCount":1,"totalSites":1,"totalTCAs":2,"inProcess":1,"cleared":0,"siteActivated":false}},{"type":"Feature","geometry":{"type":"Point","coordinates":[-84.4970393,38.0464066]},"properties":{"city":"Lexington","state":"Kentucky","cityStateKey":"Lexington|Kentucky","cityLevel":2,"isPriority":true,"ooCount":0,"partnerCount":1,"totalSites":1,"totalTCAs":3,"inProcess":2,"cleared":0,"siteActivated":false}},{"type":"Feature","geometry":{"type":"Point","coordinates":[-85.759407,38.2542376]},"properties":{"city":"Louisville","state":"Kentucky","cityStateKey":"Louisville|Kentucky","cityLevel":1,"isPriority":true,"ooCount":0,"partnerCount":1,"totalSites":1,"totalTCAs":4,"inProcess":3,"cleared":1,"siteActivated":true}},{"type":"Feature","geometry":{"type":"Point","coordinates":[-91.1869659,30.4494155]},"properties":{"city":"Baton Rouge","state":"Louisiana","cityStateKey":"Baton Rouge|Louisiana","cityLevel":2,"isPriority":true,"ooCount":0,"partnerCount":1,"totalSites":1,"totalTCAs":7,"inProcess":2,"cleared":1,"siteActivated":true}},{"type":"Feature","geometry":{"type":"Point","coordinates":[-75.1635262,39.9527237]},"properties":{"city":"Philadelphia","state":"Pennsylvania","cityStateKey":"Philadelphia|Pennsylvania","cityLevel":1,"isPriority":true,"ooCount":2,"partnerCount":0,"totalSites":2,"totalTCAs":0,"inProcess":0,"cleared":0,"siteActivated":false}},{"type":"Feature","geometry":{"type":"Point","coordinates":[-93.7477839,32.5135356]},"properties":{"city":"Shreveport","state":"Louisiana","cityStateKey":"Shreveport|Louisiana","cityLevel":3,"isPriority":true,"ooCount":0,"partnerCount":1,"totalSites":1,"totalTCAs":4,"inProcess":4,"cleared":0,"siteActivated":false}},{"type":"Feature","geometry":{"type":"Point","coordinates":[-71.0578303,42.3588336]},"properties":{"city":"Boston","state":"Massachusetts","cityStateKey":"Boston|Massachusetts","cityLevel":1,"isPriority":true,"ooCount":0,"partnerCount":1,"totalSites":1,"totalTCAs":17,"inProcess":6,"cleared":0,"siteActivated":false}},{"type":"Feature","geometry":{"type":"Point","coordinates":[-72.6213712,42.105237]},"properties":{"city":"West Springfield","state":"Massachusetts","cityStateKey":"West Springfield|Massachusetts","cityLevel":2,"isPriority":true,"ooCount":1,"partnerCount":0,"totalSites":1,"totalTCAs":4,"inProcess":2,"cleared":1,"siteActivated":true}},{"type":"Feature","geometry":{"type":"Point","coordinates":[-71.8358095,42.1945465]},"properties":{"city":"Auburn","state":"Massachusetts","cityStateKey":"Auburn|Massachusetts","cityLevel":3,"isPriority":true,"ooCount":0,"partnerCount":1,"totalSites":1,"totalTCAs":19,"inProcess":7,"cleared":0,"siteActivated":false}},{"type":"Feature","geometry":{"type":"Point","coordinates":[-76.610759,39.2908816]},"properties":{"city":"Baltimore","state":"Maryland","cityStateKey":"Baltimore|Maryland","cityLevel":1,"isPriority":true,"ooCount":0,"partnerCount":1,"totalSites":1,"totalTCAs":24,"inProcess":8,"cleared":0,"siteActivated":false}},{"type":"Feature","geometry":{"type":"Point","coordinates":[-77.7191081,39.6430455]},"properties":{"city":"Hagerstown","state":"Maryland","cityStateKey":"Hagerstown|Maryland","cityLevel":2,"isPriority":true,"ooCount":0,"partnerCount":1,"totalSites":1,"totalTCAs":23,"inProcess":8,"cleared":0,"siteActivated":false}},{"type":"Feature","geometry":{"type":"Point","coordinates":[-77.1516844,39.0817985]},"properties":{"city":"Rockville","state":"Maryland","cityStateKey":"Rockville|Maryland","cityLevel":2,"isPriority":true,"ooCount":0,"partnerCount":1,"totalSites":1,"totalTCAs":4,"inProcess":1,"cleared":0,"siteActivated":false}},{"type":"Feature","geometry":{"type":"Point","coordinates":[-75.6009964,38.366027]},"properties":{"city":"Salisbury","state":"Maryland","cityStateKey":"Salisbury|Maryland","cityLevel":4,"isPriority":false,"ooCount":0,"partnerCount":1,"totalSites":1,"totalTCAs":4,"inProcess":0,"cleared":1,"siteActivated":true}},{"type":"Feature","geometry":{"type":"Point","coordinates":[-70.1514536,44.670628]},"properties":{"city":"Farmington","state":"Maine","cityStateKey":"Farmington|Maine","cityLevel":2,"isPriority":true,"ooCount":0,"partnerCount":2,"totalSites":2,"totalTCAs":6,"inProcess":4,"cleared":2,"siteActivated":true}},{"type":"Feature","geometry":{"type":"Point","coordinates":[-83.1763145,42.3222599]},"properties":{"city":"Dearborn","state":"Michigan","cityStateKey":"Dearborn|Michigan","cityLevel":1,"isPriority":true,"ooCount":1,"partnerCount":0,"totalSites":1,"totalTCAs":7,"inProcess":5,"cleared":1,"siteActivated":true}},{"type":"Feature","geometry":{"type":"Point","coordinates":[-84.674752,45.027513]},"properties":{"city":"Gaylord","state":"Michigan","cityStateKey":"Gaylord|Michigan","cityLevel":4,"isPriority":false,"ooCount":1,"partnerCount":0,"totalSites":1,"totalTCAs":8,"inProcess":1,"cleared":0,"siteActivated":false}},{"type":"Feature","geometry":{"type":"Point","coordinates":[-85.6678639,42.9632425]},"properties":{"city":"Grand Rapids","state":"Michigan","cityStateKey":"Grand Rapids|Michigan","cityLevel":2,"isPriority":true,"ooCount":1,"partnerCount":0,"totalSites":1,"totalTCAs":5,"inProcess":3,"cleared":0,"siteActivated":false}},{"type":"Feature","geometry":{"type":"Point","coordinates":[-84.5201719,42.6414805]},"properties":{"city":"Holt","state":"Michigan","cityStateKey":"Holt|Michigan","cityLevel":4,"isPriority":false,"ooCount":1,"partnerCount":0,"totalSites":1,"totalTCAs":7,"inProcess":2,"cleared":0,"siteActivated":false}},{"type":"Feature","geometry":{"type":"Point","coordinates":[-87.396433,46.5434914]},"properties":{"city":"Marquette","state":"Michigan","cityStateKey":"Marquette|Michigan","cityLevel":4,"isPriority":false,"ooCount":1,"partnerCount":0,"totalSites":1,"totalTCAs":2,"inProcess":1,"cleared":1,"siteActivated":true}},{"type":"Feature","geometry":{"type":"Point","coordinates":[-66.116666,18.465299]},"properties":{"city":"San Juan","state":"Puerto Rico","cityStateKey":"San Juan|Puerto Rico","cityLevel":1,"isPriority":true,"ooCount":0,"partnerCount":1,"totalSites":1,"totalTCAs":0,"inProcess":0,"cleared":0,"siteActivated":false}},{"type":"Feature","geometry":{"type":"Point","coordinates":[-83.2218731,42.4733689]},"properties":{"city":"Southfield","state":"Michigan","cityStateKey":"Southfield|Michigan","cityLevel":4,"isPriority":false,"ooCount":1,"partnerCount":0,"totalSites":1,"totalTCAs":15,"inProcess":7,"cleared":4,"siteActivated":true}},{"type":"Feature","geometry":{"type":"Point","coordinates":[-92.1052679,46.7838287]},"properties":{"city":"Duluth","state":"Minnesota","cityStateKey":"Duluth|Minnesota","cityLevel":4,"isPriority":false,"ooCount":1,"partnerCount":0,"totalSites":1,"totalTCAs":8,"inProcess":2,"cleared":2,"siteActivated":true}},{"type":"Feature","geometry":{"type":"Point","coordinates":[-92.4630182,44.0234387]},"properties":{"city":"Rochester","state":"Minnesota","cityStateKey":"Rochester|Minnesota","cityLevel":3,"isPriority":true,"ooCount":0,"partnerCount":1,"totalSites":1,"totalTCAs":2,"inProcess":1,"cleared":0,"siteActivated":false}},{"type":"Feature","geometry":{"type":"Point","coordinates":[-93.0931028,44.9497487]},"properties":{"city":"St. Paul","state":"Minnesota","cityStateKey":"St. Paul|Minnesota","cityLevel":1,"isPriority":true,"ooCount":0,"partnerCount":2,"totalSites":2,"totalTCAs":14,"inProcess":4,"cleared":0,"siteActivated":false}},{"type":"Feature","geometry":{"type":"Point","coordinates":[-92.1724265,38.577359]},"properties":{"city":"Jefferson City","state":"Missouri","cityStateKey":"Jefferson City|Missouri","cityLevel":4,"isPriority":false,"ooCount":1,"partnerCount":0,"totalSites":1,"totalTCAs":6,"inProcess":3,"cleared":2,"siteActivated":true}},{"type":"Feature","geometry":{"type":"Point","coordinates":[-93.9768876,39.278622]},"properties":{"city":"Richmond","state":"Missouri","cityStateKey":"Richmond|Missouri","cityLevel":4,"isPriority":false,"ooCount":0,"partnerCount":1,"totalSites":1,"totalTCAs":0,"inProcess":0,"cleared":0,"siteActivated":false}},{"type":"Feature","geometry":{"type":"Point","coordinates":[-93.2922715,37.2081729]},"properties":{"city":"Springfield","state":"Missouri","cityStateKey":"Springfield|Missouri","cityLevel":3,"isPriority":true,"ooCount":1,"partnerCount":0,"totalSites":1,"totalTCAs":2,"inProcess":1,"cleared":1,"siteActivated":true}},{"type":"Feature","geometry":{"type":"Point","coordinates":[-88.8893818,30.4007626]},"properties":{"city":"Biloxi","state":"Mississippi","cityStateKey":"Biloxi|Mississippi","cityLevel":2,"isPriority":true,"ooCount":0,"partnerCount":1,"totalSites":1,"totalTCAs":5,"inProcess":5,"cleared":0,"siteActivated":false}},{"type":"Feature","geometry":{"type":"Point","coordinates":[-88.3147539,41.7571701]},"properties":{"city":"Aurora","state":"Illinois","cityStateKey":"Aurora|Illinois","cityLevel":2,"isPriority":true,"ooCount":0,"partnerCount":1,"totalSites":1,"totalTCAs":0,"inProcess":0,"cleared":0,"siteActivated":false}},{"type":"Feature","geometry":{"type":"Point","coordinates":[-108.49607,45.7874957]},"properties":{"city":"Billings","state":"Montana","cityStateKey":"Billings|Montana","cityLevel":1,"isPriority":true,"ooCount":0,"partnerCount":1,"totalSites":1,"totalTCAs":2,"inProcess":0,"cleared":0,"siteActivated":false}},{"type":"Feature","geometry":{"type":"Point","coordinates":[-112.536508,46.0131505]},"properties":{"city":"Butte","state":"Montana","cityStateKey":"Butte|Montana","cityLevel":3,"isPriority":true,"ooCount":0,"partnerCount":1,"totalSites":1,"totalTCAs":3,"inProcess":0,"cleared":1,"siteActivated":true}},{"type":"Feature","geometry":{"type":"Point","coordinates":[-113.995267,46.8701049]},"properties":{"city":"Missoula","state":"Montana","cityStateKey":"Missoula|Montana","cityLevel":2,"isPriority":true,"ooCount":0,"partnerCount":1,"totalSites":1,"totalTCAs":1,"inProcess":0,"cleared":1,"siteActivated":true}},{"type":"Feature","geometry":{"type":"Point","coordinates":[-82.5508407,35.595363]},"properties":{"city":"Asheville","state":"North Carolina","cityStateKey":"Asheville|North Carolina","cityLevel":4,"isPriority":false,"ooCount":1,"partnerCount":0,"totalSites":1,"totalTCAs":4,"inProcess":2,"cleared":2,"siteActivated":true}},{"type":"Feature","geometry":{"type":"Point","coordinates":[-80.8430827,35.2272086]},"properties":{"city":"Charlotte","state":"North Carolina","cityStateKey":"Charlotte|North Carolina","cityLevel":1,"isPriority":true,"ooCount":1,"partnerCount":0,"totalSites":1,"totalTCAs":11,"inProcess":3,"cleared":2,"siteActivated":true}},{"type":"Feature","geometry":{"type":"Point","coordinates":[-78.878292,35.0525759]},"properties":{"city":"Fayetteville","state":"North Carolina","cityStateKey":"Fayetteville|North Carolina","cityLevel":4,"isPriority":false,"ooCount":1,"partnerCount":0,"totalSites":1,"totalTCAs":3,"inProcess":0,"cleared":2,"siteActivated":true}},{"type":"Feature","geometry":{"type":"Point","coordinates":[-79.7919754,36.0726355]},"properties":{"city":"Greensboro","state":"North Carolina","cityStateKey":"Greensboro|North Carolina","cityLevel":3,"isPriority":true,"ooCount":0,"partnerCount":1,"totalSites":1,"totalTCAs":6,"inProcess":3,"cleared":0,"siteActivated":false}},{"type":"Feature","geometry":{"type":"Point","coordinates":[-77.3724593,35.613224]},"properties":{"city":"Greenville","state":"North Carolina","cityStateKey":"Greenville|North Carolina","cityLevel":4,"isPriority":false,"ooCount":1,"partnerCount":0,"totalSites":1,"totalTCAs":3,"inProcess":3,"cleared":0,"siteActivated":false}},{"type":"Feature","geometry":{"type":"Point","coordinates":[-78.6390989,35.7803977]},"properties":{"city":"Raleigh","state":"North Carolina","cityStateKey":"Raleigh|North Carolina","cityLevel":2,"isPriority":true,"ooCount":1,"partnerCount":0,"totalSites":1,"totalTCAs":8,"inProcess":5,"cleared":1,"siteActivated":true}},{"type":"Feature","geometry":{"type":"Point","coordinates":[-77.9487284,34.2352853]},"properties":{"city":"Wilmington","state":"North Carolina","cityStateKey":"Wilmington|North Carolina","cityLevel":4,"isPriority":false,"ooCount":1,"partnerCount":0,"totalSites":1,"totalTCAs":4,"inProcess":1,"cleared":1,"siteActivated":true}},{"type":"Feature","geometry":{"type":"Point","coordinates":[-80.2440518,36.0998131]},"properties":{"city":"Winston Salem","state":"North Carolina","cityStateKey":"Winston Salem|North Carolina","cityLevel":4,"isPriority":false,"ooCount":1,"partnerCount":0,"totalSites":1,"totalTCAs":0,"inProcess":0,"cleared":0,"siteActivated":false}},{"type":"Feature","geometry":{"type":"Point","coordinates":[-100.783739,46.808327]},"properties":{"city":"Bismarck","state":"North Dakota","cityStateKey":"Bismarck|North Dakota","cityLevel":2,"isPriority":true,"ooCount":1,"partnerCount":0,"totalSites":1,"totalTCAs":5,"inProcess":2,"cleared":0,"siteActivated":false}},{"type":"Feature","geometry":{"type":"Point","coordinates":[-96.7077751,40.8088861]},"properties":{"city":"Lincoln","state":"Nebraska","cityStateKey":"Lincoln|Nebraska","cityLevel":2,"isPriority":true,"ooCount":0,"partnerCount":1,"totalSites":1,"totalTCAs":6,"inProcess":0,"cleared":0,"siteActivated":false}},{"type":"Feature","geometry":{"type":"Point","coordinates":[-100.7612819,41.1368333]},"properties":{"city":"North Platte","state":"Nebraska","cityStateKey":"North Platte|Nebraska","cityLevel":3,"isPriority":true,"ooCount":0,"partnerCount":1,"totalSites":1,"totalTCAs":3,"inProcess":1,"cleared":1,"siteActivated":true}},{"type":"Feature","geometry":{"type":"Point","coordinates":[-95.9383758,41.2587459]},"properties":{"city":"Omaha","state":"Nebraska","cityStateKey":"Omaha|Nebraska","cityLevel":1,"isPriority":true,"ooCount":0,"partnerCount":2,"totalSites":2,"totalTCAs":8,"inProcess":8,"cleared":0,"siteActivated":false}},{"type":"Feature","geometry":{"type":"Point","coordinates":[-71.537476,43.207178]},"properties":{"city":"Concord","state":"New Hampshire","cityStateKey":"Concord|New Hampshire","cityLevel":3,"isPriority":true,"ooCount":0,"partnerCount":1,"totalSites":1,"totalTCAs":5,"inProcess":3,"cleared":1,"siteActivated":true}},{"type":"Feature","geometry":{"type":"Point","coordinates":[-71.4547891,42.9956397]},"properties":{"city":"Manchester","state":"New Hampshire","cityStateKey":"Manchester|New Hampshire","cityLevel":1,"isPriority":true,"ooCount":0,"partnerCount":1,"totalSites":1,"totalTCAs":5,"inProcess":3,"cleared":0,"siteActivated":false}},{"type":"Feature","geometry":{"type":"Point","coordinates":[-71.4677032,42.7656251]},"properties":{"city":"Nashua","state":"New Hampshire","cityStateKey":"Nashua|New Hampshire","cityLevel":2,"isPriority":true,"ooCount":0,"partnerCount":1,"totalSites":1,"totalTCAs":4,"inProcess":4,"cleared":0,"siteActivated":false}},{"type":"Feature","geometry":{"type":"Point","coordinates":[-70.834351,43.100482]},"properties":{"city":"Newington","state":"New Hampshire","cityStateKey":"Newington|New Hampshire","cityLevel":1,"isPriority":true,"ooCount":0,"partnerCount":1,"totalSites":1,"totalTCAs":5,"inProcess":1,"cleared":1,"siteActivated":true}},{"type":"Feature","geometry":{"type":"Point","coordinates":[-74.1280562,40.0707244]},"properties":{"city":"Brick","state":"New Jersey","cityStateKey":"Brick|New Jersey","cityLevel":4,"isPriority":false,"ooCount":1,"partnerCount":0,"totalSites":1,"totalTCAs":4,"inProcess":2,"cleared":2,"siteActivated":true}},{"type":"Feature","geometry":{"type":"Point","coordinates":[-74.4436416,40.4936119]},"properties":{"city":"Brunswick","state":"New Jersey","cityStateKey":"Brunswick|New Jersey","cityLevel":4,"isPriority":false,"ooCount":0,"partnerCount":1,"totalSites":1,"totalTCAs":14,"inProcess":9,"cleared":0,"siteActivated":false}},{"type":"Feature","geometry":{"type":"Point","coordinates":[-75.0307264,39.9348351]},"properties":{"city":"Cherry Hill","state":"New Jersey","cityStateKey":"Cherry Hill|New Jersey","cityLevel":4,"isPriority":false,"ooCount":1,"partnerCount":0,"totalSites":1,"totalTCAs":0,"inProcess":0,"cleared":0,"siteActivated":false}},{"type":"Feature","geometry":{"type":"Point","coordinates":[-74.6201578,40.506215]},"properties":{"city":"Hamilton","state":"New Jersey","cityStateKey":"Hamilton|New Jersey","cityLevel":4,"isPriority":false,"ooCount":1,"partnerCount":0,"totalSites":1,"totalTCAs":0,"inProcess":0,"cleared":0,"siteActivated":false}},{"type":"Feature","geometry":{"type":"Point","coordinates":[-74.047455,40.7215682]},"properties":{"city":"Jersey City","state":"New Jersey","cityStateKey":"Jersey City|New Jersey","cityLevel":2,"isPriority":true,"ooCount":0,"partnerCount":1,"totalSites":1,"totalTCAs":10,"inProcess":8,"cleared":0,"siteActivated":false}},{"type":"Feature","geometry":{"type":"Point","coordinates":[-74.5751484,39.3398404]},"properties":{"city":"Linwood","state":"New Jersey","cityStateKey":"Linwood|New Jersey","cityLevel":4,"isPriority":false,"ooCount":1,"partnerCount":0,"totalSites":1,"totalTCAs":4,"inProcess":3,"cleared":0,"siteActivated":false}},{"type":"Feature","geometry":{"type":"Point","coordinates":[-74.4015405,40.6984348]},"properties":{"city":"New Providence","state":"New Jersey","cityStateKey":"New Providence|New Jersey","cityLevel":4,"isPriority":false,"ooCount":1,"partnerCount":0,"totalSites":1,"totalTCAs":5,"inProcess":2,"cleared":1,"siteActivated":true}},{"type":"Feature","geometry":{"type":"Point","coordinates":[-74.4259866,40.8578772]},"properties":{"city":"Parsippany","state":"New Jersey","cityStateKey":"Parsippany|New Jersey","cityLevel":4,"isPriority":false,"ooCount":1,"partnerCount":0,"totalSites":1,"totalTCAs":5,"inProcess":2,"cleared":0,"siteActivated":false}},{"type":"Feature","geometry":{"type":"Point","coordinates":[-74.0733086,40.9092993]},"properties":{"city":"Rochelle Park","state":"New Jersey","cityStateKey":"Rochelle Park|New Jersey","cityLevel":3,"isPriority":true,"ooCount":1,"partnerCount":0,"totalSites":1,"totalTCAs":8,"inProcess":5,"cleared":2,"siteActivated":true}},{"type":"Feature","geometry":{"type":"Point","coordinates":[-74.0566735,40.7899291]},"properties":{"city":"Secaucus","state":"New Jersey","cityStateKey":"Secaucus|New Jersey","cityLevel":4,"isPriority":false,"ooCount":1,"partnerCount":0,"totalSites":1,"totalTCAs":10,"inProcess":7,"cleared":0,"siteActivated":false}},{"type":"Feature","geometry":{"type":"Point","coordinates":[-75.3104654,39.7476136]},"properties":{"city":"Swedesboro","state":"New Jersey","cityStateKey":"Swedesboro|New Jersey","cityLevel":1,"isPriority":true,"ooCount":0,"partnerCount":1,"totalSites":1,"totalTCAs":6,"inProcess":4,"cleared":1,"siteActivated":true}},{"type":"Feature","geometry":{"type":"Point","coordinates":[-106.650985,35.0841034]},"properties":{"city":"Albuquerque","state":"New Mexico","cityStateKey":"Albuquerque|New Mexico","cityLevel":1,"isPriority":true,"ooCount":2,"partnerCount":0,"totalSites":2,"totalTCAs":14,"inProcess":6,"cleared":4,"siteActivated":true}},{"type":"Feature","geometry":{"type":"Point","coordinates":[-108.205445,36.7291152]},"properties":{"city":"Farmington","state":"New Mexico","cityStateKey":"Farmington|New Mexico","cityLevel":4,"isPriority":false,"ooCount":1,"partnerCount":0,"totalSites":1,"totalTCAs":14,"inProcess":0,"cleared":2,"siteActivated":true}},{"type":"Feature","geometry":{"type":"Point","coordinates":[-106.779807,32.3140354]},"properties":{"city":"Las Cruces","state":"New Mexico","cityStateKey":"Las Cruces|New Mexico","cityLevel":2,"isPriority":true,"ooCount":1,"partnerCount":0,"totalSites":1,"totalTCAs":2,"inProcess":0,"cleared":2,"siteActivated":true}},{"type":"Feature","geometry":{"type":"Point","coordinates":[-104.5229518,33.3943282]},"properties":{"city":"Roswell","state":"New Mexico","cityStateKey":"Roswell|New Mexico","cityLevel":4,"isPriority":false,"ooCount":1,"partnerCount":0,"totalSites":1,"totalTCAs":4,"inProcess":2,"cleared":1,"siteActivated":true}},{"type":"Feature","geometry":{"type":"Point","coordinates":[-105.938456,35.6876096]},"properties":{"city":"Santa Fe","state":"New Mexico","cityStateKey":"Santa Fe|New Mexico","cityLevel":4,"isPriority":false,"ooCount":1,"partnerCount":0,"totalSites":1,"totalTCAs":7,"inProcess":2,"cleared":2,"siteActivated":true}},{"type":"Feature","geometry":{"type":"Point","coordinates":[-115.7630942,40.83269]},"properties":{"city":"Elko","state":"Nevada","cityStateKey":"Elko|Nevada","cityLevel":4,"isPriority":false,"ooCount":1,"partnerCount":0,"totalSites":1,"totalTCAs":2,"inProcess":1,"cleared":0,"siteActivated":false}},{"type":"Feature","geometry":{"type":"Point","coordinates":[-115.1484131,36.1674263]},"properties":{"city":"Las Vegas","state":"Nevada","cityStateKey":"Las Vegas|Nevada","cityLevel":1,"isPriority":true,"ooCount":2,"partnerCount":1,"totalSites":3,"totalTCAs":18,"inProcess":0,"cleared":0,"siteActivated":false}},{"type":"Feature","geometry":{"type":"Point","coordinates":[-119.812658,39.5261788]},"properties":{"city":"Reno","state":"Nevada","cityStateKey":"Reno|Nevada","cityLevel":4,"isPriority":false,"ooCount":0,"partnerCount":1,"totalSites":1,"totalTCAs":6,"inProcess":2,"cleared":0,"siteActivated":false}},{"type":"Feature","geometry":{"type":"Point","coordinates":[-73.754968,42.6511674]},"properties":{"city":"Albany","state":"New York","cityStateKey":"Albany|New York","cityLevel":4,"isPriority":false,"ooCount":0,"partnerCount":1,"totalSites":1,"totalTCAs":10,"inProcess":8,"cleared":0,"siteActivated":false}},{"type":"Feature","geometry":{"type":"Point","coordinates":[-73.8785937,40.8466508]},"properties":{"city":"Bronx","state":"New York","cityStateKey":"Bronx|New York","cityLevel":3,"isPriority":true,"ooCount":1,"partnerCount":0,"totalSites":1,"totalTCAs":12,"inProcess":3,"cleared":1,"siteActivated":true}},{"type":"Feature","geometry":{"type":"Point","coordinates":[-73.9497211,40.6526006]},"properties":{"city":"Brooklyn","state":"New York","cityStateKey":"Brooklyn|New York","cityLevel":1,"isPriority":true,"ooCount":2,"partnerCount":0,"totalSites":2,"totalTCAs":14,"inProcess":2,"cleared":0,"siteActivated":false}},{"type":"Feature","geometry":{"type":"Point","coordinates":[-78.8781493,42.8864163]},"properties":{"city":"Buffalo","state":"New York","cityStateKey":"Buffalo|New York","cityLevel":2,"isPriority":true,"ooCount":0,"partnerCount":1,"totalSites":1,"totalTCAs":3,"inProcess":1,"cleared":0,"siteActivated":false}},{"type":"Feature","geometry":{"type":"Point","coordinates":[-73.0001068,40.8175985]},"properties":{"city":"Medford","state":"New York","cityStateKey":"Medford|New York","cityLevel":4,"isPriority":false,"ooCount":0,"partnerCount":1,"totalSites":1,"totalTCAs":6,"inProcess":5,"cleared":0,"siteActivated":false}},{"type":"Feature","geometry":{"type":"Point","coordinates":[-74.0060152,40.7127281]},"properties":{"city":"New York","state":"New York","cityStateKey":"New York|New York","cityLevel":1,"isPriority":true,"ooCount":0,"partnerCount":2,"totalSites":2,"totalTCAs":48,"inProcess":28,"cleared":0,"siteActivated":false}},{"type":"Feature","geometry":{"type":"Point","coordinates":[-74.476545,40.4539249]},"properties":{"city":"North Brunswick","state":"New Jersey","cityStateKey":"North Brunswick|New Jersey","cityLevel":null,"isPriority":false,"ooCount":0,"partnerCount":1,"totalSites":1,"totalTCAs":14,"inProcess":9,"cleared":0,"siteActivated":false}},{"type":"Feature","geometry":{"type":"Point","coordinates":[-73.9283672,41.7065539]},"properties":{"city":"Poughkeepsie","state":"New York","cityStateKey":"Poughkeepsie|New York","cityLevel":4,"isPriority":false,"ooCount":0,"partnerCount":1,"totalSites":1,"totalTCAs":4,"inProcess":1,"cleared":0,"siteActivated":false}},{"type":"Feature","geometry":{"type":"Point","coordinates":[-73.7629097,41.0339862]},"properties":{"city":"White Plains","state":"New York","cityStateKey":"White Plains|New York","cityLevel":2,"isPriority":true,"ooCount":0,"partnerCount":1,"totalSites":1,"totalTCAs":11,"inProcess":8,"cleared":0,"siteActivated":false}},{"type":"Feature","geometry":{"type":"Point","coordinates":[-81.5900711,40.0247143]},"properties":{"city":"Cambridge","state":"Ohio","cityStateKey":"Cambridge|Ohio","cityLevel":4,"isPriority":false,"ooCount":1,"partnerCount":0,"totalSites":1,"totalTCAs":3,"inProcess":1,"cleared":2,"siteActivated":true}},{"type":"Feature","geometry":{"type":"Point","coordinates":[-84.5127405,39.1012809]},"properties":{"city":"Cincinnati","state":"Ohio","cityStateKey":"Cincinnati|Ohio","cityLevel":3,"isPriority":true,"ooCount":0,"partnerCount":1,"totalSites":1,"totalTCAs":22,"inProcess":4,"cleared":0,"siteActivated":false}},{"type":"Feature","geometry":{"type":"Point","coordinates":[-82.8868636,39.8522449]},"properties":{"city":"Groveport","state":"Ohio","cityStateKey":"Groveport|Ohio","cityLevel":1,"isPriority":true,"ooCount":1,"partnerCount":0,"totalSites":1,"totalTCAs":4,"inProcess":2,"cleared":2,"siteActivated":true}},{"type":"Feature","geometry":{"type":"Point","coordinates":[-81.812912,41.3614401]},"properties":{"city":"Middleburg Heights","state":"Ohio","cityStateKey":"Middleburg Heights|Ohio","cityLevel":2,"isPriority":true,"ooCount":1,"partnerCount":0,"totalSites":1,"totalTCAs":8,"inProcess":5,"cleared":1,"siteActivated":true}},{"type":"Feature","geometry":{"type":"Point","coordinates":[-83.5378173,41.6529143]},"properties":{"city":"Toledo","state":"Ohio","cityStateKey":"Toledo|Ohio","cityLevel":4,"isPriority":false,"ooCount":1,"partnerCount":0,"totalSites":1,"totalTCAs":0,"inProcess":0,"cleared":0,"siteActivated":false}},{"type":"Feature","geometry":{"type":"Point","coordinates":[-95.7697934,34.9334981]},"properties":{"city":"McAlester","state":"Oklahoma","cityStateKey":"McAlester|Oklahoma","cityLevel":4,"isPriority":false,"ooCount":1,"partnerCount":0,"totalSites":1,"totalTCAs":3,"inProcess":1,"cleared":1,"siteActivated":true}},{"type":"Feature","geometry":{"type":"Point","coordinates":[-97.5170536,35.4729886]},"properties":{"city":"Oklahoma City","state":"Oklahoma","cityStateKey":"Oklahoma City|Oklahoma","cityLevel":1,"isPriority":true,"ooCount":2,"partnerCount":0,"totalSites":2,"totalTCAs":34,"inProcess":12,"cleared":4,"siteActivated":true}},{"type":"Feature","geometry":{"type":"Point","coordinates":[-95.9927516,36.1563122]},"properties":{"city":"Tulsa","state":"Oklahoma","cityStateKey":"Tulsa|Oklahoma","cityLevel":1,"isPriority":true,"ooCount":2,"partnerCount":0,"totalSites":2,"totalTCAs":28,"inProcess":14,"cleared":0,"siteActivated":false}},{"type":"Feature","geometry":{"type":"Point","coordinates":[-99.3904708,36.4337555]},"properties":{"city":"Woodward","state":"Oklahoma","cityStateKey":"Woodward|Oklahoma","cityLevel":4,"isPriority":false,"ooCount":1,"partnerCount":0,"totalSites":1,"totalTCAs":2,"inProcess":2,"cleared":0,"siteActivated":false}},{"type":"Feature","geometry":{"type":"Point","coordinates":[-117.834384,44.7748748]},"properties":{"city":"Baker City","state":"Oregon","cityStateKey":"Baker City|Oregon","cityLevel":4,"isPriority":false,"ooCount":1,"partnerCount":0,"totalSites":1,"totalTCAs":1,"inProcess":0,"cleared":1,"siteActivated":true}},{"type":"Feature","geometry":{"type":"Point","coordinates":[-121.3153096,44.0581728]},"properties":{"city":"Bend","state":"Oregon","cityStateKey":"Bend|Oregon","cityLevel":4,"isPriority":false,"ooCount":1,"partnerCount":0,"totalSites":1,"totalTCAs":2,"inProcess":0,"cleared":1,"siteActivated":true}},{"type":"Feature","geometry":{"type":"Point","coordinates":[-123.0950506,44.0505054]},"properties":{"city":"Eugene","state":"Oregon","cityStateKey":"Eugene|Oregon","cityLevel":2,"isPriority":true,"ooCount":1,"partnerCount":0,"totalSites":1,"totalTCAs":3,"inProcess":3,"cleared":0,"siteActivated":false}},{"type":"Feature","geometry":{"type":"Point","coordinates":[-122.8718605,42.3264181]},"properties":{"city":"Medford","state":"Oregon","cityStateKey":"Medford|Oregon","cityLevel":4,"isPriority":false,"ooCount":1,"partnerCount":0,"totalSites":1,"totalTCAs":1,"inProcess":1,"cleared":0,"siteActivated":false}},{"type":"Feature","geometry":{"type":"Point","coordinates":[-122.674194,45.5202471]},"properties":{"city":"Portland","state":"Oregon","cityStateKey":"Portland|Oregon","cityLevel":1,"isPriority":true,"ooCount":1,"partnerCount":0,"totalSites":1,"totalTCAs":7,"inProcess":6,"cleared":1,"siteActivated":true}},{"type":"Feature","geometry":{"type":"Point","coordinates":[-122.76816,45.3099218]},"properties":{"city":"Wilsonville","state":"Oregon","cityStateKey":"Wilsonville|Oregon","cityLevel":3,"isPriority":true,"ooCount":1,"partnerCount":0,"totalSites":1,"totalTCAs":4,"inProcess":3,"cleared":0,"siteActivated":false}},{"type":"Feature","geometry":{"type":"Point","coordinates":[-75.4716115,40.6022552]},"properties":{"city":"Allentown","state":"Pennsylvania","cityStateKey":"Allentown|Pennsylvania","cityLevel":2,"isPriority":true,"ooCount":0,"partnerCount":1,"totalSites":1,"totalTCAs":7,"inProcess":1,"cleared":0,"siteActivated":false}},{"type":"Feature","geometry":{"type":"Point","coordinates":[-74.8644706,40.1229002]},"properties":{"city":"Bristol","state":"Pennsylvania","cityStateKey":"Bristol|Pennsylvania","cityLevel":4,"isPriority":false,"ooCount":1,"partnerCount":0,"totalSites":1,"totalTCAs":6,"inProcess":3,"cleared":1,"siteActivated":true}},{"type":"Feature","geometry":{"type":"Point","coordinates":[-80.0852695,42.1294712]},"properties":{"city":"Erie","state":"Pennsylvania","cityStateKey":"Erie|Pennsylvania","cityLevel":4,"isPriority":false,"ooCount":1,"partnerCount":0,"totalSites":1,"totalTCAs":6,"inProcess":5,"cleared":0,"siteActivated":false}},{"type":"Feature","geometry":{"type":"Point","coordinates":[-76.8861122,40.2663107]},"properties":{"city":"Harrisburg","state":"Pennsylvania","cityStateKey":"Harrisburg|Pennsylvania","cityLevel":4,"isPriority":false,"ooCount":0,"partnerCount":1,"totalSites":1,"totalTCAs":8,"inProcess":6,"cleared":1,"siteActivated":true}},{"type":"Feature","geometry":{"type":"Point","coordinates":[-75.3888122,40.0851221]},"properties":{"city":"King of Prussia","state":"Pennsylvania","cityStateKey":"King of Prussia|Pennsylvania","cityLevel":4,"isPriority":false,"ooCount":0,"partnerCount":1,"totalSites":1,"totalTCAs":9,"inProcess":7,"cleared":1,"siteActivated":true}},{"type":"Feature","geometry":{"type":"Point","coordinates":[-90.190009,38.6254063]},"properties":{"city":"St Louis","state":"Missouri","cityStateKey":"St Louis|Missouri","cityLevel":2,"isPriority":true,"ooCount":1,"partnerCount":0,"totalSites":1,"totalTCAs":0,"inProcess":0,"cleared":0,"siteActivated":false}},{"type":"Feature","geometry":{"type":"Point","coordinates":[-80.0025666,40.4406968]},"properties":{"city":"Pittsburgh","state":"Pennsylvania","cityStateKey":"Pittsburgh|Pennsylvania","cityLevel":3,"isPriority":true,"ooCount":1,"partnerCount":0,"totalSites":1,"totalTCAs":5,"inProcess":2,"cleared":2,"siteActivated":true}},{"type":"Feature","geometry":{"type":"Point","coordinates":[-75.6621294,41.4086874]},"properties":{"city":"Scranton","state":"Pennsylvania","cityStateKey":"Scranton|Pennsylvania","cityLevel":4,"isPriority":false,"ooCount":1,"partnerCount":0,"totalSites":1,"totalTCAs":0,"inProcess":0,"cleared":0,"siteActivated":false}},{"type":"Feature","geometry":{"type":"Point","coordinates":[-71.4128343,41.8239891]},"properties":{"city":"Providence","state":"Rhode Island","cityStateKey":"Providence|Rhode Island","cityLevel":1,"isPriority":true,"ooCount":0,"partnerCount":3,"totalSites":3,"totalTCAs":57,"inProcess":24,"cleared":0,"siteActivated":false}},{"type":"Feature","geometry":{"type":"Point","coordinates":[-80.6698286,32.4315813]},"properties":{"city":"Beaufort","state":"South Carolina","cityStateKey":"Beaufort|South Carolina","cityLevel":4,"isPriority":false,"ooCount":1,"partnerCount":0,"totalSites":1,"totalTCAs":2,"inProcess":1,"cleared":0,"siteActivated":false}},{"type":"Feature","geometry":{"type":"Point","coordinates":[-79.9399309,32.7884363]},"properties":{"city":"Charleston","state":"South Carolina","cityStateKey":"Charleston|South Carolina","cityLevel":2,"isPriority":true,"ooCount":2,"partnerCount":0,"totalSites":2,"totalTCAs":14,"inProcess":2,"cleared":4,"siteActivated":true}},{"type":"Feature","geometry":{"type":"Point","coordinates":[-81.0352313,34.000754]},"properties":{"city":"Columbia","state":"South Carolina","cityStateKey":"Columbia|South Carolina","cityLevel":1,"isPriority":true,"ooCount":1,"partnerCount":0,"totalSites":1,"totalTCAs":10,"inProcess":5,"cleared":0,"siteActivated":false}},{"type":"Feature","geometry":{"type":"Point","coordinates":[-82.3984882,34.851354]},"properties":{"city":"Greenville","state":"South Carolina","cityStateKey":"Greenville|South Carolina","cityLevel":4,"isPriority":false,"ooCount":1,"partnerCount":0,"totalSites":1,"totalTCAs":6,"inProcess":1,"cleared":3,"siteActivated":true}},{"type":"Feature","geometry":{"type":"Point","coordinates":[-78.8900409,33.6956461]},"properties":{"city":"Myrtle Beach","state":"South Carolina","cityStateKey":"Myrtle Beach|South Carolina","cityLevel":4,"isPriority":false,"ooCount":1,"partnerCount":0,"totalSites":1,"totalTCAs":3,"inProcess":0,"cleared":1,"siteActivated":true}},{"type":"Feature","geometry":{"type":"Point","coordinates":[-81.0250784,34.9248667]},"properties":{"city":"Rock Hill","state":"South Carolina","cityStateKey":"Rock Hill|South Carolina","cityLevel":4,"isPriority":false,"ooCount":0,"partnerCount":1,"totalSites":1,"totalTCAs":0,"inProcess":0,"cleared":0,"siteActivated":false}},{"type":"Feature","geometry":{"type":"Point","coordinates":[-103.228023,44.0806041]},"properties":{"city":"Rapid City","state":"South Dakota","cityStateKey":"Rapid City|South Dakota","cityLevel":2,"isPriority":true,"ooCount":0,"partnerCount":1,"totalSites":1,"totalTCAs":3,"inProcess":3,"cleared":0,"siteActivated":false}},{"type":"Feature","geometry":{"type":"Point","coordinates":[-85.3094883,35.0457219]},"properties":{"city":"Chattanooga","state":"Tennessee","cityStateKey":"Chattanooga|Tennessee","cityLevel":4,"isPriority":false,"ooCount":1,"partnerCount":0,"totalSites":1,"totalTCAs":3,"inProcess":3,"cleared":0,"siteActivated":false}},{"type":"Feature","geometry":{"type":"Point","coordinates":[-88.8177418,35.6144446]},"properties":{"city":"Jackson","state":"Tennessee","cityStateKey":"Jackson|Tennessee","cityLevel":4,"isPriority":false,"ooCount":1,"partnerCount":0,"totalSites":1,"totalTCAs":4,"inProcess":0,"cleared":1,"siteActivated":true}},{"type":"Feature","geometry":{"type":"Point","coordinates":[-82.352903,36.3167671]},"properties":{"city":"Johnson City","state":"Tennessee","cityStateKey":"Johnson City|Tennessee","cityLevel":4,"isPriority":false,"ooCount":1,"partnerCount":0,"totalSites":1,"totalTCAs":8,"inProcess":5,"cleared":1,"siteActivated":true}},{"type":"Feature","geometry":{"type":"Point","coordinates":[-83.9210261,35.9603948]},"properties":{"city":"Knoxville","state":"Tennessee","cityStateKey":"Knoxville|Tennessee","cityLevel":1,"isPriority":true,"ooCount":0,"partnerCount":1,"totalSites":1,"totalTCAs":4,"inProcess":1,"cleared":0,"siteActivated":false}},{"type":"Feature","geometry":{"type":"Point","coordinates":[-90.0517786,35.146026]},"properties":{"city":"Memphis","state":"Tennessee","cityStateKey":"Memphis|Tennessee","cityLevel":2,"isPriority":true,"ooCount":0,"partnerCount":2,"totalSites":2,"totalTCAs":14,"inProcess":8,"cleared":0,"siteActivated":false}},{"type":"Feature","geometry":{"type":"Point","coordinates":[-86.7742984,36.1622767]},"properties":{"city":"Nashville","state":"Tennessee","cityStateKey":"Nashville|Tennessee","cityLevel":3,"isPriority":true,"ooCount":1,"partnerCount":0,"totalSites":1,"totalTCAs":8,"inProcess":4,"cleared":0,"siteActivated":false}},{"type":"Feature","geometry":{"type":"Point","coordinates":[-99.7475905,32.44645]},"properties":{"city":"Abilene","state":"Texas","cityStateKey":"Abilene|Texas","cityLevel":4,"isPriority":false,"ooCount":1,"partnerCount":0,"totalSites":1,"totalTCAs":5,"inProcess":1,"cleared":3,"siteActivated":true}},{"type":"Feature","geometry":{"type":"Point","coordinates":[-97.7436995,30.2711286]},"properties":{"city":"Austin","state":"Texas","cityStateKey":"Austin|Texas","cityLevel":4,"isPriority":false,"ooCount":0,"partnerCount":1,"totalSites":1,"totalTCAs":5,"inProcess":1,"cleared":0,"siteActivated":false}},{"type":"Feature","geometry":{"type":"Point","coordinates":[-97.4033191,27.7635302]},"properties":{"city":"Corpus Christi","state":"Texas","cityStateKey":"Corpus Christi|Texas","cityLevel":4,"isPriority":false,"ooCount":1,"partnerCount":0,"totalSites":1,"totalTCAs":3,"inProcess":3,"cleared":0,"siteActivated":false}},{"type":"Feature","geometry":{"type":"Point","coordinates":[-117.42351,47.6571934]},"properties":{"city":"Spokane","state":"Washington","cityStateKey":"Spokane|Washington","cityLevel":2,"isPriority":true,"ooCount":1,"partnerCount":0,"totalSites":1,"totalTCAs":3,"inProcess":2,"cleared":0,"siteActivated":false}},{"type":"Feature","geometry":{"type":"Point","coordinates":[-106.4870476,31.7601001]},"properties":{"city":"El Paso","state":"Texas","cityStateKey":"El Paso|Texas","cityLevel":4,"isPriority":false,"ooCount":0,"partnerCount":1,"totalSites":1,"totalTCAs":5,"inProcess":0,"cleared":0,"siteActivated":false}},{"type":"Feature","geometry":{"type":"Point","coordinates":[-97.3327459,32.753177]},"properties":{"city":"Fort Worth","state":"Texas","cityStateKey":"Fort Worth|Texas","cityLevel":4,"isPriority":false,"ooCount":1,"partnerCount":0,"totalSites":1,"totalTCAs":10,"inProcess":3,"cleared":3,"siteActivated":true}},{"type":"Feature","geometry":{"type":"Point","coordinates":[-95.3676974,29.7589382]},"properties":{"city":"Houston","state":"Texas","cityStateKey":"Houston|Texas","cityLevel":1,"isPriority":true,"ooCount":1,"partnerCount":1,"totalSites":2,"totalTCAs":38,"inProcess":14,"cleared":1,"siteActivated":true}},{"type":"Feature","geometry":{"type":"Point","coordinates":[-101.8470215,33.5855677]},"properties":{"city":"Lubbock","state":"Texas","cityStateKey":"Lubbock|Texas","cityLevel":4,"isPriority":false,"ooCount":1,"partnerCount":0,"totalSites":1,"totalTCAs":4,"inProcess":1,"cleared":3,"siteActivated":true}},{"type":"Feature","geometry":{"type":"Point","coordinates":[-98.2300605,26.204114]},"properties":{"city":"McAllen","state":"Texas","cityStateKey":"McAllen|Texas","cityLevel":4,"isPriority":false,"ooCount":1,"partnerCount":0,"totalSites":1,"totalTCAs":5,"inProcess":1,"cleared":4,"siteActivated":true}},{"type":"Feature","geometry":{"type":"Point","coordinates":[-102.077948,31.9973662]},"properties":{"city":"Midland","state":"Texas","cityStateKey":"Midland|Texas","cityLevel":4,"isPriority":false,"ooCount":1,"partnerCount":0,"totalSites":1,"totalTCAs":5,"inProcess":0,"cleared":2,"siteActivated":true}},{"type":"Feature","geometry":{"type":"Point","coordinates":[-98.4951405,29.4246002]},"properties":{"city":"San Antonio","state":"Texas","cityStateKey":"San Antonio|Texas","cityLevel":2,"isPriority":true,"ooCount":0,"partnerCount":1,"totalSites":1,"totalTCAs":5,"inProcess":1,"cleared":0,"siteActivated":false}},{"type":"Feature","geometry":{"type":"Point","coordinates":[-95.3010624,32.3512601]},"properties":{"city":"Tyler","state":"Texas","cityStateKey":"Tyler|Texas","cityLevel":4,"isPriority":false,"ooCount":1,"partnerCount":0,"totalSites":1,"totalTCAs":2,"inProcess":1,"cleared":0,"siteActivated":false}},{"type":"Feature","geometry":{"type":"Point","coordinates":[-97.1474628,31.5491899]},"properties":{"city":"Waco","state":"Texas","cityStateKey":"Waco|Texas","cityLevel":4,"isPriority":false,"ooCount":1,"partnerCount":0,"totalSites":1,"totalTCAs":5,"inProcess":3,"cleared":0,"siteActivated":false}},{"type":"Feature","geometry":{"type":"Point","coordinates":[-111.886797,40.7596198]},"properties":{"city":"Salt Lake City","state":"Utah","cityStateKey":"Salt Lake City|Utah","cityLevel":1,"isPriority":true,"ooCount":0,"partnerCount":4,"totalSites":4,"totalTCAs":12,"inProcess":12,"cleared":0,"siteActivated":false}},{"type":"Feature","geometry":{"type":"Point","coordinates":[-78.4766781,38.029306]},"properties":{"city":"Charlottesville","state":"Virginia","cityStateKey":"Charlottesville|Virginia","cityLevel":4,"isPriority":false,"ooCount":1,"partnerCount":0,"totalSites":1,"totalTCAs":2,"inProcess":0,"cleared":1,"siteActivated":true}},{"type":"Feature","geometry":{"type":"Point","coordinates":[-77.43428,37.5385087]},"properties":{"city":"Richmond","state":"Virginia","cityStateKey":"Richmond|Virginia","cityLevel":4,"isPriority":false,"ooCount":1,"partnerCount":0,"totalSites":1,"totalTCAs":11,"inProcess":1,"cleared":2,"siteActivated":true}},{"type":"Feature","geometry":{"type":"Point","coordinates":[-75.9760751,36.8496579]},"properties":{"city":"Virginia Beach","state":"Virginia","cityStateKey":"Virginia Beach|Virginia","cityLevel":1,"isPriority":true,"ooCount":3,"partnerCount":0,"totalSites":3,"totalTCAs":18,"inProcess":9,"cleared":6,"siteActivated":true}},{"type":"Feature","geometry":{"type":"Point","coordinates":[-73.176273,44.4642957]},"properties":{"city":"South Burlington","state":"Vermont","cityStateKey":"South Burlington|Vermont","cityLevel":1,"isPriority":true,"ooCount":0,"partnerCount":3,"totalSites":3,"totalTCAs":6,"inProcess":0,"cleared":0,"siteActivated":false}},{"type":"Feature","geometry":{"type":"Point","coordinates":[-122.192337,47.6144219]},"properties":{"city":"Bellevue","state":"Washington","cityStateKey":"Bellevue|Washington","cityLevel":1,"isPriority":true,"ooCount":0,"partnerCount":1,"totalSites":1,"totalTCAs":9,"inProcess":4,"cleared":0,"siteActivated":false}},{"type":"Feature","geometry":{"type":"Point","coordinates":[-122.438329,47.2455013]},"properties":{"city":"Tacoma","state":"Washington","cityStateKey":"Tacoma|Washington","cityLevel":3,"isPriority":true,"ooCount":0,"partnerCount":3,"totalSites":3,"totalTCAs":5,"inProcess":3,"cleared":0,"siteActivated":false}},{"type":"Feature","geometry":{"type":"Point","coordinates":[-122.8950075,47.0451022]},"properties":{"city":"Olympia","state":"Washington","cityStateKey":"Olympia|Washington","cityLevel":4,"isPriority":false,"ooCount":1,"partnerCount":0,"totalSites":1,"totalTCAs":4,"inProcess":2,"cleared":1,"siteActivated":true}},{"type":"Feature","geometry":{"type":"Point","coordinates":[-97.0306325,47.9252104]},"properties":{"city":"Grand Forks","state":"North Dakota","cityStateKey":"Grand Forks|North Dakota","cityLevel":3,"isPriority":true,"ooCount":0,"partnerCount":1,"totalSites":1,"totalTCAs":0,"inProcess":0,"cleared":0,"siteActivated":false}},{"type":"Feature","geometry":{"type":"Point","coordinates":[-122.6744557,45.6306954]},"properties":{"city":"Vancouver","state":"Washington","cityStateKey":"Vancouver|Washington","cityLevel":4,"isPriority":false,"ooCount":1,"partnerCount":0,"totalSites":1,"totalTCAs":6,"inProcess":1,"cleared":3,"siteActivated":true}},{"type":"Feature","geometry":{"type":"Point","coordinates":[-88.5408574,44.0206919]},"properties":{"city":"OshKosh","state":"Wisconsin","cityStateKey":"OshKosh|Wisconsin","cityLevel":3,"isPriority":true,"ooCount":0,"partnerCount":1,"totalSites":1,"totalTCAs":2,"inProcess":2,"cleared":0,"siteActivated":false}},{"type":"Feature","geometry":{"type":"Point","coordinates":[-88.2316352,43.0115598]},"properties":{"city":"Waukesha","state":"Wisconsin","cityStateKey":"Waukesha|Wisconsin","cityLevel":1,"isPriority":true,"ooCount":0,"partnerCount":2,"totalSites":2,"totalTCAs":28,"inProcess":10,"cleared":0,"siteActivated":false}},{"type":"Feature","geometry":{"type":"Point","coordinates":[-82.445154,38.4192496]},"properties":{"city":"Huntington","state":"West Virginia","cityStateKey":"Huntington|West Virginia","cityLevel":1,"isPriority":true,"ooCount":0,"partnerCount":2,"totalSites":2,"totalTCAs":2,"inProcess":2,"cleared":0,"siteActivated":false}},{"type":"Feature","geometry":{"type":"Point","coordinates":[-79.9559437,39.6296809]},"properties":{"city":"Morgantown","state":"West Virginia","cityStateKey":"Morgantown|West Virginia","cityLevel":3,"isPriority":true,"ooCount":0,"partnerCount":1,"totalSites":1,"totalTCAs":1,"inProcess":1,"cleared":0,"siteActivated":false}},{"type":"Feature","geometry":{"type":"Point","coordinates":[-106.325138,42.8501191]},"properties":{"city":"Casper","state":"Wyoming","cityStateKey":"Casper|Wyoming","cityLevel":2,"isPriority":true,"ooCount":0,"partnerCount":1,"totalSites":1,"totalTCAs":2,"inProcess":0,"cleared":0,"siteActivated":false}},{"type":"Feature","geometry":{"type":"Point","coordinates":[-104.820246,41.139981]},"properties":{"city":"Cheyenne","state":"Wyoming","cityStateKey":"Cheyenne|Wyoming","cityLevel":1,"isPriority":true,"ooCount":0,"partnerCount":3,"totalSites":3,"totalTCAs":14,"inProcess":8,"cleared":4,"siteActivated":true}},{"type":"Feature","geometry":{"type":"Point","coordinates":[-65.9570244,18.3808516]},"properties":{"city":"Carolina","state":"Puerto Rico","cityStateKey":"Carolina|Puerto Rico","cityLevel":3,"isPriority":true,"ooCount":0,"partnerCount":1,"totalSites":1,"totalTCAs":0,"inProcess":0,"cleared":0,"siteActivated":false}},{"type":"Feature","geometry":{"type":"Point","coordinates":[-94.0028013,44.1658533]},"properties":{"city":"Mankato","state":"Minnesota","cityStateKey":"Mankato|Minnesota","cityLevel":null,"isPriority":false,"ooCount":0,"partnerCount":1,"totalSites":1,"totalTCAs":3,"inProcess":0,"cleared":0,"siteActivated":false}},{"type":"Feature","geometry":{"type":"Point","coordinates":[-97.6788056,30.5085915]},"properties":{"city":"Round Rock","state":"Texas","cityStateKey":"Round Rock|Texas","cityLevel":null,"isPriority":false,"ooCount":0,"partnerCount":1,"totalSites":1,"totalTCAs":10,"inProcess":3,"cleared":0,"siteActivated":false}},{"type":"Feature","geometry":{"type":"Point","coordinates":[-96.7968559,32.7762719]},"properties":{"city":"Dallas","state":"Texas","cityStateKey":"Dallas|Texas","cityLevel":null,"isPriority":false,"ooCount":0,"partnerCount":1,"totalSites":1,"totalTCAs":25,"inProcess":4,"cleared":0,"siteActivated":false}},{"type":"Feature","geometry":{"type":"Point","coordinates":[-117.000165,46.7323875]},"properties":{"city":"Moscow","state":"Idaho","cityStateKey":"Moscow|Idaho","cityLevel":null,"isPriority":false,"ooCount":0,"partnerCount":1,"totalSites":1,"totalTCAs":1,"inProcess":0,"cleared":0,"siteActivated":false}},{"type":"Feature","geometry":{"type":"Point","coordinates":[-111.634158,33.2483858]},"properties":{"city":"Queen Creek","state":"Arizona","cityStateKey":"Queen Creek|Arizona","cityLevel":null,"isPriority":false,"ooCount":0,"partnerCount":1,"totalSites":1,"totalTCAs":10,"inProcess":0,"cleared":0,"siteActivated":false}},{"type":"Feature","geometry":{"type":"Point","coordinates":[-71.0041229,42.2205956]},"properties":{"city":"Braintree","state":"Massachusetts","cityStateKey":"Braintree|Massachusetts","cityLevel":null,"isPriority":false,"ooCount":0,"partnerCount":1,"totalSites":1,"totalTCAs":3,"inProcess":1,"cleared":0,"siteActivated":false}},{"type":"Feature","geometry":{"type":"Point","coordinates":[-81.9320157,34.9498007]},"properties":{"city":"Spartanburg","state":"South Carolina","cityStateKey":"Spartanburg|South Carolina","cityLevel":null,"isPriority":false,"ooCount":0,"partnerCount":1,"totalSites":1,"totalTCAs":2,"inProcess":0,"cleared":0,"siteActivated":false}},{"type":"Feature","geometry":{"type":"Point","coordinates":[-82.3525952,26.9620053]},"properties":{"city":"Englewood","state":"Florida","cityStateKey":"Englewood|Florida","cityLevel":null,"isPriority":false,"ooCount":0,"partnerCount":1,"totalSites":1,"totalTCAs":6,"inProcess":1,"cleared":0,"siteActivated":false}},{"type":"Feature","geometry":{"type":"Point","coordinates":[-97.11395,44.006085]},"properties":{"city":"Madison","state":"South Dakota","cityStateKey":"Madison|South Dakota","cityLevel":null,"isPriority":false,"ooCount":0,"partnerCount":1,"totalSites":1,"totalTCAs":4,"inProcess":0,"cleared":0,"siteActivated":false}},{"type":"Feature","geometry":{"type":"Point","coordinates":[-89.8670229,31.5985012]},"properties":{"city":"Prentiss","state":"Mississippi","cityStateKey":"Prentiss|Mississippi","cityLevel":null,"isPriority":false,"ooCount":0,"partnerCount":1,"totalSites":1,"totalTCAs":7,"inProcess":0,"cleared":0,"siteActivated":false}}]}