{"type": "FeatureCollection", "features": [{"type": "Feature", "properties": {"NAME": "New York-Newark"}, "geometry": {"type": "Polygon", "coordinates": [[[-72.9544, 40.7128], [-72.9634, 40.8168], [-72.9902, 40.9191], [-73.0344, 41.0178], [-73.0953, 41.1114], [-73.1717, 41.198], [-73.2624, 41.2764], [-73.3658, 41.3452], [-73.4802, 41.4031], [-73.6036, 41.4492], [-73.7338, 41.4827], [-73.8687, 41.5031], [-74.006, 41.5099], [-74.1433, 41.5031], [-74.2782, 41.4827], [-74.4084, 41.4492], [-74.5318, 41.4031], [-74.6462, 41.3452], [-74.7496, 41.2764], [-74.8403, 41.198], [-74.9167, 41.1114], [-74.9776, 41.0178], [-75.0218, 40.9191], [-75.0486, 40.8168], [-75.0576, 40.7128], [-75.0486, 40.6088], [-75.0218, 40.5065], [-74.9776, 40.4078], [-74.9167, 40.3142], [-74.8403, 40.2276], [-74.7496, 40.1492], [-74.6462, 40.0804], [-74.5318, 40.0225], [-74.4084, 39.9764], [-74.2782, 39.9429], [-74.1433, 39.9225], [-74.006, 39.9157], [-73.8687, 39.9225], [-73.7338, 39.9429], [-73.6036, 39.9764], [-73.4802, 40.0225], [-73.3658, 40.0804], [-73.2624, 40.1492], [-73.1717, 40.2276], [-73.0953, 40.3142], [-73.0344, 40.4078], [-72.9902, 40.5065], [-72.9634, 40.6088], [-72.9544, 40.7128]]]}}, {"type": "Feature", "properties": {"NAME": "Los Angeles-Long Beach"}, "geometry": {"type": "Polygon", "coordinates": [[[-117.1942, 34.0522], [-117.2031, 34.1657], [-117.2299, 34.2773], [-117.2741, 34.385], [-117.3348, 34.487], [-117.4111, 34.5816], [-117.5016, 34.6671], [-117.6048, 34.7421], [-117.7189, 34.8053], [-117.8421, 34.8556], [-117.9721, 34.8921], [-118.1067, 34.9143], [-118.2437, 34.9218], [-118.3807, 34.9143], [-118.5153, 34.8921], [-118.6453, 34.8556], [-118.7685, 34.8053], [-118.8826, 34.7421], [-118.9858, 34.6671], [-119.0763, 34.5816], [-119.1526, 34.487], [-119.2133, 34.385], [-119.2575, 34.2773], [-119.2843, 34.1657], [-119.2932, 34.0522], [-119.2843, 33.9387], [-119.2575, 33.8271], [-119.2133, 33.7194], [-119.1526, 33.6174], [-119.0763, 33.5228], [-118.9858, 33.4373], [-118.8826, 33.3623], [-118.7685, 33.2991], [-118.6453, 33.2488], [-118.5153, 33.2123], [-118.3807, 33.1901], [-118.2437, 33.1826], [-118.1067, 33.1901], [-117.9721, 33.2123], [-117.8421, 33.2488], [-117.7189, 33.2991], [-117.6048, 33.3623], [-117.5016, 33.4373], [-117.4111, 33.5228], [-117.3348, 33.6174], [-117.2741, 33.7194], [-117.2299, 33.8271], [-117.2031, 33.9387], [-117.1942, 34.0522]]]}}, {"type": "Feature", "properties": {"NAME": "Chicago-Naperville"}, "geometry": {"type": "Polygon", "coordinates": [[[-86.6566, 41.8781], [-86.6649, 41.9727], [-86.6897, 42.0657], [-86.7306, 42.1554], [-86.787, 42.2404], [-86.8577, 42.3192], [-86.9416, 42.3905], [-87.0373, 42.453], [-87.1432, 42.5057], [-87.2574, 42.5476], [-87.3779, 42.578], [-87.5028, 42.5965], [-87.6298, 42.6027], [-87.7568, 42.5965], [-87.8817, 42.578], [-88.0022, 42.5476], [-88.1164, 42.5057], [-88.2223, 42.453], [-88.318, 42.3905], [-88.4019, 42.3192], [-88.4726, 42.2404], [-88.529, 42.1554], [-88.5699, 42.0657], [-88.5947, 41.9727], [-88.603, 41.8781], [-88.5947, 41.7835], [-88.5699, 41.6905], [-88.529, 41.6008], [-88.4726, 41.5158], [-88.4019, 41.437], [-88.318, 41.3657], [-88.2223, 41.3032], [-88.1164, 41.2505], [-88.0022, 41.2086], [-87.8817, 41.1782], [-87.7568, 41.1597], [-87.6298, 41.1535], [-87.5028, 41.1597], [-87.3779, 41.1782], [-87.2574, 41.2086], [-87.1432, 41.2505], [-87.0373, 41.3032], [-86.9416, 41.3657], [-86.8577, 41.437], [-86.787, 41.5158], [-86.7306, 41.6008], [-86.6897, 41.6905], [-86.6649, 41.7835], [-86.6566, 41.8781]]]}}, {"type": "Feature", "properties": {"NAME": "Dallas-Fort Worth"}, "geometry": {"type": "Polygon", "coordinates": [[[-96.0909, 32.8998], [-96.0991, 33.0038], [-96.1233, 33.1061], [-96.1632, 33.2048], [-96.2181, 33.2984], [-96.2871, 33.385], [-96.369, 33.4634], [-96.4624, 33.5322], [-96.5656, 33.5901], [-96.677, 33.6362], [-96.7946, 33.6697], [-96.9164, 33.6901], [-97.0403, 33.6969], [-97.1642, 33.6901], [-97.286, 33.6697], [-97.4036, 33.6362], [-97.515, 33.5901], [-97.6182, 33.5322], [-97.7116, 33.4634], [-97.7935, 33.385], [-97.8625, 33.2984], [-97.9174, 33.2048], [-97.9573, 33.1061], [-97.9815, 33.0038], [-97.9897, 32.8998], [-97.9815, 32.7958], [-97.9573, 32.6935], [-97.9174, 32.5948], [-97.8625, 32.5012], [-97.7935, 32.4146], [-97.7116, 32.3362], [-97.6182, 32.2674], [-97.515, 32.2095], [-97.4036, 32.1634], [-97.286, 32.1299], [-97.1642, 32.1095], [-97.0403, 32.1027], [-96.9164, 32.1095], [-96.7946, 32.1299], [-96.677, 32.1634], [-96.5656, 32.2095], [-96.4624, 32.2674], [-96.369, 32.3362], [-96.2871, 32.4146], [-96.2181, 32.5012], [-96.1632, 32.5948], [-96.1233, 32.6935], [-96.0991, 32.7958], [-96.0909, 32.8998]]]}}, {"type": "Feature", "properties": {"NAME": "Houston-The Woodlands"}, "geometry": {"type": "Polygon", "coordinates": [[[-94.4516, 29.7604], [-94.4595, 29.8644], [-94.4829, 29.9667], [-94.5215, 30.0654], [-94.5746, 30.159], [-94.6413, 30.2456], [-94.7205, 30.324], [-94.8108, 30.3928], [-94.9107, 30.4507], [-95.0184, 30.4968], [-95.1322, 30.5303], [-95.25, 30.5507], [-95.3698, 30.5575], [-95.4896, 30.5507], [-95.6074, 30.5303], [-95.7212, 30.4968], [-95.8289, 30.4507], [-95.9288, 30.3928], [-96.0191, 30.324], [-96.0983, 30.2456], [-96.165, 30.159], [-96.2181, 30.0654], [-96.2567, 29.9667], [-96.2801, 29.8644], [-96.288, 29.7604], [-96.2801, 29.6564], [-96.2567, 29.5541], [-96.2181, 29.4554], [-96.165, 29.3618], [-96.0983, 29.2752], [-96.0191, 29.1968], [-95.9288, 29.128], [-95.8289, 29.0701], [-95.7212, 29.024], [-95.6074, 28.9905], [-95.4896, 28.9701], [-95.3698, 28.9633], [-95.25, 28.9701], [-95.1322, 28.9905], [-95.0184, 29.024], [-94.9107, 29.0701], [-94.8108, 29.128], [-94.7205, 29.1968], [-94.6413, 29.2752], [-94.5746, 29.3618], [-94.5215, 29.4554], [-94.4829, 29.5541], [-94.4595, 29.6564], [-94.4516, 29.7604]]]}}, {"type": "Feature", "properties": {"NAME": "Washington-Arlington"}, "geometry": {"type": "Polygon", "coordinates": [[[-76.1988, 38.9072], [-76.206, 38.9923], [-76.2274, 39.076], [-76.2626, 39.1568], [-76.3111, 39.2333], [-76.372, 39.3042], [-76.4443, 39.3684], [-76.5267, 39.4246], [-76.6179, 39.472], [-76.7162, 39.5097], [-76.82, 39.5372], [-76.9275, 39.5538], [-77.0369, 39.5594], [-77.1463, 39.5538], [-77.2538, 39.5372], [-77.3576, 39.5097], [-77.4559, 39.472], [-77.5471, 39.4246], [-77.6295, 39.3684], [-77.7018, 39.3042], [-77.7627, 39.2333], [-77.8112, 39.1568], [-77.8464, 39.076], [-77.8678, 38.9923], [-77.875, 38.9072], [-77.8678, 38.8221], [-77.8464, 38.7384], [-77.8112, 38.6576], [-77.7627, 38.5811], [-77.7018, 38.5102], [-77.6295, 38.446], [-77.5471, 38.3898], [-77.4559, 38.3424], [-77.3576, 38.3047], [-77.2538, 38.2772], [-77.1463, 38.2606], [-77.0369, 38.255], [-76.9275, 38.2606], [-76.82, 38.2772], [-76.7162, 38.3047], [-76.6179, 38.3424], [-76.5267, 38.3898], [-76.4443, 38.446], [-76.372, 38.5102], [-76.3111, 38.5811], [-76.2626, 38.6576], [-76.2274, 38.7384], [-76.206, 38.8221], [-76.1988, 38.9072]]]}}, {"type": "Feature", "properties": {"NAME": "Miami-Fort Lauderdale"}, "geometry": {"type": "Polygon", "coordinates": [[[-79.3945, 25.994], [-79.4014, 26.0886], [-79.422, 26.1816], [-79.4559, 26.2713], [-79.5025, 26.3563], [-79.5611, 26.4351], [-79.6306, 26.5064], [-79.7099, 26.5689], [-79.7976, 26.6216], [-79.8922, 26.6635], [-79.992, 26.6939], [-80.0955, 26.7124], [-80.2007, 26.7186], [-80.3059, 26.7124], [-80.4094, 26.6939], [-80.5092, 26.6635], [-80.6038, 26.6216], [-80.6915, 26.5689], [-80.7708, 26.5064], [-80.8403, 26.4351], [-80.8989, 26.3563], [-80.9455, 26.2713], [-80.9794, 26.1816], [-81.0, 26.0886], [-81.0069, 25.994], [-81.0, 25.8994], [-80.9794, 25.8064], [-80.9455, 25.7167], [-80.8989, 25.6317], [-80.8403, 25.5529], [-80.7708, 25.4816], [-80.6915, 25.4191], [-80.6038, 25.3664], [-80.5092, 25.3245], [-80.4094, 25.2941], [-80.3059, 25.2756], [-80.2007, 25.2694], [-80.0955, 25.2756], [-79.992, 25.2941], [-79.8922, 25.3245], [-79.7976, 25.3664], [-79.7099, 25.4191], [-79.6306, 25.4816], [-79.5611, 25.5529], [-79.5025, 25.6317], [-79.4559, 25.7167], [-79.422, 25.8064], [-79.4014, 25.8994], [-79.3945, 25.994]]]}}, {"type": "Feature", "properties": {"NAME": "Philadelphia-Camden"}, "geometry": {"type": "Polygon", "coordinates": [[[-74.2664, 40.0006], [-74.2737, 40.0857], [-74.2954, 40.1694], [-74.3312, 40.2502], [-74.3805, 40.3267], [-74.4424, 40.3976], [-74.5158, 40.4618], [-74.5995, 40.518], [-74.6921, 40.5654], [-74.792, 40.6031], [-74.8975, 40.6306], [-75.0067, 40.6472], [-75.1178, 40.6528], [-75.2289, 40.6472], [-75.3381, 40.6306], [-75.4436, 40.6031], [-75.5435, 40.5654], [-75.6361, 40.518], [-75.7198, 40.4618], [-75.7932, 40.3976], [-75.8551, 40.3267], [-75.9044, 40.2502], [-75.9402, 40.1694], [-75.9619, 40.0857], [-75.9692, 40.0006], [-75.9619, 39.9155], [-75.9402, 39.8318], [-75.9044, 39.751], [-75.8551, 39.6745], [-75.7932, 39.6036], [-75.7198, 39.5394], [-75.6361, 39.4832], [-75.5435, 39.4358], [-75.4436, 39.3981], [-75.3381, 39.3706], [-75.2289, 39.354], [-75.1178, 39.3484], [-75.0067, 39.354], [-74.8975, 39.3706], [-74.792, 39.3981], [-74.6921, 39.4358], [-74.5995, 39.4832], [-74.5158, 39.5394], [-74.4424, 39.6036], [-74.3805, 39.6745], [-74.3312, 39.751], [-74.2954, 39.8318], [-74.2737, 39.9155], [-74.2664, 40.0006]]]}}, {"type": "Feature", "properties": {"NAME": "Atlanta-Sandy Springs"}, "geometry": {"type": "Polygon", "coordinates": [[[-83.4293, 33.749], [-83.4375, 33.853], [-83.462, 33.9553], [-83.5023, 34.054], [-83.5578, 34.1476], [-83.6274, 34.2342], [-83.7101, 34.3126], [-83.8044, 34.3814], [-83.9087, 34.4393], [-84.0211, 34.4854], [-84.1399, 34.5189], [-84.2629, 34.5393], [-84.388, 34.5461], [-84.5131, 34.5393], [-84.6361, 34.5189], [-84.7549, 34.4854], [-84.8673, 34.4393], [-84.9716, 34.3814], [-85.0659, 34.3126], [-85.1486, 34.2342], [-85.2182, 34.1476], [-85.2737, 34.054], [-85.314, 33.9553], [-85.3385, 33.853], [-85.3467, 33.749], [-85.3385, 33.645], [-85.314, 33.5427], [-85.2737, 33.444], [-85.2182, 33.3504], [-85.1486, 33.2638], [-85.0659, 33.1854], [-84.9716, 33.1166], [-84.8673, 33.0587], [-84.7549, 33.0126], [-84.6361, 32.9791], [-84.5131, 32.9587], [-84.388, 32.9519], [-84.2629, 32.9587], [-84.1399, 32.9791], [-84.0211, 33.0126], [-83.9087, 33.0587], [-83.8044, 33.1166], [-83.7101, 33.1854], [-83.6274, 33.2638], [-83.5578, 33.3504], [-83.5023, 33.444], [-83.462, 33.5427], [-83.4375, 33.645], [-83.4293, 33.749]]]}}, {"type": "Feature", "properties": {"NAME": "Phoenix-Mesa"}, "geometry": {"type": "Polygon", "coordinates": [[[-111.2204, 33.5722], [-111.2278, 33.6668], [-111.25, 33.7598], [-111.2866, 33.8495], [-111.3369, 33.9345], [-111.4001, 34.0133], [-111.4751, 34.0846], [-111.5607, 34.1471], [-111.6552, 34.1998], [-111.7573, 34.2417], [-111.865, 34.2721], [-111.9766, 34.2906], [-112.0901, 34.2968], [-112.2036, 34.2906], [-112.3152, 34.2721], [-112.4229, 34.2417], [-112.525, 34.1998], [-112.6195, 34.1471], [-112.7051, 34.0846], [-112.7801, 34.0133], [-112.8433, 33.9345], [-112.8936, 33.8495], [-112.9302, 33.7598], [-112.9524, 33.6668], [-112.9598, 33.5722], [-112.9524, 33.4776], [-112.9302, 33.3846], [-112.8936, 33.2949], [-112.8433, 33.2099], [-112.7801, 33.1311], [-112.7051, 33.0598], [-112.6195, 32.9973], [-112.525, 32.9446], [-112.4229, 32.9027], [-112.3152, 32.8723], [-112.2036, 32.8538], [-112.0901, 32.8476], [-111.9766, 32.8538], [-111.865, 32.8723], [-111.7573, 32.9027], [-111.6552, 32.9446], [-111.5607, 32.9973], [-111.4751, 33.0598], [-111.4001, 33.1311], [-111.3369, 33.2099], [-111.2866, 33.2949], [-111.25, 33.3846], [-111.2278, 33.4776], [-111.2204, 33.5722]]]}}, {"type": "Feature", "properties": {"NAME": "Boston-Cambridge"}, "geometry": {"type": "Polygon", "coordinates": [[[-70.1763, 42.3601], [-70.1839, 42.4452], [-70.2064, 42.5289], [-70.2435, 42.6097], [-70.2945, 42.6862], [-70.3587, 42.7571], [-70.4348, 42.8213], [-70.5216, 42.8775], [-70.6176, 42.9249], [-70.7211, 42.9626], [-70.8305, 42.9901], [-70.9437, 43.0067], [-71.0589, 43.0123], [-71.1741, 43.0067], [-71.2873, 42.9901], [-71.3967, 42.9626], [-71.5002, 42.9249], [-71.5962, 42.8775], [-71.683, 42.8213], [-71.7591, 42.7571], [-71.8233, 42.6862], [-71.8743, 42.6097], [-71.9114, 42.5289], [-71.9339, 42.4452], [-71.9415, 42.3601], [-71.9339, 42.275], [-71.9114, 42.1913], [-71.8743, 42.1105], [-71.8233, 42.034], [-71.7591, 41.9631], [-71.683, 41.8989], [-71.5962, 41.8427], [-71.5002, 41.7953], [-71.3967, 41.7576], [-71.2873, 41.7301], [-71.1741, 41.7135], [-71.0589, 41.7079], [-70.9437, 41.7135], [-70.8305, 41.7301], [-70.7211, 41.7576], [-70.6176, 41.7953], [-70.5216, 41.8427], [-70.4348, 41.8989], [-70.3587, 41.9631], [-70.2945, 42.034], [-70.2435, 42.1105], [-70.2064, 42.1913], [-70.1839, 42.275], [-70.1763, 42.3601]]]}}, {"type": "Feature", "properties": {"NAME": "Riverside-San Bernardino"}, "geometry": {"type": "Polygon", "coordinates": [[[-116.5016, 33.9806], [-116.5091, 34.0752], [-116.5314, 34.1682], [-116.5681, 34.2579], [-116.6187, 34.3429], [-116.6822, 34.4217], [-116.7576, 34.493], [-116.8435, 34.5555], [-116.9386, 34.6082], [-117.0411, 34.6501], [-117.1493, 34.6805], [-117.2614, 34.699], [-117.3755, 34.7052], [-117.4896, 34.699], [-117.6017, 34.6805], [-117.7099, 34.6501], [-117.8124, 34.6082], [-117.9075, 34.5555], [-117.9934, 34.493], [-118.0688, 34.4217], [-118.1323, 34.3429], [-118.1829, 34.2579], [-118.2196, 34.1682], [-118.2419, 34.0752], [-118.2494, 33.9806], [-118.2419, 33.886], [-118.2196, 33.793], [-118.1829, 33.7033], [-118.1323, 33.6183], [-118.0688, 33.5395], [-117.9934, 33.4682], [-117.9075, 33.4057], [-117.8124, 33.353], [-117.7099, 33.3111], [-117.6017, 33.2807], [-117.4896, 33.2622], [-117.3755, 33.256], [-117.2614, 33.2622], [-117.1493, 33.2807], [-117.0411, 33.3111], [-116.9386, 33.353], [-116.8435, 33.4057], [-116.7576, 33.4682], [-116.6822, 33.5395], [-116.6187, 33.6183], [-116.5681, 33.7033], [-116.5314, 33.793], [-116.5091, 33.886], [-116.5016, 33.9806]]]}}, {"type": "Feature", "properties": {"NAME": "Seattle-Tacoma"}, "geometry": {"type": "Polygon", "coordinates": [[[-121.2444, 47.4799], [-121.2527, 47.565], [-121.2773, 47.6487], [-121.3179, 47.7295], [-121.3737, 47.806], [-121.4438, 47.8769], [-121.5271, 47.9411], [-121.622, 47.9973], [-121.7269, 48.0447], [-121.8401, 48.0824], [-121.9596, 48.1099], [-122.0834, 48.1265], [-122.2094, 48.1321], [-122.3354, 48.1265], [-122.4592, 48.1099], [-122.5787, 48.0824], [-122.6919, 48.0447], [-122.7968, 47.9973], [-122.8917, 47.9411], [-122.975, 47.8769], [-123.0451, 47.806], [-123.1009, 47.7295], [-123.1415, 47.6487], [-123.1661, 47.565], [-123.1744, 47.4799], [-123.1661, 47.3948], [-123.1415, 47.3111], [-123.1009, 47.2303], [-123.0451, 47.1538], [-122.975, 47.0829], [-122.8917, 47.0187], [-122.7968, 46.9625], [-122.6919, 46.9151], [-122.5787, 46.8774], [-122.4592, 46.8499], [-122.3354, 46.8333], [-122.2094, 46.8277], [-122.0834, 46.8333], [-121.9596, 46.8499], [-121.8401, 46.8774], [-121.7269, 46.9151], [-121.622, 46.9625], [-121.5271, 47.0187], [-121.4438, 47.0829], [-121.3737, 47.1538], [-121.3179, 47.2303], [-121.2773, 47.3111], [-121.2527, 47.3948], [-121.2444, 47.4799]]]}}, {"type": "Feature", "properties": {"NAME": "Minneapolis-St. Paul"}, "geometry": {"type": "Polygon", "coordinates": [[[-92.3104, 44.9733], [-92.3183, 45.0584], [-92.3418, 45.1421], [-92.3806, 45.2229], [-92.4339, 45.2994], [-92.5009, 45.3703], [-92.5804, 45.4345], [-92.6711, 45.4907], [-92.7714, 45.5381], [-92.8795, 45.5758], [-92.9937, 45.6033], [-93.112, 45.6199], [-93.2323, 45.6255], [-93.3526, 45.6199], [-93.4709, 45.6033], [-93.5851, 45.5758], [-93.6932, 45.5381], [-93.7935, 45.4907], [-93.8842, 45.4345], [-93.9637, 45.3703], [-94.0307, 45.2994], [-94.084, 45.2229], [-94.1228, 45.1421], [-94.1463, 45.0584], [-94.1542, 44.9733], [-94.1463, 44.8882], [-94.1228, 44.8045], [-94.084, 44.7237], [-94.0307, 44.6472], [-93.9637, 44.5763], [-93.8842, 44.5121], [-93.7935, 44.4559], [-93.6932, 44.4085], [-93.5851, 44.3708], [-93.4709, 44.3433], [-93.3526, 44.3267], [-93.2323, 44.3211], [-93.112, 44.3267], [-92.9937, 44.3433], [-92.8795, 44.3708], [-92.7714, 44.4085], [-92.6711, 44.4559], [-92.5804, 44.5121], [-92.5009, 44.5763], [-92.4339, 44.6472], [-92.3806, 44.7237], [-92.3418, 44.8045], [-92.3183, 44.8882], [-92.3104, 44.9733]]]}}, {"type": "Feature", "properties": {"NAME": "San Diego-Chula Vista"}, "geometry": {"type": "Polygon", "coordinates": [[[-116.4721, 32.7157], [-116.478, 32.7914], [-116.4956, 32.8657], [-116.5245, 32.9375], [-116.5644, 33.0056], [-116.6145, 33.0686], [-116.6739, 33.1256], [-116.7417, 33.1756], [-116.8166, 33.2177], [-116.8974, 33.2513], [-116.9828, 33.2757], [-117.0712, 33.2905], [-117.1611, 33.2954], [-117.251, 33.2905], [-117.3394, 33.2757], [-117.4248, 33.2513], [-117.5056, 33.2177], [-117.5805, 33.1756], [-117.6483, 33.1256], [-117.7077, 33.0686], [-117.7578, 33.0056], [-117.7977, 32.9375], [-117.8266, 32.8657], [-117.8442, 32.7914], [-117.8501, 32.7157], [-117.8442, 32.64], [-117.8266, 32.5657], [-117.7977, 32.4939], [-117.7578, 32.4258], [-117.7077, 32.3628], [-117.6483, 32.3058], [-117.5805, 32.2558], [-117.5056, 32.2137], [-117.4248, 32.1801], [-117.3394, 32.1557], [-117.251, 32.1409], [-117.1611, 32.136], [-117.0712, 32.1409], [-116.9828, 32.1557], [-116.8974, 32.1801], [-116.8166, 32.2137], [-116.7417, 32.2558], [-116.6739, 32.3058], [-116.6145, 32.3628], [-116.5644, 32.4258], [-116.5245, 32.4939], [-116.4956, 32.5657], [-116.478, 32.64], [-116.4721, 32.7157]]]}}, {"type": "Feature", "properties": {"NAME": "Tampa-St. Petersburg"}, "geometry": {"type": "Polygon", "coordinates": [[[-81.8557, 27.9947], [-81.862, 28.0798], [-81.8809, 28.1635], [-81.9119, 28.2443], [-81.9547, 28.3208], [-82.0083, 28.3917], [-82.072, 28.4559], [-82.1447, 28.5121], [-82.225, 28.5595], [-82.3117, 28.5972], [-82.4031, 28.6247], [-82.4979, 28.6413], [-82.5943, 28.6469], [-82.6907, 28.6413], [-82.7855, 28.6247], [-82.8769, 28.5972], [-82.9636, 28.5595], [-83.0439, 28.5121], [-83.1166, 28.4559], [-83.1803, 28.3917], [-83.2339, 28.3208], [-83.2767, 28.2443], [-83.3077, 28.1635], [-83.3266, 28.0798], [-83.3329, 27.9947], [-83.3266, 27.9096], [-83.3077, 27.8259], [-83.2767, 27.7451], [-83.2339, 27.6686], [-83.1803, 27.5977], [-83.1166, 27.5335], [-83.0439, 27.4773], [-82.9636, 27.4299], [-82.8769, 27.3922], [-82.7855, 27.3647], [-82.6907, 27.3481], [-82.5943, 27.3425], [-82.4979, 27.3481], [-82.4031, 27.3647], [-82.3117, 27.3922], [-82.225, 27.4299], [-82.1447, 27.4773], [-82.072, 27.5335], [-82.0083, 27.5977], [-81.9547, 27.6686], [-81.9119, 27.7451], [-81.8809, 27.8259], [-81.862, 27.9096], [-81.8557, 27.9947]]]}}, {"type": "Feature", "properties": {"NAME": "Denver-Aurora"}, "geometry": {"type": "Polygon", "coordinates": [[[-104.1422, 39.7392], [-104.1494, 39.8243], [-104.1711, 39.908], [-104.2067, 39.9888], [-104.2558, 40.0653], [-104.3174, 40.1362], [-104.3906, 40.2004], [-104.474, 40.2566], [-104.5662, 40.304], [-104.6657, 40.3417], [-104.7708, 40.3692], [-104.8796, 40.3858], [-104.9903, 40.3914], [-105.101, 40.3858], [-105.2098, 40.3692], [-105.3149, 40.3417], [-105.4144, 40.304], [-105.5066, 40.2566], [-105.59, 40.2004], [-105.6632, 40.1362], [-105.7248, 40.0653], [-105.7739, 39.9888], [-105.8095, 39.908], [-105.8312, 39.8243], [-105.8384, 39.7392], [-105.8312, 39.6541], [-105.8095, 39.5704], [-105.7739, 39.4896], [-105.7248, 39.4131], [-105.6632, 39.3422], [-105.59, 39.278], [-105.5066, 39.2218], [-105.4144, 39.1744], [-105.3149, 39.1367], [-105.2098, 39.1092], [-105.101, 39.0926], [-104.9903, 39.087], [-104.8796, 39.0926], [-104.7708, 39.1092], [-104.6657, 39.1367], [-104.5662, 39.1744], [-104.474, 39.2218], [-104.3906, 39.278], [-104.3174, 39.3422], [-104.2558, 39.4131], [-104.2067, 39.4896], [-104.1711, 39.5704], [-104.1494, 39.6541], [-104.1422, 39.7392]]]}}, {"type": "Feature", "properties": {"NAME": "St. Louis"}, "geometry": {"type": "Polygon", "coordinates": [[[-89.4573, 38.627], [-89.4637, 38.7027], [-89.4826, 38.777], [-89.5138, 38.8488], [-89.5568, 38.9169], [-89.6107, 38.9799], [-89.6747, 39.0369], [-89.7477, 39.0869], [-89.8284, 39.129], [-89.9154, 39.1626], [-90.0073, 39.187], [-90.1025, 39.2018], [-90.1994, 39.2067], [-90.2963, 39.2018], [-90.3915, 39.187], [-90.4834, 39.1626], [-90.5704, 39.129], [-90.6511, 39.0869], [-90.7241, 39.0369], [-90.7881, 38.9799], [-90.842, 38.9169], [-90.885, 38.8488], [-90.9162, 38.777], [-90.9351, 38.7027], [-90.9415, 38.627], [-90.9351, 38.5513], [-90.9162, 38.477], [-90.885, 38.4052], [-90.842, 38.3371], [-90.7881, 38.2741], [-90.7241, 38.2171], [-90.6511, 38.1671], [-90.5704, 38.125], [-90.4834, 38.0914], [-90.3915, 38.067], [-90.2963, 38.0522], [-90.1994, 38.0473], [-90.1025, 38.0522], [-90.0073, 38.067], [-89.9154, 38.0914], [-89.8284, 38.125], [-89.7477, 38.1671], [-89.6747, 38.2171], [-89.6107, 38.2741], [-89.5568, 38.3371], [-89.5138, 38.4052], [-89.4826, 38.477], [-89.4637, 38.5513], [-89.4573, 38.627]]]}}, {"type": "Feature", "properties": {"NAME": "Baltimore-Columbia"}, "geometry": {"type": "Polygon", "coordinates": [[[-75.8632, 39.2904], [-75.8696, 39.3661], [-75.8887, 39.4404], [-75.9202, 39.5122], [-75.9635, 39.5803], [-76.018, 39.6433], [-76.0826, 39.7003], [-76.1562, 39.7503], [-76.2377, 39.7924], [-76.3256, 39.826], [-76.4183, 39.8504], [-76.5144, 39.8652], [-76.6122, 39.8701], [-76.71, 39.8652], [-76.8061, 39.8504], [-76.8988, 39.826], [-76.9867, 39.7924], [-77.0682, 39.7503], [-77.1418, 39.7003], [-77.2064, 39.6433], [-77.2609, 39.5803], [-77.3042, 39.5122], [-77.3357, 39.4404], [-77.3548, 39.3661], [-77.3612, 39.2904], [-77.3548, 39.2147], [-77.3357, 39.1404], [-77.3042, 39.0686], [-77.2609, 39.0005], [-77.2064, 38.9375], [-77.1418, 38.8805], [-77.0682, 38.8305], [-76.9867, 38.7884], [-76.8988, 38.7548], [-76.8061, 38.7304], [-76.71, 38.7156], [-76.6122, 38.7107], [-76.5144, 38.7156], [-76.4183, 38.7304], [-76.3256, 38.7548], [-76.2377, 38.7884], [-76.1562, 38.8305], [-76.0826, 38.8805], [-76.018, 38.9375], [-75.9635, 39.0005], [-75.9202, 39.0686], [-75.8887, 39.1404], [-75.8696, 39.2147], [-75.8632, 39.2904]]]}}, {"type": "Feature", "properties": {"NAME": "Orlando-Kissimmee"}, "geometry": {"type": "Polygon", "coordinates": [[[-80.7046, 28.4845], [-80.711, 28.5696], [-80.7299, 28.6533], [-80.7611, 28.7341], [-80.804, 28.8106], [-80.8579, 28.8815], [-80.9219, 28.9457], [-80.9949, 29.0019], [-81.0756, 29.0493], [-81.1627, 29.087], [-81.2546, 29.1145], [-81.3498, 29.1311], [-81.4466, 29.1367], [-81.5434, 29.1311], [-81.6386, 29.1145], [-81.7305, 29.087], [-81.8176, 29.0493], [-81.8983, 29.0019], [-81.9713, 28.9457], [-82.0353, 28.8815], [-82.0892, 28.8106], [-82.1321, 28.7341], [-82.1633, 28.6533], [-82.1822, 28.5696], [-82.1886, 28.4845], [-82.1822, 28.3994], [-82.1633, 28.3157], [-82.1321, 28.2349], [-82.0892, 28.1584], [-82.0353, 28.0875], [-81.9713, 28.0233], [-81.8983, 27.9671], [-81.8176, 27.9197], [-81.7305, 27.882], [-81.6386, 27.8545], [-81.5434, 27.8379], [-81.4466, 27.8323], [-81.3498, 27.8379], [-81.2546, 27.8545], [-81.1627, 27.882], [-81.0756, 27.9197], [-80.9949, 27.9671], [-80.9219, 28.0233], [-80.8579, 28.0875], [-80.804, 28.1584], [-80.7611, 28.2349], [-80.7299, 28.3157], [-80.711, 28.3994], [-80.7046, 28.4845]]]}}, {"type": "Feature", "properties": {"NAME": "San Antonio-New Braunfels"}, "geometry": {"type": "Polygon", "coordinates": [[[-97.828, 29.4241], [-97.8337, 29.4998], [-97.8507, 29.5741], [-97.8787, 29.6459], [-97.9172, 29.714], [-97.9656, 29.777], [-98.023, 29.834], [-98.0884, 29.884], [-98.1608, 29.9261], [-98.2389, 29.9597], [-98.3213, 29.9841], [-98.4067, 29.9989], [-98.4936, 30.0038], [-98.5805, 29.9989], [-98.6659, 29.9841], [-98.7483, 29.9597], [-98.8264, 29.9261], [-98.8988, 29.884], [-98.9642, 29.834], [-99.0216, 29.777], [-99.07, 29.714], [-99.1085, 29.6459], [-99.1365, 29.5741], [-99.1535, 29.4998], [-99.1592, 29.4241], [-99.1535, 29.3484], [-99.1365, 29.2741], [-99.1085, 29.2023], [-99.07, 29.1342], [-99.0216, 29.0712], [-98.9642, 29.0142], [-98.8988, 28.9642], [-98.8264, 28.9221], [-98.7483, 28.8885], [-98.6659, 28.8641], [-98.5805, 28.8493], [-98.4936, 28.8444], [-98.4067, 28.8493], [-98.3213, 28.8641], [-98.2389, 28.8885], [-98.1608, 28.9221], [-98.0884, 28.9642], [-98.023, 29.0142], [-97.9656, 29.0712], [-97.9172, 29.1342], [-97.8787, 29.2023], [-97.8507, 29.2741], [-97.8337, 29.3484], [-97.828, 29.4241]]]}}, {"type": "Feature", "properties": {"NAME": "Portland-Vancouver"}, "geometry": {"type": "Polygon", "coordinates": [[[-121.9268, 45.5442], [-121.9338, 45.6199], [-121.955, 45.6942], [-121.9898, 45.766], [-122.0377, 45.8341], [-122.0978, 45.8971], [-122.1692, 45.9541], [-122.2506, 46.0041], [-122.3406, 46.0462], [-122.4377, 46.0798], [-122.5403, 46.1042], [-122.6465, 46.119], [-122.7545, 46.1239], [-122.8625, 46.119], [-122.9687, 46.1042], [-123.0713, 46.0798], [-123.1684, 46.0462], [-123.2584, 46.0041], [-123.3398, 45.9541], [-123.4112, 45.8971], [-123.4713, 45.8341], [-123.5192, 45.766], [-123.554, 45.6942], [-123.5752, 45.6199], [-123.5822, 45.5442], [-123.5752, 45.4685], [-123.554, 45.3942], [-123.5192, 45.3224], [-123.4713, 45.2543], [-123.4112, 45.1913], [-123.3398, 45.1343], [-123.2584, 45.0843], [-123.1684, 45.0422], [-123.0713, 45.0086], [-122.9687, 44.9842], [-122.8625, 44.9694], [-122.7545, 44.9645], [-122.6465, 44.9694], [-122.5403, 44.9842], [-122.4377, 45.0086], [-122.3406, 45.0422], [-122.2506, 45.0843], [-122.1692, 45.1343], [-122.0978, 45.1913], [-122.0377, 45.2543], [-121.9898, 45.3224], [-121.955, 45.3942], [-121.9338, 45.4685], [-121.9268, 45.5442]]]}}, {"type": "Feature", "properties": {"NAME": "Sacramento-Roseville"}, "geometry": {"type": "Polygon", "coordinates": [[[-120.7528, 38.5816], [-120.7592, 38.6573], [-120.7781, 38.7316], [-120.8093, 38.8034], [-120.8522, 38.8715], [-120.9061, 38.9345], [-120.97, 38.9915], [-121.043, 39.0415], [-121.1236, 39.0836], [-121.2106, 39.1172], [-121.3025, 39.1416], [-121.3976, 39.1564], [-121.4944, 39.1613], [-121.5912, 39.1564], [-121.6863, 39.1416], [-121.7782, 39.1172], [-121.8652, 39.0836], [-121.9458, 39.0415], [-122.0188, 38.9915], [-122.0827, 38.9345], [-122.1366, 38.8715], [-122.1795, 38.8034], [-122.2107, 38.7316], [-122.2296, 38.6573], [-122.236, 38.5816], [-122.2296, 38.5059], [-122.2107, 38.4316], [-122.1795, 38.3598], [-122.1366, 38.2917], [-122.0827, 38.2287], [-122.0188, 38.1717], [-121.9458, 38.1217], [-121.8652, 38.0796], [-121.7782, 38.046], [-121.6863, 38.0216], [-121.5912, 38.0068], [-121.4944, 38.0019], [-121.3976, 38.0068], [-121.3025, 38.0216], [-121.2106, 38.046], [-121.1236, 38.0796], [-121.043, 38.1217], [-120.97, 38.1717], [-120.9061, 38.2287], [-120.8522, 38.2917], [-120.8093, 38.3598], [-120.7781, 38.4316], [-120.7592, 38.5059], [-120.7528, 38.5816]]]}}, {"type": "Feature", "properties": {"NAME": "Pittsburgh"}, "geometry": {"type": "Polygon", "coordinates": [[[-79.3294, 40.4406], [-79.3351, 40.5068], [-79.3521, 40.5719], [-79.3801, 40.6347], [-79.4187, 40.6942], [-79.4671, 40.7494], [-79.5246, 40.7993], [-79.5902, 40.843], [-79.6627, 40.8799], [-79.7408, 40.9092], [-79.8234, 40.9306], [-79.9089, 40.9435], [-79.9959, 40.9478], [-80.0829, 40.9435], [-80.1684, 40.9306], [-80.251, 40.9092], [-80.3291, 40.8799], [-80.4016, 40.843], [-80.4672, 40.7993], [-80.5247, 40.7494], [-80.5731, 40.6942], [-80.6117, 40.6347], [-80.6397, 40.5719], [-80.6567, 40.5068], [-80.6624, 40.4406], [-80.6567, 40.3744], [-80.6397, 40.3093], [-80.6117, 40.2465], [-80.5731, 40.187], [-80.5247, 40.1318], [-80.4672, 40.0819], [-80.4016, 40.0382], [-80.3291, 40.0013], [-80.251, 39.972], [-80.1684, 39.9506], [-80.0829, 39.9377], [-79.9959, 39.9334], [-79.9089, 39.9377], [-79.8234, 39.9506], [-79.7408, 39.972], [-79.6627, 40.0013], [-79.5902, 40.0382], [-79.5246, 40.0819], [-79.4671, 40.1318], [-79.4187, 40.187], [-79.3801, 40.2465], [-79.3521, 40.3093], [-79.3351, 40.3744], [-79.3294, 40.4406]]]}}, {"type": "Feature", "properties": {"NAME": "Las Vegas-Henderson"}, "geometry": {"type": "Polygon", "coordinates": [[[-114.4951, 36.2156], [-114.5012, 36.2913], [-114.5196, 36.3656], [-114.5498, 36.4374], [-114.5913, 36.5055], [-114.6436, 36.5685], [-114.7055, 36.6255], [-114.7762, 36.6755], [-114.8543, 36.7176], [-114.9386, 36.7512], [-115.0276, 36.7756], [-115.1198, 36.7904], [-115.2136, 36.7953], [-115.3074, 36.7904], [-115.3996, 36.7756], [-115.4886, 36.7512], [-115.5729, 36.7176], [-115.651, 36.6755], [-115.7217, 36.6255], [-115.7836, 36.5685], [-115.8359, 36.5055], [-115.8774, 36.4374], [-115.9076, 36.3656], [-115.926, 36.2913], [-115.9321, 36.2156], [-115.926, 36.1399], [-115.9076, 36.0656], [-115.8774, 35.9938], [-115.8359, 35.9257], [-115.7836, 35.8627], [-115.7217, 35.8057], [-115.651, 35.7557], [-115.5729, 35.7136], [-115.4886, 35.68], [-115.3996, 35.6556], [-115.3074, 35.6408], [-115.2136, 35.6359], [-115.1198, 35.6408], [-115.0276, 35.6556], [-114.9386, 35.68], [-114.8543, 35.7136], [-114.7762, 35.7557], [-114.7055, 35.8057], [-114.6436, 35.8627], [-114.5913, 35.9257], [-114.5498, 35.9938], [-114.5196, 36.0656], [-114.5012, 36.1399], [-114.4951, 36.2156]]]}}, {"type": "Feature", "properties": {"NAME": "Cincinnati"}, "geometry": {"type": "Polygon", "coordinates": [[[-83.7569, 39.2795], [-83.7625, 39.3457], [-83.7792, 39.4108], [-83.8068, 39.4736], [-83.8447, 39.5331], [-83.8923, 39.5883], [-83.9488, 39.6382], [-84.0133, 39.6819], [-84.0845, 39.7188], [-84.1614, 39.7481], [-84.2426, 39.7695], [-84.3267, 39.7824], [-84.4122, 39.7867], [-84.4977, 39.7824], [-84.5818, 39.7695], [-84.663, 39.7481], [-84.7399, 39.7188], [-84.8111, 39.6819], [-84.8756, 39.6382], [-84.9321, 39.5883], [-84.9797, 39.5331], [-85.0176, 39.4736], [-85.0452, 39.4108], [-85.0619, 39.3457], [-85.0675, 39.2795], [-85.0619, 39.2133], [-85.0452, 39.1482], [-85.0176, 39.0854], [-84.9797, 39.0259], [-84.9321, 38.9707], [-84.8756, 38.9208], [-84.8111, 38.8771], [-84.7399, 38.8402], [-84.663, 38.8109], [-84.5818, 38.7895], [-84.4977, 38.7766], [-84.4122, 38.7723], [-84.3267, 38.7766], [-84.2426, 38.7895], [-84.1614, 38.8109], [-84.0845, 38.8402], [-84.0133, 38.8771], [-83.9488, 38.9208], [-83.8923, 38.9707], [-83.8447, 39.0259], [-83.8068, 39.0854], [-83.7792, 39.1482], [-83.7625, 39.2133], [-83.7569, 39.2795]]]}}, {"type": "Feature", "properties": {"NAME": "Austin-Round Rock"}, "geometry": {"type": "Polygon", "coordinates": [[[-97.0719, 30.2672], [-97.0776, 30.3429], [-97.0948, 30.4172], [-97.123, 30.489], [-97.1618, 30.5571], [-97.2106, 30.6201], [-97.2685, 30.6771], [-97.3345, 30.7271], [-97.4075, 30.7692], [-97.4862, 30.8028], [-97.5694, 30.8272], [-97.6555, 30.842], [-97.7431, 30.8469], [-97.8307, 30.842], [-97.9168, 30.8272], [-98.0, 30.8028], [-98.0787, 30.7692], [-98.1517, 30.7271], [-98.2177, 30.6771], [-98.2756, 30.6201], [-98.3244, 30.5571], [-98.3632, 30.489], [-98.3914, 30.4172], [-98.4086, 30.3429], [-98.4143, 30.2672], [-98.4086, 30.1915], [-98.3914, 30.1172], [-98.3632, 30.0454], [-98.3244, 29.9773], [-98.2756, 29.9143], [-98.2177, 29.8573], [-98.1517, 29.8073], [-98.0787, 29.7652], [-98.0, 29.7316], [-97.9168, 29.7072], [-97.8307, 29.6924], [-97.7431, 29.6875], [-97.6555, 29.6924], [-97.5694, 29.7072], [-97.4862, 29.7316], [-97.4075, 29.7652], [-97.3345, 29.8073], [-97.2685, 29.8573], [-97.2106, 29.9143], [-97.1618, 29.9773], [-97.123, 30.0454], [-97.0948, 30.1172], [-97.0776, 30.1915], [-97.0719, 30.2672]]]}}, {"type": "Feature", "properties": {"NAME": "Kansas City"}, "geometry": {"type": "Polygon", "coordinates": [[[-93.7477, 39.0252], [-93.7541, 39.1009], [-93.7731, 39.1752], [-93.8045, 39.247], [-93.8477, 39.3151], [-93.9019, 39.3781], [-93.9662, 39.4351], [-94.0396, 39.4851], [-94.1208, 39.5272], [-94.2083, 39.5608], [-94.3008, 39.5852], [-94.3965, 39.6], [-94.4939, 39.6049], [-94.5913, 39.6], [-94.687, 39.5852], [-94.7795, 39.5608], [-94.867, 39.5272], [-94.9482, 39.4851], [-95.0216, 39.4351], [-95.0859, 39.3781], [-95.1401, 39.3151], [-95.1833, 39.247], [-95.2147, 39.1752], [-95.2337, 39.1009], [-95.2401, 39.0252], [-95.2337, 38.9495], [-95.2147, 38.8752], [-95.1833, 38.8034], [-95.1401, 38.7353], [-95.0859, 38.6723], [-95.0216, 38.6153], [-94.9482, 38.5653], [-94.867, 38.5232], [-94.7795, 38.4896], [-94.687, 38.4652], [-94.5913, 38.4504], [-94.4939, 38.4455], [-94.3965, 38.4504], [-94.3008, 38.4652], [-94.2083, 38.4896], [-94.1208, 38.5232], [-94.0396, 38.5653], [-93.9662, 38.6153], [-93.9019, 38.6723], [-93.8477, 38.7353], [-93.8045, 38.8034], [-93.7731, 38.8752], [-93.7541, 38.9495], [-93.7477, 39.0252]]]}}, {"type": "Feature", "properties": {"NAME": "Columbus"}, "geometry": {"type": "Polygon", "coordinates": [[[-82.337, 39.9612], [-82.3427, 40.0274], [-82.3596, 40.0925], [-82.3874, 40.1553], [-82.4257, 40.2148], [-82.4738, 40.27], [-82.5308, 40.3199], [-82.5959, 40.3636], [-82.6679, 40.4005], [-82.7455, 40.4298], [-82.8275, 40.4512], [-82.9124, 40.4641], [-82.9988, 40.4684], [-83.0852, 40.4641], [-83.1701, 40.4512], [-83.2521, 40.4298], [-83.3297, 40.4005], [-83.4017, 40.3636], [-83.4668, 40.3199], [-83.5238, 40.27], [-83.5719, 40.2148], [-83.6102, 40.1553], [-83.638, 40.0925], [-83.6549, 40.0274], [-83.6606, 39.9612], [-83.6549, 39.895], [-83.638, 39.8299], [-83.6102, 39.7671], [-83.5719, 39.7076], [-83.5238, 39.6524], [-83.4668, 39.6025], [-83.4017, 39.5588], [-83.3297, 39.5219], [-83.2521, 39.4926], [-83.1701, 39.4712], [-83.0852, 39.4583], [-82.9988, 39.454], [-82.9124, 39.4583], [-82.8275, 39.4712], [-82.7455, 39.4926], [-82.6679, 39.5219], [-82.5959, 39.5588], [-82.5308, 39.6025], [-82.4738, 39.6524], [-82.4257, 39.7076], [-82.3874, 39.7671], [-82.3596, 39.8299], [-82.3427, 39.895], [-82.337, 39.9612]]]}}, {"type": "Feature", "properties": {"NAME": "Indianapolis-Carmel"}, "geometry": {"type": "Polygon", "coordinates": [[[-85.4982, 39.7684], [-85.5038, 39.8346], [-85.5207, 39.8997], [-85.5484, 39.9625], [-85.5866, 40.022], [-85.6345, 40.0772], [-85.6915, 40.1271], [-85.7564, 40.1708], [-85.8281, 40.2077], [-85.9056, 40.237], [-85.9873, 40.2584], [-86.072, 40.2713], [-86.1581, 40.2756], [-86.2442, 40.2713], [-86.3289, 40.2584], [-86.4106, 40.237], [-86.4881, 40.2077], [-86.5598, 40.1708], [-86.6247, 40.1271], [-86.6817, 40.0772], [-86.7296, 40.022], [-86.7678, 39.9625], [-86.7955, 39.8997], [-86.8124, 39.8346], [-86.818, 39.7684], [-86.8124, 39.7022], [-86.7955, 39.6371], [-86.7678, 39.5743], [-86.7296, 39.5148], [-86.6817, 39.4596], [-86.6247, 39.4097], [-86.5598, 39.366], [-86.4881, 39.3291], [-86.4106, 39.2998], [-86.3289, 39.2784], [-86.2442, 39.2655], [-86.1581, 39.2612], [-86.072, 39.2655], [-85.9873, 39.2784], [-85.9056, 39.2998], [-85.8281, 39.3291], [-85.7564, 39.366], [-85.6915, 39.4097], [-85.6345, 39.4596], [-85.5866, 39.5148], [-85.5484, 39.5743], [-85.5207, 39.6371], [-85.5038, 39.7022], [-85.4982, 39.7684]]]}}, {"type": "Feature", "properties": {"NAME": "Cleveland-Elyria"}, "geometry": {"type": "Polygon", "coordinates": [[[-81.0171, 41.4993], [-81.0229, 41.5655], [-81.0402, 41.6306], [-81.0687, 41.6934], [-81.1079, 41.7529], [-81.1571, 41.8081], [-81.2155, 41.858], [-81.2821, 41.9017], [-81.3558, 41.9386], [-81.4352, 41.9679], [-81.5191, 41.9893], [-81.606, 42.0022], [-81.6944, 42.0065], [-81.7828, 42.0022], [-81.8697, 41.9893], [-81.9536, 41.9679], [-82.033, 41.9386], [-82.1067, 41.9017], [-82.1733, 41.858], [-82.2317, 41.8081], [-82.2809, 41.7529], [-82.3201, 41.6934], [-82.3486, 41.6306], [-82.3659, 41.5655], [-82.3717, 41.4993], [-82.3659, 41.4331], [-82.3486, 41.368], [-82.3201, 41.3052], [-82.2809, 41.2457], [-82.2317, 41.1905], [-82.1733, 41.1406], [-82.1067, 41.0969], [-82.033, 41.06], [-81.9536, 41.0307], [-81.8697, 41.0093], [-81.7828, 40.9964], [-81.6944, 40.9921], [-81.606, 40.9964], [-81.5191, 41.0093], [-81.4352, 41.0307], [-81.3558, 41.06], [-81.2821, 41.0969], [-81.2155, 41.1406], [-81.1571, 41.1905], [-81.1079, 41.2457], [-81.0687, 41.3052], [-81.0402, 41.368], [-81.0229, 41.4331], [-81.0171, 41.4993]]]}}, {"type": "Feature", "properties": {"NAME": "San Jose-Sunnyvale"}, "geometry": {"type": "Polygon", "coordinates": [[[-121.2483, 37.3382], [-121.2538, 37.4044], [-121.27, 37.4695], [-121.2969, 37.5323], [-121.3338, 37.5918], [-121.3801, 37.647], [-121.4352, 37.6969], [-121.4979, 37.7406], [-121.5673, 37.7775], [-121.6422, 37.8068], [-121.7212, 37.8282], [-121.803, 37.8411], [-121.8863, 37.8454], [-121.9696, 37.8411], [-122.0514, 37.8282], [-122.1304, 37.8068], [-122.2053, 37.7775], [-122.2747, 37.7406], [-122.3374, 37.6969], [-122.3925, 37.647], [-122.4388, 37.5918], [-122.4757, 37.5323], [-122.5026, 37.4695], [-122.5188, 37.4044], [-122.5243, 37.3382], [-122.5188, 37.272], [-122.5026, 37.2069], [-122.4757, 37.1441], [-122.4388, 37.0846], [-122.3925, 37.0294], [-122.3374, 36.9795], [-122.2747, 36.9358], [-122.2053, 36.8989], [-122.1304, 36.8696], [-122.0514, 36.8482], [-121.9696, 36.8353], [-121.8863, 36.831], [-121.803, 36.8353], [-121.7212, 36.8482], [-121.6422, 36.8696], [-121.5673, 36.8989], [-121.4979, 36.9358], [-121.4352, 36.9795], [-121.3801, 37.0294], [-121.3338, 37.0846], [-121.2969, 37.1441], [-121.27, 37.2069], [-121.2538, 37.272], [-121.2483, 37.3382]]]}}, {"type": "Feature", "properties": {"NAME": "Charlotte-Concord"}, "geometry": {"type": "Polygon", "coordinates": [[[-80.1334, 35.2271], [-80.1395, 35.3028], [-80.1576, 35.3771], [-80.1874, 35.4489], [-80.2285, 35.517], [-80.2801, 35.58], [-80.3413, 35.637], [-80.4111, 35.687], [-80.4883, 35.7291], [-80.5715, 35.7627], [-80.6594, 35.7871], [-80.7505, 35.8019], [-80.8431, 35.8068], [-80.9357, 35.8019], [-81.0268, 35.7871], [-81.1147, 35.7627], [-81.1979, 35.7291], [-81.2751, 35.687], [-81.3449, 35.637], [-81.4061, 35.58], [-81.4577, 35.517], [-81.4988, 35.4489], [-81.5286, 35.3771], [-81.5467, 35.3028], [-81.5528, 35.2271], [-81.5467, 35.1514], [-81.5286, 35.0771], [-81.4988, 35.0053], [-81.4577, 34.9372], [-81.4061, 34.8742], [-81.3449, 34.8172], [-81.2751, 34.7672], [-81.1979, 34.7251], [-81.1147, 34.6915], [-81.0268, 34.6671], [-80.9357, 34.6523], [-80.8431, 34.6474], [-80.7505, 34.6523], [-80.6594, 34.6671], [-80.5715, 34.6915], [-80.4883, 34.7251], [-80.4111, 34.7672], [-80.3413, 34.8172], [-80.2801, 34.8742], [-80.2285, 34.9372], [-80.1874, 35.0053], [-80.1576, 35.0771], [-80.1395, 35.1514], [-80.1334, 35.2271]]]}}, {"type": "Feature", "properties": {"NAME": "Virginia Beach-Norfolk"}, "geometry": {"type": "Polygon", "coordinates": [[[-75.2535, 36.8529], [-75.2597, 36.9286], [-75.2782, 37.0029], [-75.3087, 37.0747], [-75.3506, 37.1428], [-75.4032, 37.2058], [-75.4657, 37.2628], [-75.537, 37.3128], [-75.6158, 37.3549], [-75.7008, 37.3885], [-75.7905, 37.4129], [-75.8834, 37.4277], [-75.978, 37.4326], [-76.0726, 37.4277], [-76.1655, 37.4129], [-76.2552, 37.3885], [-76.3402, 37.3549], [-76.419, 37.3128], [-76.4903, 37.2628], [-76.5528, 37.2058], [-76.6054, 37.1428], [-76.6473, 37.0747], [-76.6778, 37.0029], [-76.6963, 36.9286], [-76.7025, 36.8529], [-76.6963, 36.7772], [-76.6778, 36.7029], [-76.6473, 36.6311], [-76.6054, 36.563], [-76.5528, 36.5], [-76.4903, 36.443], [-76.419, 36.393], [-76.3402, 36.3509], [-76.2552, 36.3173], [-76.1655, 36.2929], [-76.0726, 36.2781], [-75.978, 36.2732], [-75.8834, 36.2781], [-75.7905, 36.2929], [-75.7008, 36.3173], [-75.6158, 36.3509], [-75.537, 36.393], [-75.4657, 36.443], [-75.4032, 36.5], [-75.3506, 36.563], [-75.3087, 36.6311], [-75.2782, 36.7029], [-75.2597, 36.7772], [-75.2535, 36.8529]]]}}, {"type": "Feature", "properties": {"NAME": "Nashville-Davidson"}, "geometry": {"type": "Polygon", "coordinates": [[[-86.0636, 36.1627], [-86.0697, 36.2384], [-86.088, 36.3127], [-86.1182, 36.3845], [-86.1598, 36.4526], [-86.2119, 36.5156], [-86.2739, 36.5726], [-86.3445, 36.6226], [-86.4226, 36.6647], [-86.5068, 36.6983], [-86.5958, 36.7227], [-86.6879, 36.7375], [-86.7816, 36.7424], [-86.8753, 36.7375], [-86.9674, 36.7227], [-87.0564, 36.6983], [-87.1406, 36.6647], [-87.2187, 36.6226], [-87.2893, 36.5726], [-87.3513, 36.5156], [-87.4034, 36.4526], [-87.445, 36.3845], [-87.4752, 36.3127], [-87.4935, 36.2384], [-87.4996, 36.1627], [-87.4935, 36.087], [-87.4752, 36.0127], [-87.445, 35.9409], [-87.4034, 35.8728], [-87.3513, 35.8098], [-87.2893, 35.7528], [-87.2187, 35.7028], [-87.1406, 35.6607], [-87.0564, 35.6271], [-86.9674, 35.6027], [-86.8753, 35.5879], [-86.7816, 35.583], [-86.6879, 35.5879], [-86.5958, 35.6027], [-86.5068, 35.6271], [-86.4226, 35.6607], [-86.3445, 35.7028], [-86.2739, 35.7528], [-86.2119, 35.8098], [-86.1598, 35.8728], [-86.1182, 35.9409], [-86.088, 36.0127], [-86.0697, 36.087], [-86.0636, 36.1627]]]}}, {"type": "Feature", "properties": {"NAME": "Providence-Warwick"}, "geometry": {"type": "Polygon", "coordinates": [[[-70.8294, 41.824], [-70.8343, 41.8808], [-70.8492, 41.9365], [-70.8738, 41.9904], [-70.9075, 42.0414], [-70.9499, 42.0887], [-71.0002, 42.1314], [-71.0576, 42.1689], [-71.1211, 42.2005], [-71.1895, 42.2257], [-71.2618, 42.244], [-71.3366, 42.2551], [-71.4128, 42.2588], [-71.489, 42.2551], [-71.5638, 42.244], [-71.6361, 42.2257], [-71.7045, 42.2005], [-71.768, 42.1689], [-71.8254, 42.1314], [-71.8757, 42.0887], [-71.9181, 42.0414], [-71.9518, 41.9904], [-71.9764, 41.9365], [-71.9913, 41.8808], [-71.9962, 41.824], [-71.9913, 41.7672], [-71.9764, 41.7115], [-71.9518, 41.6576], [-71.9181, 41.6066], [-71.8757, 41.5593], [-71.8254, 41.5166], [-71.768, 41.4791], [-71.7045, 41.4475], [-71.6361, 41.4223], [-71.5638, 41.404], [-71.489, 41.3929], [-71.4128, 41.3892], [-71.3366, 41.3929], [-71.2618, 41.404], [-71.1895, 41.4223], [-71.1211, 41.4475], [-71.0576, 41.4791], [-71.0002, 41.5166], [-70.9499, 41.5593], [-70.9075, 41.6066], [-70.8738, 41.6576], [-70.8492, 41.7115], [-70.8343, 41.7672], [-70.8294, 41.824]]]}}, {"type": "Feature", "properties": {"NAME": "Jacksonville"}, "geometry": {"type": "Polygon", "coordinates": [[[-81.068, 30.3322], [-81.073, 30.3984], [-81.088, 30.4635], [-81.1127, 30.5263], [-81.1467, 30.5858], [-81.1895, 30.641], [-81.2401, 30.6909], [-81.2979, 30.7346], [-81.3619, 30.7715], [-81.4308, 30.8008], [-81.5036, 30.8222], [-81.579, 30.8351], [-81.6557, 30.8394], [-81.7324, 30.8351], [-81.8078, 30.8222], [-81.8806, 30.8008], [-81.9495, 30.7715], [-82.0135, 30.7346], [-82.0713, 30.6909], [-82.1219, 30.641], [-82.1647, 30.5858], [-82.1987, 30.5263], [-82.2234, 30.4635], [-82.2384, 30.3984], [-82.2434, 30.3322], [-82.2384, 30.266], [-82.2234, 30.2009], [-82.1987, 30.1381], [-82.1647, 30.0786], [-82.1219, 30.0234], [-82.0713, 29.9735], [-82.0135, 29.9298], [-81.9495, 29.8929], [-81.8806, 29.8636], [-81.8078, 29.8422], [-81.7324, 29.8293], [-81.6557, 29.825], [-81.579, 29.8293], [-81.5036, 29.8422], [-81.4308, 29.8636], [-81.3619, 29.8929], [-81.2979, 29.9298], [-81.2401, 29.9735], [-81.1895, 30.0234], [-81.1467, 30.0786], [-81.1127, 30.1381], [-81.088, 30.2009], [-81.073, 30.266], [-81.068, 30.3322]]]}}, {"type": "Feature", "properties": {"NAME": "Milwaukee-Waukesha"}, "geometry": {"type": "Polygon", "coordinates": [[[-87.3426, 43.0389], [-87.3485, 43.1051], [-87.3662, 43.1702], [-87.3954, 43.233], [-87.4356, 43.2925], [-87.486, 43.3477], [-87.5459, 43.3976], [-87.6141, 43.4413], [-87.6896, 43.4782], [-87.771, 43.5075], [-87.857, 43.5289], [-87.946, 43.5418], [-88.0366, 43.5461], [-88.1272, 43.5418], [-88.2162, 43.5289], [-88.3022, 43.5075], [-88.3836, 43.4782], [-88.4591, 43.4413], [-88.5273, 43.3976], [-88.5872, 43.3477], [-88.6376, 43.2925], [-88.6778, 43.233], [-88.707, 43.1702], [-88.7247, 43.1051], [-88.7306, 43.0389], [-88.7247, 42.9727], [-88.707, 42.9076], [-88.6778, 42.8448], [-88.6376, 42.7853], [-88.5872, 42.7301], [-88.5273, 42.6802], [-88.4591, 42.6365], [-88.3836, 42.5996], [-88.3022, 42.5703], [-88.2162, 42.5489], [-88.1272, 42.536], [-88.0366, 42.5317], [-87.946, 42.536], [-87.857, 42.5489], [-87.771, 42.5703], [-87.6896, 42.5996], [-87.6141, 42.6365], [-87.5459, 42.6802], [-87.486, 42.7301], [-87.4356, 42.7853], [-87.3954, 42.8448], [-87.3662, 42.9076], [-87.3485, 42.9727], [-87.3426, 43.0389]]]}}, {"type": "Feature", "properties": {"NAME": "Oklahoma City"}, "geometry": {"type": "Polygon", "coordinates": [[[-96.8936, 35.4676], [-96.8989, 35.5338], [-96.9148, 35.5989], [-96.941, 35.6617], [-96.977, 35.7212], [-97.0223, 35.7764], [-97.076, 35.8263], [-97.1373, 35.87], [-97.205, 35.9069], [-97.2781, 35.9362], [-97.3552, 35.9576], [-97.4351, 35.9705], [-97.5164, 35.9748], [-97.5977, 35.9705], [-97.6776, 35.9576], [-97.7547, 35.9362], [-97.8278, 35.9069], [-97.8955, 35.87], [-97.9568, 35.8263], [-98.0105, 35.7764], [-98.0558, 35.7212], [-98.0918, 35.6617], [-98.118, 35.5989], [-98.1339, 35.5338], [-98.1392, 35.4676], [-98.1339, 35.4014], [-98.118, 35.3363], [-98.0918, 35.2735], [-98.0558, 35.214], [-98.0105, 35.1588], [-97.9568, 35.1089], [-97.8955, 35.0652], [-97.8278, 35.0283], [-97.7547, 34.999], [-97.6776, 34.9776], [-97.5977, 34.9647], [-97.5164, 34.9604], [-97.4351, 34.9647], [-97.3552, 34.9776], [-97.2781, 34.999], [-97.205, 35.0283], [-97.1373, 35.0652], [-97.076, 35.1089], [-97.0223, 35.1588], [-96.977, 35.214], [-96.941, 35.2735], [-96.9148, 35.3363], [-96.8989, 35.4014], [-96.8936, 35.4676]]]}}, {"type": "Feature", "properties": {"NAME": "Raleigh-Cary"}, "geometry": {"type": "Polygon", "coordinates": [[[-78.013, 35.7796], [-78.0183, 35.8458], [-78.0343, 35.9109], [-78.0605, 35.9737], [-78.0967, 36.0332], [-78.1422, 36.0884], [-78.1961, 36.1383], [-78.2576, 36.182], [-78.3256, 36.2189], [-78.3989, 36.2482], [-78.4764, 36.2696], [-78.5566, 36.2825], [-78.6382, 36.2868], [-78.7198, 36.2825], [-78.8, 36.2696], [-78.8775, 36.2482], [-78.9508, 36.2189], [-79.0188, 36.182], [-79.0803, 36.1383], [-79.1342, 36.0884], [-79.1797, 36.0332], [-79.2159, 35.9737], [-79.2421, 35.9109], [-79.2581, 35.8458], [-79.2634, 35.7796], [-79.2581, 35.7134], [-79.2421, 35.6483], [-79.2159, 35.5855], [-79.1797, 35.526], [-79.1342, 35.4708], [-79.0803, 35.4209], [-79.0188, 35.3772], [-78.9508, 35.3403], [-78.8775, 35.311], [-78.8, 35.2896], [-78.7198, 35.2767], [-78.6382, 35.2724], [-78.5566, 35.2767], [-78.4764, 35.2896], [-78.3989, 35.311], [-78.3256, 35.3403], [-78.2576, 35.3772], [-78.1961, 35.4209], [-78.1422, 35.4708], [-78.0967, 35.526], [-78.0605, 35.5855], [-78.0343, 35.6483], [-78.0183, 35.7134], [-78.013, 35.7796]]]}}, {"type": "Feature", "properties": {"NAME": "Memphis"}, "geometry": {"type": "Polygon", "coordinates": [[[-89.4286, 35.1495], [-89.4339, 35.2157], [-89.4498, 35.2808], [-89.4759, 35.3436], [-89.5117, 35.4031], [-89.5568, 35.4583], [-89.6103, 35.5082], [-89.6713, 35.5519], [-89.7388, 35.5888], [-89.8116, 35.6181], [-89.8884, 35.6395], [-89.968, 35.6524], [-90.049, 35.6567], [-90.13, 35.6524], [-90.2096, 35.6395], [-90.2864, 35.6181], [-90.3592, 35.5888], [-90.4267, 35.5519], [-90.4877, 35.5082], [-90.5412, 35.4583], [-90.5863, 35.4031], [-90.6221, 35.3436], [-90.6482, 35.2808], [-90.6641, 35.2157], [-90.6694, 35.1495], [-90.6641, 35.0833], [-90.6482, 35.0182], [-90.6221, 34.9554], [-90.5863, 34.8959], [-90.5412, 34.8407], [-90.4877, 34.7908], [-90.4267, 34.7471], [-90.3592, 34.7102], [-90.2864, 34.6809], [-90.2096, 34.6595], [-90.13, 34.6466], [-90.049, 34.6423], [-89.968, 34.6466], [-89.8884, 34.6595], [-89.8116, 34.6809], [-89.7388, 34.7102], [-89.6713, 34.7471], [-89.6103, 34.7908], [-89.5568, 34.8407], [-89.5117, 34.8959], [-89.4759, 34.9554], [-89.4498, 35.0182], [-89.4339, 35.0833], [-89.4286, 35.1495]]]}}, {"type": "Feature", "properties": {"NAME": "Richmond"}, "geometry": {"type": "Polygon", "coordinates": [[[-76.8877, 37.5407], [-76.8924, 37.5975], [-76.9064, 37.6532], [-76.9294, 37.7071], [-76.9611, 37.7581], [-77.001, 37.8054], [-77.0483, 37.8481], [-77.1022, 37.8856], [-77.1618, 37.9172], [-77.2262, 37.9424], [-77.2941, 37.9607], [-77.3644, 37.9718], [-77.436, 37.9755], [-77.5076, 37.9718], [-77.5779, 37.9607], [-77.6458, 37.9424], [-77.7102, 37.9172], [-77.7698, 37.8856], [-77.8237, 37.8481], [-77.871, 37.8054], [-77.9109, 37.7581], [-77.9426, 37.7071], [-77.9656, 37.6532], [-77.9796, 37.5975], [-77.9843, 37.5407], [-77.9796, 37.4839], [-77.9656, 37.4282], [-77.9426, 37.3743], [-77.9109, 37.3233], [-77.871, 37.276], [-77.8237, 37.2333], [-77.7698, 37.1958], [-77.7102, 37.1642], [-77.6458, 37.139], [-77.5779, 37.1207], [-77.5076, 37.1096], [-77.436, 37.1059], [-77.3644, 37.1096], [-77.2941, 37.1207], [-77.2262, 37.139], [-77.1618, 37.1642], [-77.1022, 37.1958], [-77.0483, 37.2333], [-77.001, 37.276], [-76.9611, 37.3233], [-76.9294, 37.3743], [-76.9064, 37.4282], [-76.8924, 37.4839], [-76.8877, 37.5407]]]}}, {"type": "Feature", "properties": {"NAME": "Louisville-Jefferson"}, "geometry": {"type": "Polygon", "coordinates": [[[-85.2048, 38.2527], [-85.2096, 38.3095], [-85.2237, 38.3652], [-85.247, 38.4191], [-85.279, 38.4701], [-85.3193, 38.5174], [-85.367, 38.5601], [-85.4215, 38.5976], [-85.4817, 38.6292], [-85.5466, 38.6544], [-85.6152, 38.6727], [-85.6862, 38.6838], [-85.7585, 38.6875], [-85.8308, 38.6838], [-85.9018, 38.6727], [-85.9704, 38.6544], [-86.0353, 38.6292], [-86.0955, 38.5976], [-86.15, 38.5601], [-86.1977, 38.5174], [-86.238, 38.4701], [-86.27, 38.4191], [-86.2933, 38.3652], [-86.3074, 38.3095], [-86.3122, 38.2527], [-86.3074, 38.1959], [-86.2933, 38.1402], [-86.27, 38.0863], [-86.238, 38.0353], [-86.1977, 37.988], [-86.15, 37.9453], [-86.0955, 37.9078], [-86.0353, 37.8762], [-85.9704, 37.851], [-85.9018, 37.8327], [-85.8308, 37.8216], [-85.7585, 37.8179], [-85.6862, 37.8216], [-85.6152, 37.8327], [-85.5466, 37.851], [-85.4817, 37.8762], [-85.4215, 37.9078], [-85.367, 37.9453], [-85.3193, 37.988], [-85.279, 38.0353], [-85.247, 38.0863], [-85.2237, 38.1402], [-85.2096, 38.1959], [-85.2048, 38.2527]]]}}, {"type": "Feature", "properties": {"NAME": "New Orleans-Metairie"}, "geometry": {"type": "Polygon", "coordinates": [[[-89.4861, 29.9511], [-89.4911, 30.0173], [-89.506, 30.0824], [-89.5306, 30.1452], [-89.5645, 30.2047], [-89.607, 30.2599], [-89.6575, 30.3098], [-89.7151, 30.3535], [-89.7788, 30.3904], [-89.8475, 30.4197], [-89.92, 30.4411], [-89.9951, 30.454], [-90.0715, 30.4583], [-90.1479, 30.454], [-90.223, 30.4411], [-90.2955, 30.4197], [-90.3642, 30.3904], [-90.4279, 30.3535], [-90.4855, 30.3098], [-90.536, 30.2599], [-90.5785, 30.2047], [-90.6124, 30.1452], [-90.637, 30.0824], [-90.6519, 30.0173], [-90.6569, 29.9511], [-90.6519, 29.8849], [-90.637, 29.8198], [-90.6124, 29.757], [-90.5785, 29.6975], [-90.536, 29.6423], [-90.4855, 29.5924], [-90.4279, 29.5487], [-90.3642, 29.5118], [-90.2955, 29.4825], [-90.223, 29.4611], [-90.1479, 29.4482], [-90.0715, 29.4439], [-89.9951, 29.4482], [-89.92, 29.4611], [-89.8475, 29.4825], [-89.7788, 29.5118], [-89.7151, 29.5487], [-89.6575, 29.5924], [-89.607, 29.6423], [-89.5645, 29.6975], [-89.5306, 29.757], [-89.506, 29.8198], [-89.4911, 29.8849], [-89.4861, 29.9511]]]}}, {"type": "Feature", "properties": {"NAME": "Salt Lake City"}, "geometry": {"type": "Polygon", "coordinates": [[[-111.2213, 40.7608], [-111.227, 40.827], [-111.2441, 40.8921], [-111.2723, 40.9549], [-111.311, 41.0144], [-111.3597, 41.0696], [-111.4175, 41.1195], [-111.4833, 41.1632], [-111.5562, 41.2001], [-111.6347, 41.2294], [-111.7177, 41.2508], [-111.8036, 41.2637], [-111.891, 41.268], [-111.9784, 41.2637], [-112.0643, 41.2508], [-112.1473, 41.2294], [-112.2258, 41.2001], [-112.2987, 41.1632], [-112.3645, 41.1195], [-112.4223, 41.0696], [-112.471, 41.0144], [-112.5097, 40.9549], [-112.5379, 40.8921], [-112.555, 40.827], [-112.5607, 40.7608], [-112.555, 40.6946], [-112.5379, 40.6295], [-112.5097, 40.5667], [-112.471, 40.5072], [-112.4223, 40.452], [-112.3645, 40.4021], [-112.2987, 40.3584], [-112.2258, 40.3215], [-112.1473, 40.2922], [-112.0643, 40.2708], [-111.9784, 40.2579], [-111.891, 40.2536], [-111.8036, 40.2579], [-111.7177, 40.2708], [-111.6347, 40.2922], [-111.5562, 40.3215], [-111.4833, 40.3584], [-111.4175, 40.4021], [-111.3597, 40.452], [-111.311, 40.5072], [-111.2723, 40.5667], [-111.2441, 40.6295], [-111.227, 40.6946], [-111.2213, 40.7608]]]}}, {"type": "Feature", "properties": {"NAME": "Hartford-East Hartford"}, "geometry": {"type": "Polygon", "coordinates": [[[-72.1022, 41.7658], [-72.1072, 41.8226], [-72.122, 41.8783], [-72.1466, 41.9322], [-72.1803, 41.9832], [-72.2226, 42.0305], [-72.2729, 42.0732], [-72.3302, 42.1107], [-72.3936, 42.1423], [-72.462, 42.1675], [-72.5342, 42.1858], [-72.609, 42.1969], [-72.6851, 42.2006], [-72.7612, 42.1969], [-72.836, 42.1858], [-72.9082, 42.1675], [-72.9766, 42.1423], [-73.04, 42.1107], [-73.0973, 42.0732], [-73.1476, 42.0305], [-73.1899, 41.9832], [-73.2236, 41.9322], [-73.2482, 41.8783], [-73.263, 41.8226], [-73.268, 41.7658], [-73.263, 41.709], [-73.2482, 41.6533], [-73.2236, 41.5994], [-73.1899, 41.5484], [-73.1476, 41.5011], [-73.0973, 41.4584], [-73.04, 41.4209], [-72.9766, 41.3893], [-72.9082, 41.3641], [-72.836, 41.3458], [-72.7612, 41.3347], [-72.6851, 41.331], [-72.609, 41.3347], [-72.5342, 41.3458], [-72.462, 41.3641], [-72.3936, 41.3893], [-72.3302, 41.4209], [-72.2729, 41.4584], [-72.2226, 41.5011], [-72.1803, 41.5484], [-72.1466, 41.5994], [-72.122, 41.6533], [-72.1072, 41.709], [-72.1022, 41.7658]]]}}, {"type": "Feature", "properties": {"NAME": "Buffalo-Cheektowaga"}, "geometry": {"type": "Polygon", "coordinates": [[[-78.285, 42.8864], [-78.2901, 42.9432], [-78.3052, 42.9989], [-78.3302, 43.0528], [-78.3645, 43.1038], [-78.4076, 43.1511], [-78.4588, 43.1938], [-78.5172, 43.2313], [-78.5817, 43.2629], [-78.6513, 43.2881], [-78.7248, 43.3064], [-78.8009, 43.3175], [-78.8784, 43.3212], [-78.9559, 43.3175], [-79.032, 43.3064], [-79.1055, 43.2881], [-79.1751, 43.2629], [-79.2396, 43.2313], [-79.298, 43.1938], [-79.3492, 43.1511], [-79.3923, 43.1038], [-79.4266, 43.0528], [-79.4516, 42.9989], [-79.4667, 42.9432], [-79.4718, 42.8864], [-79.4667, 42.8296], [-79.4516, 42.7739], [-79.4266, 42.72], [-79.3923, 42.669], [-79.3492, 42.6217], [-79.298, 42.579], [-79.2396, 42.5415], [-79.1751, 42.5099], [-79.1055, 42.4847], [-79.032, 42.4664], [-78.9559, 42.4553], [-78.8784, 42.4516], [-78.8009, 42.4553], [-78.7248, 42.4664], [-78.6513, 42.4847], [-78.5817, 42.5099], [-78.5172, 42.5415], [-78.4588, 42.579], [-78.4076, 42.6217], [-78.3645, 42.669], [-78.3302, 42.72], [-78.3052, 42.7739], [-78.2901, 42.8296], [-78.285, 42.8864]]]}}, {"type": "Feature", "properties": {"NAME": "Birmingham-Hoover"}, "geometry": {"type": "Polygon", "coordinates": [[[-86.281, 33.5207], [-86.2854, 33.5775], [-86.2988, 33.6332], [-86.3207, 33.6871], [-86.3509, 33.7381], [-86.3888, 33.7854], [-86.4337, 33.8281], [-86.485, 33.8656], [-86.5417, 33.8972], [-86.6029, 33.9224], [-86.6675, 33.9407], [-86.7344, 33.9518], [-86.8025, 33.9555], [-86.8706, 33.9518], [-86.9375, 33.9407], [-87.0021, 33.9224], [-87.0633, 33.8972], [-87.12, 33.8656], [-87.1713, 33.8281], [-87.2162, 33.7854], [-87.2541, 33.7381], [-87.2843, 33.6871], [-87.3062, 33.6332], [-87.3196, 33.5775], [-87.324, 33.5207], [-87.3196, 33.4639], [-87.3062, 33.4082], [-87.2843, 33.3543], [-87.2541, 33.3033], [-87.2162, 33.256], [-87.1713, 33.2133], [-87.12, 33.1758], [-87.0633, 33.1442], [-87.0021, 33.119], [-86.9375, 33.1007], [-86.8706, 33.0896], [-86.8025, 33.0859], [-86.7344, 33.0896], [-86.6675, 33.1007], [-86.6029, 33.119], [-86.5417, 33.1442], [-86.485, 33.1758], [-86.4337, 33.2133], [-86.3888, 33.256], [-86.3509, 33.3033], [-86.3207, 33.3543], [-86.2988, 33.4082], [-86.2854, 33.4639], [-86.281, 33.5207]]]}}, {"type": "Feature", "properties": {"NAME": "Rochester"}, "geometry": {"type": "Polygon", "coordinates": [[[-77.0525, 43.1566], [-77.0573, 43.2096], [-77.0715, 43.2616], [-77.0949, 43.3119], [-77.127, 43.3595], [-77.1675, 43.4036], [-77.2155, 43.4435], [-77.2702, 43.4785], [-77.3307, 43.508], [-77.3959, 43.5315], [-77.4648, 43.5486], [-77.5362, 43.5589], [-77.6088, 43.5624], [-77.6814, 43.5589], [-77.7528, 43.5486], [-77.8217, 43.5315], [-77.8869, 43.508], [-77.9474, 43.4785], [-78.0021, 43.4435], [-78.0501, 43.4036], [-78.0906, 43.3595], [-78.1227, 43.3119], [-78.1461, 43.2616], [-78.1603, 43.2096], [-78.1651, 43.1566], [-78.1603, 43.1036], [-78.1461, 43.0516], [-78.1227, 43.0013], [-78.0906, 42.9537], [-78.0501, 42.9096], [-78.0021, 42.8697], [-77.9474, 42.8347], [-77.8869, 42.8052], [-77.8217, 42.7817], [-77.7528, 42.7646], [-77.6814, 42.7543], [-77.6088, 42.7508], [-77.5362, 42.7543], [-77.4648, 42.7646], [-77.3959, 42.7817], [-77.3307, 42.8052], [-77.2702, 42.8347], [-77.2155, 42.8697], [-77.1675, 42.9096], [-77.127, 42.9537], [-77.0949, 43.0013], [-77.0715, 43.0516], [-77.0573, 43.1036], [-77.0525, 43.1566]]]}}, {"type": "Feature", "properties": {"NAME": "Tucson"}, "geometry": {"type": "Polygon", "coordinates": [[[-110.4608, 32.2226], [-110.4652, 32.2794], [-110.4783, 32.3351], [-110.4999, 32.389], [-110.5296, 32.44], [-110.567, 32.4873], [-110.6113, 32.53], [-110.6618, 32.5675], [-110.7177, 32.5991], [-110.778, 32.6243], [-110.8417, 32.6426], [-110.9076, 32.6537], [-110.9747, 32.6574], [-111.0418, 32.6537], [-111.1077, 32.6426], [-111.1714, 32.6243], [-111.2317, 32.5991], [-111.2876, 32.5675], [-111.3381, 32.53], [-111.3824, 32.4873], [-111.4198, 32.44], [-111.4495, 32.389], [-111.4711, 32.3351], [-111.4842, 32.2794], [-111.4886, 32.2226], [-111.4842, 32.1658], [-111.4711, 32.1101], [-111.4495, 32.0562], [-111.4198, 32.0052], [-111.3824, 31.9579], [-111.3381, 31.9152], [-111.2876, 31.8777], [-111.2317, 31.8461], [-111.1714, 31.8209], [-111.1077, 31.8026], [-111.0418, 31.7915], [-110.9747, 31.7878], [-110.9076, 31.7915], [-110.8417, 31.8026], [-110.778, 31.8209], [-110.7177, 31.8461], [-110.6618, 31.8777], [-110.6113, 31.9152], [-110.567, 31.9579], [-110.5296, 32.0052], [-110.4999, 32.0562], [-110.4783, 32.1101], [-110.4652, 32.1658], [-110.4608, 32.2226]]]}}, {"type": "Feature", "properties": {"NAME": "Fresno"}, "geometry": {"type": "Polygon", "coordinates": [[[-119.2807, 36.7378], [-119.2851, 36.7908], [-119.298, 36.8428], [-119.3193, 36.8931], [-119.3486, 36.9407], [-119.3854, 36.9848], [-119.429, 37.0247], [-119.4788, 37.0597], [-119.5339, 37.0892], [-119.5933, 37.1127], [-119.656, 37.1298], [-119.721, 37.1401], [-119.7871, 37.1436], [-119.8532, 37.1401], [-119.9182, 37.1298], [-119.9809, 37.1127], [-120.0403, 37.0892], [-120.0954, 37.0597], [-120.1452, 37.0247], [-120.1888, 36.9848], [-120.2256, 36.9407], [-120.2549, 36.8931], [-120.2762, 36.8428], [-120.2891, 36.7908], [-120.2935, 36.7378], [-120.2891, 36.6848], [-120.2762, 36.6328], [-120.2549, 36.5825], [-120.2256, 36.5349], [-120.1888, 36.4908], [-120.1452, 36.4509], [-120.0954, 36.4159], [-120.0403, 36.3864], [-119.9809, 36.3629], [-119.9182, 36.3458], [-119.8532, 36.3355], [-119.7871, 36.332], [-119.721, 36.3355], [-119.656, 36.3458], [-119.5933, 36.3629], [-119.5339, 36.3864], [-119.4788, 36.4159], [-119.429, 36.4509], [-119.3854, 36.4908], [-119.3486, 36.5349], [-119.3193, 36.5825], [-119.298, 36.6328], [-119.2851, 36.6848], [-119.2807, 36.7378]]]}}, {"type": "Feature", "properties": {"NAME": "Grand Rapids-Kentwood"}, "geometry": {"type": "Polygon", "coordinates": [[[-85.1136, 42.9634], [-85.1183, 43.0164], [-85.1325, 43.0684], [-85.1558, 43.1187], [-85.1879, 43.1663], [-85.2282, 43.2104], [-85.276, 43.2503], [-85.3305, 43.2853], [-85.3908, 43.3148], [-85.4559, 43.3383], [-85.5246, 43.3554], [-85.5957, 43.3657], [-85.6681, 43.3692], [-85.7405, 43.3657], [-85.8116, 43.3554], [-85.8803, 43.3383], [-85.9454, 43.3148], [-86.0057, 43.2853], [-86.0602, 43.2503], [-86.108, 43.2104], [-86.1483, 43.1663], [-86.1804, 43.1187], [-86.2037, 43.0684], [-86.2179, 43.0164], [-86.2226, 42.9634], [-86.2179, 42.9104], [-86.2037, 42.8584], [-86.1804, 42.8081], [-86.1483, 42.7605], [-86.108, 42.7164], [-86.0602, 42.6765], [-86.0057, 42.6415], [-85.9454, 42.612], [-85.8803, 42.5885], [-85.8116, 42.5714], [-85.7405, 42.5611], [-85.6681, 42.5576], [-85.5957, 42.5611], [-85.5246, 42.5714], [-85.4559, 42.5885], [-85.3908, 42.612], [-85.3305, 42.6415], [-85.276, 42.6765], [-85.2282, 42.7164], [-85.1879, 42.7605], [-85.1558, 42.8081], [-85.1325, 42.8584], [-85.1183, 42.9104], [-85.1136, 42.9634]]]}}, {"type": "Feature", "properties": {"NAME": "Omaha-Council Bluffs"}, "geometry": {"type": "Polygon", "coordinates": [[[-95.4686, 41.2553], [-95.4732, 41.3083], [-95.487, 41.3603], [-95.5097, 41.4106], [-95.5409, 41.4582], [-95.5802, 41.5023], [-95.6267, 41.5422], [-95.6798, 41.5772], [-95.7385, 41.6067], [-95.8018, 41.6302], [-95.8687, 41.6473], [-95.9379, 41.6576], [-96.0084, 41.6611], [-96.0789, 41.6576], [-96.1481, 41.6473], [-96.215, 41.6302], [-96.2783, 41.6067], [-96.337, 41.5772], [-96.3901, 41.5422], [-96.4366, 41.5023], [-96.4759, 41.4582], [-96.5071, 41.4106], [-96.5298, 41.3603], [-96.5436, 41.3083], [-96.5482, 41.2553], [-96.5436, 41.2023], [-96.5298, 41.1503], [-96.5071, 41.1], [-96.4759, 41.0524], [-96.4366, 41.0083], [-96.3901, 40.9684], [-96.337, 40.9334], [-96.2783, 40.9039], [-96.215, 40.8804], [-96.1481, 40.8633], [-96.0789, 40.853], [-96.0084, 40.8495], [-95.9379, 40.853], [-95.8687, 40.8633], [-95.8018, 40.8804], [-95.7385, 40.9039], [-95.6798, 40.9334], [-95.6267, 40.9684], [-95.5802, 41.0083], [-95.5409, 41.0524], [-95.5097, 41.1], [-95.487, 41.1503], [-95.4732, 41.2023], [-95.4686, 41.2553]]]}}, {"type": "Feature", "properties": {"NAME": "Albuquerque"}, "geometry": {"type": "Polygon", "coordinates": [[[-106.1545, 35.0844], [-106.1587, 35.1374], [-106.1714, 35.1894], [-106.1922, 35.2397], [-106.2209, 35.2873], [-106.257, 35.3314], [-106.2997, 35.3713], [-106.3485, 35.4063], [-106.4025, 35.4358], [-106.4606, 35.4593], [-106.5221, 35.4764], [-106.5857, 35.4867], [-106.6504, 35.4902], [-106.7151, 35.4867], [-106.7787, 35.4764], [-106.8402, 35.4593], [-106.8983, 35.4358], [-106.9523, 35.4063], [-107.0011, 35.3713], [-107.0438, 35.3314], [-107.0799, 35.2873], [-107.1086, 35.2397], [-107.1294, 35.1894], [-107.1421, 35.1374], [-107.1463, 35.0844], [-107.1421, 35.0314], [-107.1294, 34.9794], [-107.1086, 34.9291], [-107.0799, 34.8815], [-107.0438, 34.8374], [-107.0011, 34.7975], [-106.9523, 34.7625], [-106.8983, 34.733], [-106.8402, 34.7095], [-106.7787, 34.6924], [-106.7151, 34.6821], [-106.6504, 34.6786], [-106.5857, 34.6821], [-106.5221, 34.6924], [-106.4606, 34.7095], [-106.4025, 34.733], [-106.3485, 34.7625], [-106.2997, 34.7975], [-106.257, 34.8374], [-106.2209, 34.8815], [-106.1922, 34.9291], [-106.1714, 34.9794], [-106.1587, 35.0314], [-106.1545, 35.0844]]]}}, {"type": "Feature", "properties": {"NAME": "Bakersfield"}, "geometry": {"type": "Polygon", "coordinates": [[[-118.5744, 35.3733], [-118.5782, 35.4206], [-118.5895, 35.4671], [-118.6082, 35.512], [-118.6339, 35.5545], [-118.6662, 35.5939], [-118.7045, 35.6295], [-118.7482, 35.6607], [-118.7965, 35.6871], [-118.8487, 35.708], [-118.9037, 35.7233], [-118.9607, 35.7325], [-119.0187, 35.7356], [-119.0767, 35.7325], [-119.1337, 35.7233], [-119.1887, 35.708], [-119.2409, 35.6871], [-119.2892, 35.6607], [-119.3329, 35.6295], [-119.3712, 35.5939], [-119.4035, 35.5545], [-119.4292, 35.512], [-119.4479, 35.4671], [-119.4592, 35.4206], [-119.463, 35.3733], [-119.4592, 35.326], [-119.4479, 35.2795], [-119.4292, 35.2346], [-119.4035, 35.1921], [-119.3712, 35.1527], [-119.3329, 35.1171], [-119.2892, 35.0859], [-119.2409, 35.0595], [-119.1887, 35.0386], [-119.1337, 35.0233], [-119.0767, 35.0141], [-119.0187, 35.011], [-118.9607, 35.0141], [-118.9037, 35.0233], [-118.8487, 35.0386], [-118.7965, 35.0595], [-118.7482, 35.0859], [-118.7045, 35.1171], [-118.6662, 35.1527], [-118.6339, 35.1921], [-118.6082, 35.2346], [-118.5895, 35.2795], [-118.5782, 35.326], [-118.5744, 35.3733]]]}}, {"type": "Feature", "properties": {"NAME": "Knoxville"}, "geometry": {"type": "Polygon", "coordinates": [[[-83.4731, 35.9606], [-83.4769, 36.0079], [-83.4883, 36.0544], [-83.5071, 36.0993], [-83.533, 36.1418], [-83.5656, 36.1812], [-83.6042, 36.2168], [-83.6482, 36.248], [-83.6969, 36.2744], [-83.7494, 36.2953], [-83.8048, 36.3106], [-83.8623, 36.3198], [-83.9207, 36.3229], [-83.9791, 36.3198], [-84.0366, 36.3106], [-84.092, 36.2953], [-84.1445, 36.2744], [-84.1932, 36.248], [-84.2372, 36.2168], [-84.2758, 36.1812], [-84.3084, 36.1418], [-84.3343, 36.0993], [-84.3531, 36.0544], [-84.3645, 36.0079], [-84.3683, 35.9606], [-84.3645, 35.9133], [-84.3531, 35.8668], [-84.3343, 35.8219], [-84.3084, 35.7794], [-84.2758, 35.74], [-84.2372, 35.7044], [-84.1932, 35.6732], [-84.1445, 35.6468], [-84.092, 35.6259], [-84.0366, 35.6106], [-83.9791, 35.6014], [-83.9207, 35.5983], [-83.8623, 35.6014], [-83.8048, 35.6106], [-83.7494, 35.6259], [-83.6969, 35.6468], [-83.6482, 35.6732], [-83.6042, 35.7044], [-83.5656, 35.74], [-83.533, 35.7794], [-83.5071, 35.8219], [-83.4883, 35.8668], [-83.4769, 35.9133], [-83.4731, 35.9606]]]}}, {"type": "Feature", "properties": {"NAME": "El Paso"}, "geometry": {"type": "Polygon", "coordinates": [[[-106.0077, 31.7619], [-106.0118, 31.8149], [-106.024, 31.8669], [-106.0441, 31.9172], [-106.0717, 31.9648], [-106.1064, 32.0089], [-106.1475, 32.0488], [-106.1945, 32.0838], [-106.2464, 32.1133], [-106.3024, 32.1368], [-106.3615, 32.1539], [-106.4227, 32.1642], [-106.485, 32.1677], [-106.5473, 32.1642], [-106.6085, 32.1539], [-106.6676, 32.1368], [-106.7236, 32.1133], [-106.7755, 32.0838], [-106.8225, 32.0488], [-106.8636, 32.0089], [-106.8983, 31.9648], [-106.9259, 31.9172], [-106.946, 31.8669], [-106.9582, 31.8149], [-106.9623, 31.7619], [-106.9582, 31.7089], [-106.946, 31.6569], [-106.9259, 31.6066], [-106.8983, 31.559], [-106.8636, 31.5149], [-106.8225, 31.475], [-106.7755, 31.44], [-106.7236, 31.4105], [-106.6676, 31.387], [-106.6085, 31.3699], [-106.5473, 31.3596], [-106.485, 31.3561], [-106.4227, 31.3596], [-106.3615, 31.3699], [-106.3024, 31.387], [-106.2464, 31.4105], [-106.1945, 31.44], [-106.1475, 31.475], [-106.1064, 31.5149], [-106.0717, 31.559], [-106.0441, 31.6066], [-106.024, 31.6569], [-106.0118, 31.7089], [-106.0077, 31.7619]]]}}, {"type": "Feature", "properties": {"NAME": "New Haven-Milford"}, "geometry": {"type": "Polygon", "coordinates": [[[-72.4459, 41.3081], [-72.45, 41.3554], [-72.4623, 41.4019], [-72.4826, 41.4468], [-72.5105, 41.4893], [-72.5455, 41.5287], [-72.5871, 41.5643], [-72.6346, 41.5955], [-72.687, 41.6219], [-72.7436, 41.6428], [-72.8034, 41.6581], [-72.8652, 41.6673], [-72.9282, 41.6704], [-72.9912, 41.6673], [-73.053, 41.6581], [-73.1128, 41.6428], [-73.1694, 41.6219], [-73.2218, 41.5955], [-73.2693, 41.5643], [-73.3109, 41.5287], [-73.3459, 41.4893], [-73.3738, 41.4468], [-73.3941, 41.4019], [-73.4064, 41.3554], [-73.4105, 41.3081], [-73.4064, 41.2608], [-73.3941, 41.2143], [-73.3738, 41.1694], [-73.3459, 41.1269], [-73.3109, 41.0875], [-73.2693, 41.0519], [-73.2218, 41.0207], [-73.1694, 40.9943], [-73.1128, 40.9734], [-73.053, 40.9581], [-72.9912, 40.9489], [-72.9282, 40.9458], [-72.8652, 40.9489], [-72.8034, 40.9581], [-72.7436, 40.9734], [-72.687, 40.9943], [-72.6346, 41.0207], [-72.5871, 41.0519], [-72.5455, 41.0875], [-72.5105, 41.1269], [-72.4826, 41.1694], [-72.4623, 41.2143], [-72.45, 41.2608], [-72.4459, 41.3081]]]}}, {"type": "Feature", "properties": {"NAME": "Greenville-Anderson"}, "geometry": {"type": "Polygon", "coordinates": [[[-81.8995, 34.8526], [-81.9037, 34.9056], [-81.9164, 34.9576], [-81.9371, 35.0079], [-81.9658, 35.0555], [-82.0017, 35.0996], [-82.0443, 35.1395], [-82.093, 35.1745], [-82.1468, 35.204], [-82.2048, 35.2275], [-82.266, 35.2446], [-82.3295, 35.2549], [-82.394, 35.2584], [-82.4585, 35.2549], [-82.522, 35.2446], [-82.5832, 35.2275], [-82.6412, 35.204], [-82.695, 35.1745], [-82.7437, 35.1395], [-82.7863, 35.0996], [-82.8222, 35.0555], [-82.8509, 35.0079], [-82.8716, 34.9576], [-82.8843, 34.9056], [-82.8885, 34.8526], [-82.8843, 34.7996], [-82.8716, 34.7476], [-82.8509, 34.6973], [-82.8222, 34.6497], [-82.7863, 34.6056], [-82.7437, 34.5657], [-82.695, 34.5307], [-82.6412, 34.5012], [-82.5832, 34.4777], [-82.522, 34.4606], [-82.4585, 34.4503], [-82.394, 34.4468], [-82.3295, 34.4503], [-82.266, 34.4606], [-82.2048, 34.4777], [-82.1468, 34.5012], [-82.093, 34.5307], [-82.0443, 34.5657], [-82.0017, 34.6056], [-81.9658, 34.6497], [-81.9371, 34.6973], [-81.9164, 34.7476], [-81.9037, 34.7996], [-81.8995, 34.8526]]]}}, {"type": "Feature", "properties": {"NAME": "Baton Rouge"}, "geometry": {"type": "Polygon", "coordinates": [[[-90.7164, 30.4515], [-90.7204, 30.5045], [-90.7324, 30.5565], [-90.7522, 30.6068], [-90.7794, 30.6544], [-90.8136, 30.6985], [-90.8542, 30.7384], [-90.9005, 30.7734], [-90.9517, 30.8029], [-91.007, 30.8264], [-91.0653, 30.8435], [-91.1257, 30.8538], [-91.1871, 30.8573], [-91.2485, 30.8538], [-91.3089, 30.8435], [-91.3672, 30.8264], [-91.4225, 30.8029], [-91.4737, 30.7734], [-91.52, 30.7384], [-91.5606, 30.6985], [-91.5948, 30.6544], [-91.622, 30.6068], [-91.6418, 30.5565], [-91.6538, 30.5045], [-91.6578, 30.4515], [-91.6538, 30.3985], [-91.6418, 30.3465], [-91.622, 30.2962], [-91.5948, 30.2486], [-91.5606, 30.2045], [-91.52, 30.1646], [-91.4737, 30.1296], [-91.4225, 30.1001], [-91.3672, 30.0766], [-91.3089, 30.0595], [-91.2485, 30.0492], [-91.1871, 30.0457], [-91.1257, 30.0492], [-91.0653, 30.0595], [-91.007, 30.0766], [-90.9517, 30.1001], [-90.9005, 30.1296], [-90.8542, 30.1646], [-90.8136, 30.2045], [-90.7794, 30.2486], [-90.7522, 30.2962], [-90.7324, 30.3465], [-90.7204, 30.3985], [-90.7164, 30.4515]]]}}]}