{"type":"FeatureCollection","features":[{"type":"Feature","geometry":{"type":"Point","coordinates":[-86.8024326,33.5206824]},"properties":{"city":"Birmingham","state":"Alabama","cityStateKey":"Birmingham|Alabama","cityLevel":1,"isPriority":true,"ooCount":0,"partnerCount":1,"totalSites":1,"totalTCAs":0,"inProcess":0,"cleared":0,"siteActivated":true,"nearbyTotal":3,"nearbyActivated":1,"nearbyInProcess":0,"nearbyOO":1,"nearby3P":2,"radiusActivated":true,"nearestActivated":{"id":"9655","name":"BIRMINGHAM (Suite 100)","city":"Vestavia Hills","state":"Alabama","distanceKm":11.5,"distanceMiles":7.2}}},{"type":"Feature","geometry":{"type":"Point","coordinates":[-86.3090775,32.3777111]},"properties":{"city":"Montgomery","state":"Alabama","cityStateKey":"Montgomery|Alabama","cityLevel":2,"isPriority":true,"ooCount":1,"partnerCount":0,"totalSites":1,"totalTCAs":1,"inProcess":0,"cleared":1,"siteActivated":true,"nearbyTotal":1,"nearbyActivated":1,"nearbyInProcess":0,"nearbyOO":1,"nearby3P":0,"radiusActivated":true,"nearestActivated":{"id":"53","name":"MONTGOMERY","city":"Montgomery","state":"Alabama","distanceKm":6.4,"distanceMiles":4}}},{"type":"Feature","geometry":{"type":"Point","coordinates":[-149.894852,61.2163129]},"properties":{"city":"Anchorage","state":"Alaska","cityStateKey":"Anchorage|Alaska","cityLevel":1,"isPriority":true,"ooCount":0,"partnerCount":1,"totalSites":1,"totalTCAs":3,"inProcess":2,"cleared":0,"siteActivated":true,"nearbyTotal":1,"nearbyActivated":1,"nearbyInProcess":0,"nearbyOO":0,"nearby3P":1,"radiusActivated":true,"nearestActivated":{"id":"5706","name":"Anchorage - University of Alaska","city":"Anchorage","state":"Alaska","distanceKm":5,"distanceMiles":3.1}}},{"type":"Feature","geometry":{"type":"Point","coordinates":[-147.716675,64.837845]},"properties":{"city":"Fairbanks","state":"Alaska","cityStateKey":"Fairbanks|Alaska","cityLevel":2,"isPriority":true,"ooCount":0,"partnerCount":1,"totalSites":1,"totalTCAs":2,"inProcess":2,"cleared":0,"siteActivated":false,"nearbyTotal":1,"nearbyActivated":0,"nearbyInProcess":1,"nearbyOO":0,"nearby3P":1,"radiusActivated":false,"nearestActivated":null}},{"type":"Feature","geometry":{"type":"Point","coordinates":[-112.074141,33.4484367]},"properties":{"city":"Phoenix","state":"Arizona","cityStateKey":"Phoenix|Arizona","cityLevel":1,"isPriority":true,"ooCount":0,"partnerCount":1,"totalSites":1,"totalTCAs":3,"inProcess":3,"cleared":0,"siteActivated":true,"nearbyTotal":4,"nearbyActivated":1,"nearbyInProcess":1,"nearbyOO":0,"nearby3P":4,"radiusActivated":true,"nearestActivated":{"id":"13305","name":"Phoenix - Innovative Minds","city":"Phoenix","state":"Arizona","distanceKm":5.3,"distanceMiles":3.3}}},{"type":"Feature","geometry":{"type":"Point","coordinates":[-110.974847,32.2228765]},"properties":{"city":"Tucson","state":"Arizona","cityStateKey":"Tucson|Arizona","cityLevel":2,"isPriority":true,"ooCount":0,"partnerCount":1,"totalSites":1,"totalTCAs":3,"inProcess":3,"cleared":0,"siteActivated":true,"nearbyTotal":1,"nearbyActivated":1,"nearbyInProcess":0,"nearbyOO":0,"nearby3P":1,"radiusActivated":true,"nearestActivated":{"id":"13273","name":"Tucson - Innovative Minds","city":"Tucson","state":"Arizona","distanceKm":8.9,"distanceMiles":5.5}}},{"type":"Feature","geometry":{"type":"Point","coordinates":[-92.2896267,34.7465071]},"properties":{"city":"Little Rock","state":"Arkansas","cityStateKey":"Little Rock|Arkansas","cityLevel":1,"isPriority":true,"ooCount":0,"partnerCount":2,"totalSites":2,"totalTCAs":1,"inProcess":0,"cleared":0,"siteActivated":false,"nearbyTotal":6,"nearbyActivated":0,"nearbyInProcess":0,"nearbyOO":0,"nearby3P":6,"radiusActivated":false,"nearestActivated":null}},{"type":"Feature","geometry":{"type":"Point","coordinates":[-94.4265011,35.3880338]},"properties":{"city":"Fort Smith","state":"Arkansas","cityStateKey":"Fort Smith|Arkansas","cityLevel":2,"isPriority":true,"ooCount":0,"partnerCount":1,"totalSites":1,"totalTCAs":4,"inProcess":4,"cleared":0,"siteActivated":true,"nearbyTotal":2,"nearbyActivated":1,"nearbyInProcess":1,"nearbyOO":0,"nearby3P":2,"radiusActivated":true,"nearestActivated":{"id":"11886","name":"Fort Smith - Adult Education Center","city":"Fort Smith","state":"Arkansas","distanceKm":1.7,"distanceMiles":1}}},{"type":"Feature","geometry":{"type":"Point","coordinates":[-118.242766,34.0536909]},"properties":{"city":"Los Angeles","state":"California","cityStateKey":"Los Angeles|California","cityLevel":1,"isPriority":true,"ooCount":0,"partnerCount":1,"totalSites":1,"totalTCAs":0,"inProcess":0,"cleared":0,"siteActivated":true,"nearbyTotal":14,"nearbyActivated":5,"nearbyInProcess":1,"nearbyOO":7,"nearby3P":7,"radiusActivated":true,"nearestActivated":{"id":"9201","name":"EL MONTE - SANTA FE SPRINGS","city":"Santa Fe Springs","state":"California","distanceKm":19.3,"distanceMiles":12}}},{"type":"Feature","geometry":{"type":"Point","coordinates":[-117.162772,32.7174202]},"properties":{"city":"San Diego","state":"California","cityStateKey":"San Diego|California","cityLevel":2,"isPriority":true,"ooCount":1,"partnerCount":1,"totalSites":2,"totalTCAs":10,"inProcess":6,"cleared":3,"siteActivated":true,"nearbyTotal":2,"nearbyActivated":1,"nearbyInProcess":0,"nearbyOO":1,"nearby3P":1,"radiusActivated":true,"nearestActivated":{"id":"5025","name":"SAN DIEGO","city":"San Diego","state":"California","distanceKm":19.9,"distanceMiles":12.4}}},{"type":"Feature","geometry":{"type":"Point","coordinates":[-104.984862,39.7392364]},"properties":{"city":"Denver","state":"Colorado","cityStateKey":"Denver|Colorado","cityLevel":1,"isPriority":true,"ooCount":0,"partnerCount":0,"totalSites":0,"totalTCAs":0,"inProcess":0,"cleared":0,"siteActivated":true,"nearbyTotal":4,"nearbyActivated":2,"nearbyInProcess":0,"nearbyOO":2,"nearby3P":2,"radiusActivated":true,"nearestActivated":{"id":"130","name":"WHEAT RIDGE (DENVER)","city":"Wheat Ridge","state":"Colorado","distanceKm":11.5,"distanceMiles":7.1}}},{"type":"Feature","geometry":{"type":"Point","coordinates":[-104.825348,38.8339578]},"properties":{"city":"Colorado Springs","state":"Colorado","cityStateKey":"Colorado Springs|Colorado","cityLevel":2,"isPriority":true,"ooCount":0,"partnerCount":1,"totalSites":1,"totalTCAs":0,"inProcess":0,"cleared":0,"siteActivated":true,"nearbyTotal":2,"nearbyActivated":1,"nearbyInProcess":0,"nearbyOO":1,"nearby3P":1,"radiusActivated":true,"nearestActivated":{"id":"133","name":"PUEBLO","city":"Pueblo","state":"Colorado","distanceKm":65.2,"distanceMiles":40.5}}},{"type":"Feature","geometry":{"type":"Point","coordinates":[-73.1887863,41.1792695]},"properties":{"city":"Bridgeport","state":"Connecticut","cityStateKey":"Bridgeport|Connecticut","cityLevel":1,"isPriority":true,"ooCount":0,"partnerCount":0,"totalSites":0,"totalTCAs":0,"inProcess":0,"cleared":0,"siteActivated":true,"nearbyTotal":15,"nearbyActivated":4,"nearbyInProcess":3,"nearbyOO":3,"nearby3P":12,"radiusActivated":true,"nearestActivated":{"id":"5584","name":"MILFORD","city":"Milford","state":"Connecticut","distanceKm":9,"distanceMiles":5.6}}},{"type":"Feature","geometry":{"type":"Point","coordinates":[-72.9250518,41.3082138]},"properties":{"city":"New Haven","state":"Connecticut","cityStateKey":"New Haven|Connecticut","cityLevel":2,"isPriority":true,"ooCount":0,"partnerCount":0,"totalSites":0,"totalTCAs":0,"inProcess":0,"cleared":0,"siteActivated":true,"nearbyTotal":7,"nearbyActivated":3,"nearbyInProcess":2,"nearbyOO":2,"nearby3P":5,"radiusActivated":true,"nearestActivated":{"id":"5584","name":"MILFORD","city":"Milford","state":"Connecticut","distanceKm":17.3,"distanceMiles":10.8}}},{"type":"Feature","geometry":{"type":"Point","coordinates":[-75.546589,39.7459468]},"properties":{"city":"Wilmington","state":"Delaware","cityStateKey":"Wilmington|Delaware","cityLevel":1,"isPriority":true,"ooCount":0,"partnerCount":0,"totalSites":0,"totalTCAs":0,"inProcess":0,"cleared":0,"siteActivated":true,"nearbyTotal":8,"nearbyActivated":5,"nearbyInProcess":0,"nearbyOO":3,"nearby3P":5,"radiusActivated":true,"nearestActivated":{"id":"6662","name":"Swedesboro - Delaware Valley Safety Council","city":"Swedesboro","state":"New Jersey","distanceKm":15.8,"distanceMiles":9.8}}},{"type":"Feature","geometry":{"type":"Point","coordinates":[-75.5243682,39.158168]},"properties":{"city":"Dover","state":"Delaware","cityStateKey":"Dover|Delaware","cityLevel":2,"isPriority":true,"ooCount":0,"partnerCount":1,"totalSites":1,"totalTCAs":1,"inProcess":0,"cleared":0,"siteActivated":true,"nearbyTotal":4,"nearbyActivated":1,"nearbyInProcess":0,"nearbyOO":0,"nearby3P":4,"radiusActivated":true,"nearestActivated":{"id":"6662","name":"Swedesboro - Delaware Valley Safety Council","city":"Swedesboro","state":"New Jersey","distanceKm":68.9,"distanceMiles":42.8}}},{"type":"Feature","geometry":{"type":"Point","coordinates":[-77.0363849,38.8950982]},"properties":{"city":"Washington","state":"District of Columbia","cityStateKey":"Washington|District of Columbia","cityLevel":1,"isPriority":true,"ooCount":0,"partnerCount":0,"totalSites":0,"totalTCAs":0,"inProcess":0,"cleared":0,"siteActivated":true,"nearbyTotal":11,"nearbyActivated":1,"nearbyInProcess":0,"nearbyOO":0,"nearby3P":11,"radiusActivated":true,"nearestActivated":{"id":"13069","name":"Rockville - Tower Oaks Testing LLC","city":"Rockville","state":"Maryland","distanceKm":21.3,"distanceMiles":13.2}}},{"type":"Feature","geometry":{"type":"Point","coordinates":[-81.6579179,30.3262247]},"properties":{"city":"Jacksonville","state":"Florida","cityStateKey":"Jacksonville|Florida","cityLevel":1,"isPriority":true,"ooCount":0,"partnerCount":3,"totalSites":3,"totalTCAs":5,"inProcess":3,"cleared":0,"siteActivated":false,"nearbyTotal":3,"nearbyActivated":0,"nearbyInProcess":1,"nearbyOO":0,"nearby3P":3,"radiusActivated":false,"nearestActivated":null}},{"type":"Feature","geometry":{"type":"Point","coordinates":[-80.1935973,25.7741566]},"properties":{"city":"Miami","state":"Florida","cityStateKey":"Miami|Florida","cityLevel":2,"isPriority":true,"ooCount":0,"partnerCount":5,"totalSites":5,"totalTCAs":2,"inProcess":0,"cleared":0,"siteActivated":true,"nearbyTotal":9,"nearbyActivated":3,"nearbyInProcess":0,"nearbyOO":0,"nearby3P":9,"radiusActivated":true,"nearestActivated":{"id":"11283","name":"Fort Lauderdale - Florida Atlantic University Davie","city":"Davie","state":"Florida","distanceKm":34.3,"distanceMiles":21.3}}},{"type":"Feature","geometry":{"type":"Point","coordinates":[-84.3898151,33.7544657]},"properties":{"city":"Atlanta","state":"Georgia","cityStateKey":"Atlanta|Georgia","cityLevel":1,"isPriority":true,"ooCount":0,"partnerCount":2,"totalSites":2,"totalTCAs":0,"inProcess":0,"cleared":0,"siteActivated":true,"nearbyTotal":10,"nearbyActivated":2,"nearbyInProcess":0,"nearbyOO":2,"nearby3P":8,"radiusActivated":true,"nearestActivated":{"id":"9677","name":"ATLANTA (Marietta)","city":"Marietta","state":"Georgia","distanceKm":25.3,"distanceMiles":15.7}}},{"type":"Feature","geometry":{"type":"Point","coordinates":[-84.9880449,32.4610708]},"properties":{"city":"Columbus","state":"Georgia","cityStateKey":"Columbus|Georgia","cityLevel":2,"isPriority":true,"ooCount":0,"partnerCount":0,"totalSites":0,"totalTCAs":0,"inProcess":0,"cleared":0,"siteActivated":false,"nearbyTotal":0,"nearbyActivated":0,"nearbyInProcess":0,"nearbyOO":0,"nearby3P":0,"radiusActivated":false,"nearestActivated":null}},{"type":"Feature","geometry":{"type":"Point","coordinates":[-157.855676,21.304547]},"properties":{"city":"Honolulu","state":"Hawaii","cityStateKey":"Honolulu|Hawaii","cityLevel":1,"isPriority":true,"ooCount":1,"partnerCount":0,"totalSites":1,"totalTCAs":4,"inProcess":3,"cleared":1,"siteActivated":true,"nearbyTotal":1,"nearbyActivated":1,"nearbyInProcess":0,"nearbyOO":1,"nearby3P":0,"radiusActivated":true,"nearestActivated":{"id":"5144","name":"HONOLULU (Ala Moana)","city":"Honolulu","state":"Hawaii","distanceKm":2.1,"distanceMiles":1.3}}},{"type":"Feature","geometry":{"type":"Point","coordinates":[-157.969428,21.4001231]},"properties":{"city":"Pearl City","state":"Hawaii","cityStateKey":"Pearl City|Hawaii","cityLevel":2,"isPriority":true,"ooCount":0,"partnerCount":0,"totalSites":0,"totalTCAs":0,"inProcess":0,"cleared":0,"siteActivated":true,"nearbyTotal":1,"nearbyActivated":1,"nearbyInProcess":0,"nearbyOO":1,"nearby3P":0,"radiusActivated":true,"nearestActivated":{"id":"5144","name":"HONOLULU (Ala Moana)","city":"Honolulu","state":"Hawaii","distanceKm":18,"distanceMiles":11.2}}},{"type":"Feature","geometry":{"type":"Point","coordinates":[-116.200886,43.6166163]},"properties":{"city":"Boise","state":"Idaho","cityStateKey":"Boise|Idaho","cityLevel":1,"isPriority":true,"ooCount":1,"partnerCount":0,"totalSites":1,"totalTCAs":3,"inProcess":1,"cleared":2,"siteActivated":true,"nearbyTotal":1,"nearbyActivated":1,"nearbyInProcess":0,"nearbyOO":1,"nearby3P":0,"radiusActivated":true,"nearestActivated":{"id":"6011","name":"BOISE","city":"Boise","state":"Idaho","distanceKm":6.4,"distanceMiles":4}}},{"type":"Feature","geometry":{"type":"Point","coordinates":[-116.5616885,43.5780381]},"properties":{"city":"Nampa","state":"Idaho","cityStateKey":"Nampa|Idaho","cityLevel":2,"isPriority":true,"ooCount":0,"partnerCount":0,"totalSites":0,"totalTCAs":0,"inProcess":0,"cleared":0,"siteActivated":true,"nearbyTotal":1,"nearbyActivated":1,"nearbyInProcess":0,"nearbyOO":1,"nearby3P":0,"radiusActivated":true,"nearestActivated":{"id":"6011","name":"BOISE","city":"Boise","state":"Idaho","distanceKm":23.1,"distanceMiles":14.4}}},{"type":"Feature","geometry":{"type":"Point","coordinates":[-87.6244212,41.8755616]},"properties":{"city":"Chicago","state":"Illinois","cityStateKey":"Chicago|Illinois","cityLevel":1,"isPriority":true,"ooCount":2,"partnerCount":0,"totalSites":2,"totalTCAs":7,"inProcess":4,"cleared":2,"siteActivated":true,"nearbyTotal":17,"nearbyActivated":2,"nearbyInProcess":0,"nearbyOO":2,"nearby3P":15,"radiusActivated":true,"nearestActivated":{"id":"5617","name":"CHICAGO","city":"Chicago","state":"Illinois","distanceKm":0.3,"distanceMiles":0.2}}},{"type":"Feature","geometry":{"type":"Point","coordinates":[-88.3147539,41.7571701]},"properties":{"city":"Aurora","state":"Illinois","cityStateKey":"Aurora|Illinois","cityLevel":2,"isPriority":true,"ooCount":0,"partnerCount":0,"totalSites":0,"totalTCAs":0,"inProcess":0,"cleared":0,"siteActivated":true,"nearbyTotal":15,"nearbyActivated":2,"nearbyInProcess":0,"nearbyOO":2,"nearby3P":13,"radiusActivated":true,"nearestActivated":{"id":"12761","name":"Schaumburg - IT Expert System","city":"Schaumburg","state":"Illinois","distanceKm":38.5,"distanceMiles":23.9}}},{"type":"Feature","geometry":{"type":"Point","coordinates":[-86.1583502,39.7683331]},"properties":{"city":"Indianapolis","state":"Indiana","cityStateKey":"Indianapolis|Indiana","cityLevel":1,"isPriority":true,"ooCount":1,"partnerCount":1,"totalSites":2,"totalTCAs":3,"inProcess":1,"cleared":2,"siteActivated":true,"nearbyTotal":6,"nearbyActivated":1,"nearbyInProcess":0,"nearbyOO":1,"nearby3P":5,"radiusActivated":true,"nearestActivated":{"id":"6672","name":"INDIANAPOLIS","city":"Indianapolis","state":"Indiana","distanceKm":17.2,"distanceMiles":10.7}}},{"type":"Feature","geometry":{"type":"Point","coordinates":[-85.1386015,41.0799898]},"properties":{"city":"Fort Wayne","state":"Indiana","cityStateKey":"Fort Wayne|Indiana","cityLevel":2,"isPriority":true,"ooCount":0,"partnerCount":1,"totalSites":1,"totalTCAs":6,"inProcess":0,"cleared":0,"siteActivated":false,"nearbyTotal":3,"nearbyActivated":0,"nearbyInProcess":0,"nearbyOO":0,"nearby3P":3,"radiusActivated":false,"nearestActivated":null}},{"type":"Feature","geometry":{"type":"Point","coordinates":[-93.7594059,41.5644476]},"properties":{"city":"West Des Moines","state":"Iowa","cityStateKey":"West Des Moines|Iowa","cityLevel":1,"isPriority":true,"ooCount":1,"partnerCount":0,"totalSites":1,"totalTCAs":2,"inProcess":2,"cleared":0,"siteActivated":true,"nearbyTotal":2,"nearbyActivated":1,"nearbyInProcess":0,"nearbyOO":1,"nearby3P":1,"radiusActivated":true,"nearestActivated":{"id":"44","name":"WEST DES MOINES","city":"W. DES MOINES","state":"Iowa","distanceKm":4.6,"distanceMiles":2.9}}},{"type":"Feature","geometry":{"type":"Point","coordinates":[-91.6704053,41.9758872]},"properties":{"city":"Cedar Rapids","state":"Iowa","cityStateKey":"Cedar Rapids|Iowa","cityLevel":2,"isPriority":true,"ooCount":1,"partnerCount":0,"totalSites":1,"totalTCAs":3,"inProcess":2,"cleared":1,"siteActivated":true,"nearbyTotal":2,"nearbyActivated":1,"nearbyInProcess":0,"nearbyOO":1,"nearby3P":1,"radiusActivated":true,"nearestActivated":{"id":"43","name":"CEDAR RAPIDS","city":"CEDAR RAPIDS","state":"Iowa","distanceKm":5.1,"distanceMiles":3.2}}},{"type":"Feature","geometry":{"type":"Point","coordinates":[-97.3375448,37.6922361]},"properties":{"city":"Wichita","state":"Kansas","cityStateKey":"Wichita|Kansas","cityLevel":1,"isPriority":true,"ooCount":0,"partnerCount":3,"totalSites":3,"totalTCAs":0,"inProcess":0,"cleared":0,"siteActivated":false,"nearbyTotal":3,"nearbyActivated":0,"nearbyInProcess":0,"nearbyOO":0,"nearby3P":3,"radiusActivated":false,"nearestActivated":null}},{"type":"Feature","geometry":{"type":"Point","coordinates":[-94.6851702,38.9742502]},"properties":{"city":"Overland Park","state":"Kansas","cityStateKey":"Overland Park|Kansas","cityLevel":2,"isPriority":true,"ooCount":0,"partnerCount":0,"totalSites":0,"totalTCAs":0,"inProcess":0,"cleared":0,"siteActivated":true,"nearbyTotal":7,"nearbyActivated":1,"nearbyInProcess":1,"nearbyOO":5,"nearby3P":2,"radiusActivated":true,"nearestActivated":{"id":"10137","name":"OLATHE","city":"Olathe","state":"Kansas","distanceKm":10.3,"distanceMiles":6.4}}},{"type":"Feature","geometry":{"type":"Point","coordinates":[-85.759407,38.2542376]},"properties":{"city":"Louisville","state":"Kentucky","cityStateKey":"Louisville|Kentucky","cityLevel":1,"isPriority":true,"ooCount":0,"partnerCount":2,"totalSites":2,"totalTCAs":5,"inProcess":3,"cleared":2,"siteActivated":true,"nearbyTotal":4,"nearbyActivated":1,"nearbyInProcess":0,"nearbyOO":0,"nearby3P":4,"radiusActivated":true,"nearestActivated":{"id":"5562","name":"Louisville - Jefferson Comm Tech College","city":"Louisville","state":"Kentucky","distanceKm":0.9,"distanceMiles":0.5}}},{"type":"Feature","geometry":{"type":"Point","coordinates":[-84.4970393,38.0464066]},"properties":{"city":"Lexington","state":"Kentucky","cityStateKey":"Lexington|Kentucky","cityLevel":2,"isPriority":true,"ooCount":0,"partnerCount":4,"totalSites":4,"totalTCAs":3,"inProcess":2,"cleared":0,"siteActivated":false,"nearbyTotal":5,"nearbyActivated":0,"nearbyInProcess":1,"nearbyOO":0,"nearby3P":5,"radiusActivated":false,"nearestActivated":null}},{"type":"Feature","geometry":{"type":"Point","coordinates":[-90.0733934,29.9561422]},"properties":{"city":"New Orleans","state":"Louisiana","cityStateKey":"New Orleans|Louisiana","cityLevel":1,"isPriority":true,"ooCount":0,"partnerCount":0,"totalSites":0,"totalTCAs":0,"inProcess":0,"cleared":0,"siteActivated":true,"nearbyTotal":2,"nearbyActivated":1,"nearbyInProcess":0,"nearbyOO":1,"nearby3P":1,"radiusActivated":true,"nearestActivated":{"id":"1","name":"METAIRIE (NEW ORLEANS)","city":"Metairie","state":"Louisiana","distanceKm":11,"distanceMiles":6.8}}},{"type":"Feature","geometry":{"type":"Point","coordinates":[-91.1869659,30.4494155]},"properties":{"city":"Baton Rouge","state":"Louisiana","cityStateKey":"Baton Rouge|Louisiana","cityLevel":2,"isPriority":true,"ooCount":0,"partnerCount":2,"totalSites":2,"totalTCAs":3,"inProcess":0,"cleared":0,"siteActivated":false,"nearbyTotal":2,"nearbyActivated":0,"nearbyInProcess":0,"nearbyOO":0,"nearby3P":2,"radiusActivated":false,"nearestActivated":null}},{"type":"Feature","geometry":{"type":"Point","coordinates":[-70.2586618,43.6573605]},"properties":{"city":"Portland","state":"Maine","cityStateKey":"Portland|Maine","cityLevel":1,"isPriority":true,"ooCount":0,"partnerCount":0,"totalSites":0,"totalTCAs":0,"inProcess":0,"cleared":0,"siteActivated":true,"nearbyTotal":2,"nearbyActivated":1,"nearbyInProcess":0,"nearbyOO":0,"nearby3P":2,"radiusActivated":true,"nearestActivated":{"id":"12760","name":"Newington - Brainseed Testing Services","city":"Newington","state":"New Hampshire","distanceKm":77.8,"distanceMiles":48.4}}},{"type":"Feature","geometry":{"type":"Point","coordinates":[-70.2177099,44.0990717]},"properties":{"city":"Lewiston","state":"Maine","cityStateKey":"Lewiston|Maine","cityLevel":2,"isPriority":true,"ooCount":0,"partnerCount":0,"totalSites":0,"totalTCAs":0,"inProcess":0,"cleared":0,"siteActivated":true,"nearbyTotal":1,"nearbyActivated":1,"nearbyInProcess":0,"nearbyOO":0,"nearby3P":1,"radiusActivated":true,"nearestActivated":{"id":"5705","name":"Farmington - University of Maine at Farmington","city":"Farmington","state":"Maine","distanceKm":63.7,"distanceMiles":39.6}}},{"type":"Feature","geometry":{"type":"Point","coordinates":[-76.610759,39.2908816]},"properties":{"city":"Baltimore","state":"Maryland","cityStateKey":"Baltimore|Maryland","cityLevel":1,"isPriority":true,"ooCount":0,"partnerCount":1,"totalSites":1,"totalTCAs":3,"inProcess":0,"cleared":0,"siteActivated":true,"nearbyTotal":11,"nearbyActivated":1,"nearbyInProcess":0,"nearbyOO":0,"nearby3P":11,"radiusActivated":true,"nearestActivated":{"id":"13069","name":"Rockville - Tower Oaks Testing LLC","city":"Rockville","state":"Maryland","distanceKm":53.4,"distanceMiles":33.2}}},{"type":"Feature","geometry":{"type":"Point","coordinates":[-77.4127562,39.415779]},"properties":{"city":"Frederick","state":"Maryland","cityStateKey":"Frederick|Maryland","cityLevel":2,"isPriority":true,"ooCount":0,"partnerCount":0,"totalSites":0,"totalTCAs":0,"inProcess":0,"cleared":0,"siteActivated":true,"nearbyTotal":11,"nearbyActivated":1,"nearbyInProcess":1,"nearbyOO":0,"nearby3P":11,"radiusActivated":true,"nearestActivated":{"id":"13069","name":"Rockville - Tower Oaks Testing LLC","city":"Rockville","state":"Maryland","distanceKm":45.1,"distanceMiles":28}}},{"type":"Feature","geometry":{"type":"Point","coordinates":[-71.0578303,42.3588336]},"properties":{"city":"Boston","state":"Massachusetts","cityStateKey":"Boston|Massachusetts","cityLevel":1,"isPriority":true,"ooCount":0,"partnerCount":0,"totalSites":0,"totalTCAs":0,"inProcess":0,"cleared":0,"siteActivated":false,"nearbyTotal":11,"nearbyActivated":0,"nearbyInProcess":3,"nearbyOO":0,"nearby3P":11,"radiusActivated":false,"nearestActivated":null}},{"type":"Feature","geometry":{"type":"Point","coordinates":[-71.8018877,42.2625621]},"properties":{"city":"Worcester","state":"Massachusetts","cityStateKey":"Worcester|Massachusetts","cityLevel":2,"isPriority":true,"ooCount":0,"partnerCount":0,"totalSites":0,"totalTCAs":0,"inProcess":0,"cleared":0,"siteActivated":true,"nearbyTotal":12,"nearbyActivated":1,"nearbyInProcess":2,"nearbyOO":1,"nearby3P":11,"radiusActivated":true,"nearestActivated":{"id":"93","name":"SPRINGFIELD MA","city":"WEST SPRINGFIELD","state":"Massachusetts","distanceKm":69.9,"distanceMiles":43.4}}},{"type":"Feature","geometry":{"type":"Point","coordinates":[-83.0466403,42.3315509]},"properties":{"city":"Detroit","state":"Michigan","cityStateKey":"Detroit|Michigan","cityLevel":1,"isPriority":true,"ooCount":0,"partnerCount":0,"totalSites":0,"totalTCAs":0,"inProcess":0,"cleared":0,"siteActivated":true,"nearbyTotal":3,"nearbyActivated":3,"nearbyInProcess":0,"nearbyOO":3,"nearby3P":0,"radiusActivated":true,"nearestActivated":{"id":"9817","name":"DEARBORN","city":"Dearborn","state":"Michigan","distanceKm":12.2,"distanceMiles":7.6}}},{"type":"Feature","geometry":{"type":"Point","coordinates":[-85.6678639,42.9632425]},"properties":{"city":"Grand Rapids","state":"Michigan","cityStateKey":"Grand Rapids|Michigan","cityLevel":2,"isPriority":true,"ooCount":1,"partnerCount":0,"totalSites":1,"totalTCAs":4,"inProcess":2,"cleared":1,"siteActivated":true,"nearbyTotal":1,"nearbyActivated":1,"nearbyInProcess":0,"nearbyOO":1,"nearby3P":0,"radiusActivated":true,"nearestActivated":{"id":"116","name":"GRAND RAPIDS","city":"GRAND RAPIDS","state":"Michigan","distanceKm":12.6,"distanceMiles":7.8}}},{"type":"Feature","geometry":{"type":"Point","coordinates":[-93.2654692,44.9772995]},"properties":{"city":"Minneapolis","state":"Minnesota","cityStateKey":"Minneapolis|Minnesota","cityLevel":1,"isPriority":true,"ooCount":0,"partnerCount":0,"totalSites":0,"totalTCAs":0,"inProcess":0,"cleared":0,"siteActivated":false,"nearbyTotal":4,"nearbyActivated":0,"nearbyInProcess":0,"nearbyOO":0,"nearby3P":4,"radiusActivated":false,"nearestActivated":null}},{"type":"Feature","geometry":{"type":"Point","coordinates":[-93.0931028,44.9497487]},"properties":{"city":"St. Paul","state":"Minnesota","cityStateKey":"St. Paul|Minnesota","cityLevel":2,"isPriority":true,"ooCount":0,"partnerCount":0,"totalSites":0,"totalTCAs":0,"inProcess":0,"cleared":0,"siteActivated":false,"nearbyTotal":4,"nearbyActivated":0,"nearbyInProcess":0,"nearbyOO":0,"nearby3P":4,"radiusActivated":false,"nearestActivated":null}},{"type":"Feature","geometry":{"type":"Point","coordinates":[-90.1830408,32.2998686]},"properties":{"city":"Jackson","state":"Mississippi","cityStateKey":"Jackson|Mississippi","cityLevel":1,"isPriority":true,"ooCount":1,"partnerCount":0,"totalSites":1,"totalTCAs":2,"inProcess":1,"cleared":1,"siteActivated":true,"nearbyTotal":1,"nearbyActivated":1,"nearbyInProcess":0,"nearbyOO":1,"nearby3P":0,"radiusActivated":true,"nearestActivated":{"id":"5654","name":"JACKSON","city":"JACKSON","state":"Mississippi","distanceKm":5.3,"distanceMiles":3.3}}},{"type":"Feature","geometry":{"type":"Point","coordinates":[-89.0928155,30.3674198]},"properties":{"city":"Gulfport","state":"Mississippi","cityStateKey":"Gulfport|Mississippi","cityLevel":2,"isPriority":true,"ooCount":0,"partnerCount":0,"totalSites":0,"totalTCAs":0,"inProcess":0,"cleared":0,"siteActivated":true,"nearbyTotal":1,"nearbyActivated":1,"nearbyInProcess":0,"nearbyOO":0,"nearby3P":1,"radiusActivated":true,"nearestActivated":{"id":"6193","name":"Biloxi - Gulf Coast Safety Council","city":"Biloxi","state":"Mississippi","distanceKm":17.4,"distanceMiles":10.8}}},{"type":"Feature","geometry":{"type":"Point","coordinates":[-94.5781416,39.100105]},"properties":{"city":"Kansas City","state":"Missouri","cityStateKey":"Kansas City|Missouri","cityLevel":1,"isPriority":true,"ooCount":0,"partnerCount":1,"totalSites":1,"totalTCAs":3,"inProcess":1,"cleared":0,"siteActivated":true,"nearbyTotal":7,"nearbyActivated":1,"nearbyInProcess":1,"nearbyOO":5,"nearby3P":2,"radiusActivated":true,"nearestActivated":{"id":"10137","name":"OLATHE","city":"Olathe","state":"Kansas","distanceKm":26,"distanceMiles":16.2}}},{"type":"Feature","geometry":{"type":"Point","coordinates":[-90.190009,38.6254063]},"properties":{"city":"St. Louis","state":"Missouri","cityStateKey":"St. Louis|Missouri","cityLevel":2,"isPriority":true,"ooCount":0,"partnerCount":0,"totalSites":0,"totalTCAs":0,"inProcess":0,"cleared":0,"siteActivated":true,"nearbyTotal":2,"nearbyActivated":1,"nearbyInProcess":0,"nearbyOO":1,"nearby3P":1,"radiusActivated":true,"nearestActivated":{"id":"18969","name":"ST. LOUIS (BARRETT PARKWAY)","city":"Ballwin","state":"Missouri","distanceKm":24.4,"distanceMiles":15.1}}},{"type":"Feature","geometry":{"type":"Point","coordinates":[-108.49607,45.7874957]},"properties":{"city":"Billings","state":"Montana","cityStateKey":"Billings|Montana","cityLevel":1,"isPriority":true,"ooCount":0,"partnerCount":2,"totalSites":2,"totalTCAs":1,"inProcess":0,"cleared":0,"siteActivated":false,"nearbyTotal":2,"nearbyActivated":0,"nearbyInProcess":0,"nearbyOO":0,"nearby3P":2,"radiusActivated":false,"nearestActivated":null}},{"type":"Feature","geometry":{"type":"Point","coordinates":[-113.995267,46.8701049]},"properties":{"city":"Missoula","state":"Montana","cityStateKey":"Missoula|Montana","cityLevel":2,"isPriority":true,"ooCount":0,"partnerCount":2,"totalSites":2,"totalTCAs":1,"inProcess":0,"cleared":1,"siteActivated":true,"nearbyTotal":2,"nearbyActivated":1,"nearbyInProcess":0,"nearbyOO":0,"nearby3P":2,"radiusActivated":true,"nearestActivated":{"id":"5995","name":"Missoula - The University of Montana","city":"Missoula","state":"Montana","distanceKm":1.5,"distanceMiles":0.9}}},{"type":"Feature","geometry":{"type":"Point","coordinates":[-95.9383758,41.2587459]},"properties":{"city":"Omaha","state":"Nebraska","cityStateKey":"Omaha|Nebraska","cityLevel":1,"isPriority":true,"ooCount":0,"partnerCount":4,"totalSites":4,"totalTCAs":5,"inProcess":4,"cleared":0,"siteActivated":true,"nearbyTotal":7,"nearbyActivated":2,"nearbyInProcess":0,"nearbyOO":1,"nearby3P":6,"radiusActivated":true,"nearestActivated":{"id":"10330","name":"Omaha - University of Nebraska","city":"Omaha","state":"Nebraska","distanceKm":6.4,"distanceMiles":4}}},{"type":"Feature","geometry":{"type":"Point","coordinates":[-96.7077751,40.8088861]},"properties":{"city":"Lincoln","state":"Nebraska","cityStateKey":"Lincoln|Nebraska","cityLevel":2,"isPriority":true,"ooCount":0,"partnerCount":2,"totalSites":2,"totalTCAs":0,"inProcess":0,"cleared":0,"siteActivated":true,"nearbyTotal":5,"nearbyActivated":1,"nearbyInProcess":0,"nearbyOO":0,"nearby3P":5,"radiusActivated":true,"nearestActivated":{"id":"10330","name":"Omaha - University of Nebraska","city":"Omaha","state":"Nebraska","distanceKm":76.7,"distanceMiles":47.7}}},{"type":"Feature","geometry":{"type":"Point","coordinates":[-115.1484131,36.1674263]},"properties":{"city":"Las Vegas","state":"Nevada","cityStateKey":"Las Vegas|Nevada","cityLevel":1,"isPriority":true,"ooCount":0,"partnerCount":2,"totalSites":2,"totalTCAs":1,"inProcess":1,"cleared":0,"siteActivated":false,"nearbyTotal":2,"nearbyActivated":0,"nearbyInProcess":1,"nearbyOO":0,"nearby3P":2,"radiusActivated":false,"nearestActivated":null}},{"type":"Feature","geometry":{"type":"Point","coordinates":[-114.9822716,36.0319602]},"properties":{"city":"Henderson","state":"Nevada","cityStateKey":"Henderson|Nevada","cityLevel":2,"isPriority":true,"ooCount":0,"partnerCount":0,"totalSites":0,"totalTCAs":0,"inProcess":0,"cleared":0,"siteActivated":false,"nearbyTotal":2,"nearbyActivated":0,"nearbyInProcess":1,"nearbyOO":0,"nearby3P":2,"radiusActivated":false,"nearestActivated":null}},{"type":"Feature","geometry":{"type":"Point","coordinates":[-71.4547891,42.9956397]},"properties":{"city":"Manchester","state":"New Hampshire","cityStateKey":"Manchester|New Hampshire","cityLevel":1,"isPriority":true,"ooCount":0,"partnerCount":1,"totalSites":1,"totalTCAs":3,"inProcess":1,"cleared":0,"siteActivated":true,"nearbyTotal":10,"nearbyActivated":2,"nearbyInProcess":1,"nearbyOO":0,"nearby3P":10,"radiusActivated":true,"nearestActivated":{"id":"13279","name":"Concord - Brainseed Testing Center","city":"Concord","state":"New Hampshire","distanceKm":34.2,"distanceMiles":21.3}}},{"type":"Feature","geometry":{"type":"Point","coordinates":[-71.4677032,42.7656251]},"properties":{"city":"Nashua","state":"New Hampshire","cityStateKey":"Nashua|New Hampshire","cityLevel":2,"isPriority":true,"ooCount":0,"partnerCount":1,"totalSites":1,"totalTCAs":1,"inProcess":0,"cleared":0,"siteActivated":true,"nearbyTotal":12,"nearbyActivated":2,"nearbyInProcess":2,"nearbyOO":0,"nearby3P":12,"radiusActivated":true,"nearestActivated":{"id":"13279","name":"Concord - Brainseed Testing Center","city":"Concord","state":"New Hampshire","distanceKm":58.9,"distanceMiles":36.6}}},{"type":"Feature","geometry":{"type":"Point","coordinates":[-74.1723667,40.735657]},"properties":{"city":"Newark","state":"New Jersey","cityStateKey":"Newark|New Jersey","cityLevel":1,"isPriority":true,"ooCount":0,"partnerCount":0,"totalSites":0,"totalTCAs":0,"inProcess":0,"cleared":0,"siteActivated":true,"nearbyTotal":32,"nearbyActivated":7,"nearbyInProcess":6,"nearbyOO":8,"nearby3P":24,"radiusActivated":true,"nearestActivated":{"id":"10781","name":"ROCHELLE PARK","city":"Rochelle Park","state":"New Jersey","distanceKm":21.6,"distanceMiles":13.4}}},{"type":"Feature","geometry":{"type":"Point","coordinates":[-74.047455,40.7215682]},"properties":{"city":"Jersey City","state":"New Jersey","cityStateKey":"Jersey City|New Jersey","cityLevel":2,"isPriority":true,"ooCount":0,"partnerCount":1,"totalSites":1,"totalTCAs":3,"inProcess":1,"cleared":0,"siteActivated":true,"nearbyTotal":32,"nearbyActivated":7,"nearbyInProcess":6,"nearbyOO":8,"nearby3P":24,"radiusActivated":true,"nearestActivated":{"id":"10781","name":"ROCHELLE PARK","city":"Rochelle Park","state":"New Jersey","distanceKm":22.1,"distanceMiles":13.7}}},{"type":"Feature","geometry":{"type":"Point","coordinates":[-106.650985,35.0841034]},"properties":{"city":"Albuquerque","state":"New Mexico","cityStateKey":"Albuquerque|New Mexico","cityLevel":1,"isPriority":true,"ooCount":1,"partnerCount":0,"totalSites":1,"totalTCAs":5,"inProcess":1,"cleared":3,"siteActivated":true,"nearbyTotal":1,"nearbyActivated":1,"nearbyInProcess":0,"nearbyOO":1,"nearby3P":0,"radiusActivated":true,"nearestActivated":{"id":"19030","name":"ALBUQUERQUE - SAN MATEO","city":"Albuquerque","state":"New Mexico","distanceKm":13.7,"distanceMiles":8.5}}},{"type":"Feature","geometry":{"type":"Point","coordinates":[-106.779807,32.3140354]},"properties":{"city":"Las Cruces","state":"New Mexico","cityStateKey":"Las Cruces|New Mexico","cityLevel":2,"isPriority":true,"ooCount":1,"partnerCount":0,"totalSites":1,"totalTCAs":1,"inProcess":0,"cleared":1,"siteActivated":true,"nearbyTotal":2,"nearbyActivated":2,"nearbyInProcess":0,"nearbyOO":1,"nearby3P":1,"radiusActivated":true,"nearestActivated":{"id":"5003","name":"LAS CRUCES","city":"Las Cruces","state":"New Mexico","distanceKm":1,"distanceMiles":0.6}}},{"type":"Feature","geometry":{"type":"Point","coordinates":[-74.0060152,40.7127281]},"properties":{"city":"New York","state":"New York","cityStateKey":"New York|New York","cityLevel":1,"isPriority":true,"ooCount":0,"partnerCount":6,"totalSites":6,"totalTCAs":17,"inProcess":2,"cleared":0,"siteActivated":true,"nearbyTotal":32,"nearbyActivated":7,"nearbyInProcess":6,"nearbyOO":8,"nearby3P":24,"radiusActivated":true,"nearestActivated":{"id":"11553","name":"BRONX","city":"Bronx","state":"New York","distanceKm":20.4,"distanceMiles":12.7}}},{"type":"Feature","geometry":{"type":"Point","coordinates":[-78.8781493,42.8864163]},"properties":{"city":"Buffalo","state":"New York","cityStateKey":"Buffalo|New York","cityLevel":2,"isPriority":true,"ooCount":0,"partnerCount":1,"totalSites":1,"totalTCAs":3,"inProcess":3,"cleared":0,"siteActivated":true,"nearbyTotal":1,"nearbyActivated":1,"nearbyInProcess":0,"nearbyOO":0,"nearby3P":1,"radiusActivated":true,"nearestActivated":{"id":"12053","name":"Buffalo - Brainseed Testing Services","city":"Buffalo","state":"New York","distanceKm":9.6,"distanceMiles":5.9}}},{"type":"Feature","geometry":{"type":"Point","coordinates":[-80.8430827,35.2272086]},"properties":{"city":"Charlotte","state":"North Carolina","cityStateKey":"Charlotte|North Carolina","cityLevel":1,"isPriority":true,"ooCount":1,"partnerCount":2,"totalSites":3,"totalTCAs":4,"inProcess":1,"cleared":3,"siteActivated":true,"nearbyTotal":4,"nearbyActivated":1,"nearbyInProcess":0,"nearbyOO":1,"nearby3P":3,"radiusActivated":true,"nearestActivated":{"id":"5002","name":"CHARLOTTE - TYVOLA EXECUTIVE PARK","city":"Charlotte","state":"North Carolina","distanceKm":8.6,"distanceMiles":5.3}}},{"type":"Feature","geometry":{"type":"Point","coordinates":[-78.6390989,35.7803977]},"properties":{"city":"Raleigh","state":"North Carolina","cityStateKey":"Raleigh|North Carolina","cityLevel":2,"isPriority":true,"ooCount":1,"partnerCount":0,"totalSites":1,"totalTCAs":6,"inProcess":4,"cleared":1,"siteActivated":true,"nearbyTotal":2,"nearbyActivated":1,"nearbyInProcess":0,"nearbyOO":1,"nearby3P":1,"radiusActivated":true,"nearestActivated":{"id":"29","name":"RALEIGH","city":"Raleigh","state":"North Carolina","distanceKm":8.7,"distanceMiles":5.4}}},{"type":"Feature","geometry":{"type":"Point","coordinates":[-96.789821,46.877229]},"properties":{"city":"Fargo","state":"North Dakota","cityStateKey":"Fargo|North Dakota","cityLevel":1,"isPriority":true,"ooCount":0,"partnerCount":1,"totalSites":1,"totalTCAs":3,"inProcess":2,"cleared":0,"siteActivated":false,"nearbyTotal":1,"nearbyActivated":0,"nearbyInProcess":1,"nearbyOO":0,"nearby3P":1,"radiusActivated":false,"nearestActivated":null}},{"type":"Feature","geometry":{"type":"Point","coordinates":[-100.783739,46.808327]},"properties":{"city":"Bismarck","state":"North Dakota","cityStateKey":"Bismarck|North Dakota","cityLevel":2,"isPriority":true,"ooCount":1,"partnerCount":1,"totalSites":2,"totalTCAs":2,"inProcess":2,"cleared":0,"siteActivated":true,"nearbyTotal":2,"nearbyActivated":1,"nearbyInProcess":0,"nearbyOO":1,"nearby3P":1,"radiusActivated":true,"nearestActivated":{"id":"6723","name":"BISMARCK","city":"Bismarck","state":"North Dakota","distanceKm":0.4,"distanceMiles":0.3}}},{"type":"Feature","geometry":{"type":"Point","coordinates":[-83.0007065,39.9622601]},"properties":{"city":"Columbus","state":"Ohio","cityStateKey":"Columbus|Ohio","cityLevel":1,"isPriority":true,"ooCount":0,"partnerCount":0,"totalSites":0,"totalTCAs":0,"inProcess":0,"cleared":0,"siteActivated":true,"nearbyTotal":2,"nearbyActivated":1,"nearbyInProcess":0,"nearbyOO":1,"nearby3P":1,"radiusActivated":true,"nearestActivated":{"id":"5032","name":"COLUMBUS SOUTH","city":"Groveport","state":"Ohio","distanceKm":15,"distanceMiles":9.3}}},{"type":"Feature","geometry":{"type":"Point","coordinates":[-81.6936772,41.4996574]},"properties":{"city":"Cleveland","state":"Ohio","cityStateKey":"Cleveland|Ohio","cityLevel":2,"isPriority":true,"ooCount":0,"partnerCount":0,"totalSites":0,"totalTCAs":0,"inProcess":0,"cleared":0,"siteActivated":true,"nearbyTotal":3,"nearbyActivated":1,"nearbyInProcess":0,"nearbyOO":1,"nearby3P":2,"radiusActivated":true,"nearestActivated":{"id":"10329","name":"CLEVELAND (Pearl Rd)","city":"Middleburg Heights","state":"Ohio","distanceKm":16.3,"distanceMiles":10.2}}},{"type":"Feature","geometry":{"type":"Point","coordinates":[-97.5170536,35.4729886]},"properties":{"city":"Oklahoma City","state":"Oklahoma","cityStateKey":"Oklahoma City|Oklahoma","cityLevel":1,"isPriority":true,"ooCount":1,"partnerCount":2,"totalSites":3,"totalTCAs":5,"inProcess":2,"cleared":3,"siteActivated":true,"nearbyTotal":5,"nearbyActivated":1,"nearbyInProcess":0,"nearbyOO":1,"nearby3P":4,"radiusActivated":true,"nearestActivated":{"id":"140","name":"OKLAHOMA CITY","city":"Oklahoma City","state":"Oklahoma","distanceKm":4.3,"distanceMiles":2.7}}},{"type":"Feature","geometry":{"type":"Point","coordinates":[-95.9927516,36.1563122]},"properties":{"city":"Tulsa","state":"Oklahoma","cityStateKey":"Tulsa|Oklahoma","cityLevel":2,"isPriority":true,"ooCount":1,"partnerCount":2,"totalSites":3,"totalTCAs":5,"inProcess":4,"cleared":0,"siteActivated":true,"nearbyTotal":3,"nearbyActivated":1,"nearbyInProcess":1,"nearbyOO":1,"nearby3P":2,"radiusActivated":true,"nearestActivated":{"id":"12237","name":"TULSA (EAST 51ST)","city":"Tulsa","state":"Oklahoma","distanceKm":8.4,"distanceMiles":5.2}}},{"type":"Feature","geometry":{"type":"Point","coordinates":[-122.674194,45.5202471]},"properties":{"city":"Portland","state":"Oregon","cityStateKey":"Portland|Oregon","cityLevel":1,"isPriority":true,"ooCount":1,"partnerCount":0,"totalSites":1,"totalTCAs":7,"inProcess":5,"cleared":1,"siteActivated":true,"nearbyTotal":5,"nearbyActivated":3,"nearbyInProcess":0,"nearbyOO":3,"nearby3P":2,"radiusActivated":true,"nearestActivated":{"id":"19114","name":"PORTLAND (BARBUR BLVD)","city":"Portland","state":"Oregon","distanceKm":7.5,"distanceMiles":4.6}}},{"type":"Feature","geometry":{"type":"Point","coordinates":[-123.033121,44.9391565]},"properties":{"city":"Salem","state":"Oregon","cityStateKey":"Salem|Oregon","cityLevel":2,"isPriority":true,"ooCount":0,"partnerCount":1,"totalSites":1,"totalTCAs":0,"inProcess":0,"cleared":0,"siteActivated":true,"nearbyTotal":4,"nearbyActivated":2,"nearbyInProcess":0,"nearbyOO":2,"nearby3P":2,"radiusActivated":true,"nearestActivated":{"id":"6559","name":"WILSONVILLE","city":"Wilsonville","state":"Oregon","distanceKm":49.1,"distanceMiles":30.5}}},{"type":"Feature","geometry":{"type":"Point","coordinates":[-75.1635262,39.9527237]},"properties":{"city":"Philadelphia","state":"Pennsylvania","cityStateKey":"Philadelphia|Pennsylvania","cityLevel":1,"isPriority":true,"ooCount":0,"partnerCount":0,"totalSites":0,"totalTCAs":0,"inProcess":0,"cleared":0,"siteActivated":true,"nearbyTotal":8,"nearbyActivated":5,"nearbyInProcess":1,"nearbyOO":4,"nearby3P":4,"radiusActivated":true,"nearestActivated":{"id":"63","name":"PHILADELPHIA","city":"Bala Cynwyd","state":"Pennsylvania","distanceKm":8.5,"distanceMiles":5.3}}},{"type":"Feature","geometry":{"type":"Point","coordinates":[-80.0025666,40.4406968]},"properties":{"city":"Pittsburgh","state":"Pennsylvania","cityStateKey":"Pittsburgh|Pennsylvania","cityLevel":2,"isPriority":true,"ooCount":1,"partnerCount":0,"totalSites":1,"totalTCAs":1,"inProcess":1,"cleared":0,"siteActivated":true,"nearbyTotal":4,"nearbyActivated":1,"nearbyInProcess":1,"nearbyOO":2,"nearby3P":2,"radiusActivated":true,"nearestActivated":{"id":"60","name":"GREENSBURG","city":"Greensburg","state":"Pennsylvania","distanceKm":41.9,"distanceMiles":26.1}}},{"type":"Feature","geometry":{"type":"Point","coordinates":[-71.4128343,41.8239891]},"properties":{"city":"Providence","state":"Rhode Island","cityStateKey":"Providence|Rhode Island","cityLevel":1,"isPriority":true,"ooCount":0,"partnerCount":1,"totalSites":1,"totalTCAs":2,"inProcess":1,"cleared":0,"siteActivated":false,"nearbyTotal":8,"nearbyActivated":0,"nearbyInProcess":2,"nearbyOO":0,"nearby3P":8,"radiusActivated":false,"nearestActivated":null}},{"type":"Feature","geometry":{"type":"Point","coordinates":[-71.4586114,41.6992717]},"properties":{"city":"Warwick","state":"Rhode Island","cityStateKey":"Warwick|Rhode Island","cityLevel":2,"isPriority":true,"ooCount":0,"partnerCount":0,"totalSites":0,"totalTCAs":0,"inProcess":0,"cleared":0,"siteActivated":false,"nearbyTotal":6,"nearbyActivated":0,"nearbyInProcess":2,"nearbyOO":0,"nearby3P":6,"radiusActivated":false,"nearestActivated":null}},{"type":"Feature","geometry":{"type":"Point","coordinates":[-81.0352313,34.000754]},"properties":{"city":"Columbia","state":"South Carolina","cityStateKey":"Columbia|South Carolina","cityLevel":1,"isPriority":true,"ooCount":1,"partnerCount":1,"totalSites":2,"totalTCAs":4,"inProcess":3,"cleared":0,"siteActivated":true,"nearbyTotal":5,"nearbyActivated":1,"nearbyInProcess":0,"nearbyOO":1,"nearby3P":4,"radiusActivated":true,"nearestActivated":{"id":"71","name":"COLUMBIA","city":"COLUMBIA","state":"South Carolina","distanceKm":8.7,"distanceMiles":5.4}}},{"type":"Feature","geometry":{"type":"Point","coordinates":[-79.9399309,32.7884363]},"properties":{"city":"Charleston","state":"South Carolina","cityStateKey":"Charleston|South Carolina","cityLevel":2,"isPriority":true,"ooCount":1,"partnerCount":0,"totalSites":1,"totalTCAs":3,"inProcess":1,"cleared":2,"siteActivated":true,"nearbyTotal":1,"nearbyActivated":1,"nearbyInProcess":0,"nearbyOO":1,"nearby3P":0,"radiusActivated":true,"nearestActivated":{"id":"73","name":"CHARLESTON","city":"Charleston","state":"South Carolina","distanceKm":11.2,"distanceMiles":7}}},{"type":"Feature","geometry":{"type":"Point","coordinates":[-96.7293629,43.5476008]},"properties":{"city":"Sioux Falls","state":"South Dakota","cityStateKey":"Sioux Falls|South Dakota","cityLevel":1,"isPriority":true,"ooCount":0,"partnerCount":2,"totalSites":2,"totalTCAs":5,"inProcess":4,"cleared":1,"siteActivated":true,"nearbyTotal":4,"nearbyActivated":1,"nearbyInProcess":1,"nearbyOO":0,"nearby3P":4,"radiusActivated":true,"nearestActivated":{"id":"18773","name":"Sioux Falls - Southeast Technical College Testing Center","city":"Sioux Falls","state":"South Dakota","distanceKm":4.6,"distanceMiles":2.9}}},{"type":"Feature","geometry":{"type":"Point","coordinates":[-103.228023,44.0806041]},"properties":{"city":"Rapid City","state":"South Dakota","cityStateKey":"Rapid City|South Dakota","cityLevel":2,"isPriority":true,"ooCount":0,"partnerCount":2,"totalSites":2,"totalTCAs":3,"inProcess":3,"cleared":0,"siteActivated":true,"nearbyTotal":2,"nearbyActivated":1,"nearbyInProcess":0,"nearbyOO":0,"nearby3P":2,"radiusActivated":true,"nearestActivated":{"id":"6113","name":"Rapid City - Career Learning Center of the Black Hills","city":"Rapid City","state":"South Dakota","distanceKm":2.4,"distanceMiles":1.5}}},{"type":"Feature","geometry":{"type":"Point","coordinates":[-90.0517786,35.146026]},"properties":{"city":"Memphis","state":"Tennessee","cityStateKey":"Memphis|Tennessee","cityLevel":1,"isPriority":true,"ooCount":0,"partnerCount":2,"totalSites":2,"totalTCAs":4,"inProcess":3,"cleared":0,"siteActivated":true,"nearbyTotal":2,"nearbyActivated":1,"nearbyInProcess":0,"nearbyOO":0,"nearby3P":2,"radiusActivated":true,"nearestActivated":{"id":"12507","name":"Memphis - Lab Four Professional Development Center","city":"Memphis","state":"Tennessee","distanceKm":17.5,"distanceMiles":10.9}}},{"type":"Feature","geometry":{"type":"Point","coordinates":[-86.7742984,36.1622767]},"properties":{"city":"Nashville","state":"Tennessee","cityStateKey":"Nashville|Tennessee","cityLevel":2,"isPriority":true,"ooCount":1,"partnerCount":0,"totalSites":1,"totalTCAs":5,"inProcess":5,"cleared":0,"siteActivated":true,"nearbyTotal":1,"nearbyActivated":1,"nearbyInProcess":0,"nearbyOO":1,"nearby3P":0,"radiusActivated":true,"nearestActivated":{"id":"5042","name":"NASHVILLE (1102 KERMIT DRIVE)","city":"Nashville","state":"Tennessee","distanceKm":7.7,"distanceMiles":4.8}}},{"type":"Feature","geometry":{"type":"Point","coordinates":[-95.3676974,29.7589382]},"properties":{"city":"Houston","state":"Texas","cityStateKey":"Houston|Texas","cityLevel":1,"isPriority":true,"ooCount":1,"partnerCount":5,"totalSites":6,"totalTCAs":13,"inProcess":11,"cleared":2,"siteActivated":true,"nearbyTotal":7,"nearbyActivated":3,"nearbyInProcess":1,"nearbyOO":1,"nearby3P":6,"radiusActivated":true,"nearestActivated":{"id":"160","name":"HOUSTON - NORTHWEST FREEWAY","city":"Houston","state":"Texas","distanceKm":9.5,"distanceMiles":5.9}}},{"type":"Feature","geometry":{"type":"Point","coordinates":[-98.4951405,29.4246002]},"properties":{"city":"San Antonio","state":"Texas","cityStateKey":"San Antonio|Texas","cityLevel":2,"isPriority":true,"ooCount":1,"partnerCount":2,"totalSites":3,"totalTCAs":9,"inProcess":3,"cleared":3,"siteActivated":true,"nearbyTotal":3,"nearbyActivated":2,"nearbyInProcess":0,"nearbyOO":1,"nearby3P":2,"radiusActivated":true,"nearestActivated":{"id":"13336","name":"San Antonio - Innovative Minds","city":"San Antonio","state":"Texas","distanceKm":8.5,"distanceMiles":5.3}}},{"type":"Feature","geometry":{"type":"Point","coordinates":[-111.886797,40.7596198]},"properties":{"city":"Salt Lake City","state":"Utah","cityStateKey":"Salt Lake City|Utah","cityLevel":1,"isPriority":true,"ooCount":0,"partnerCount":1,"totalSites":1,"totalTCAs":3,"inProcess":0,"cleared":0,"siteActivated":true,"nearbyTotal":2,"nearbyActivated":1,"nearbyInProcess":0,"nearbyOO":0,"nearby3P":2,"radiusActivated":true,"nearestActivated":{"id":"19181","name":"Ogden-Ogden Weber Technical College Testing Center","city":"Ogden","state":"Utah","distanceKm":56.4,"distanceMiles":35.1}}},{"type":"Feature","geometry":{"type":"Point","coordinates":[-111.9866954,40.6967891]},"properties":{"city":"West Valley City","state":"Utah","cityStateKey":"West Valley City|Utah","cityLevel":2,"isPriority":true,"ooCount":0,"partnerCount":0,"totalSites":0,"totalTCAs":0,"inProcess":0,"cleared":0,"siteActivated":true,"nearbyTotal":2,"nearbyActivated":1,"nearbyInProcess":0,"nearbyOO":0,"nearby3P":2,"radiusActivated":true,"nearestActivated":{"id":"19181","name":"Ogden-Ogden Weber Technical College Testing Center","city":"Ogden","state":"Utah","distanceKm":63,"distanceMiles":39.1}}},{"type":"Feature","geometry":{"type":"Point","coordinates":[-73.212906,44.4761601]},"properties":{"city":"Burlington","state":"Vermont","cityStateKey":"Burlington|Vermont","cityLevel":1,"isPriority":true,"ooCount":0,"partnerCount":1,"totalSites":1,"totalTCAs":0,"inProcess":0,"cleared":0,"siteActivated":false,"nearbyTotal":1,"nearbyActivated":0,"nearbyInProcess":0,"nearbyOO":0,"nearby3P":1,"radiusActivated":false,"nearestActivated":null}},{"type":"Feature","geometry":{"type":"Point","coordinates":[-73.176273,44.4642957]},"properties":{"city":"South Burlington","state":"Vermont","cityStateKey":"South Burlington|Vermont","cityLevel":2,"isPriority":true,"ooCount":0,"partnerCount":1,"totalSites":1,"totalTCAs":0,"inProcess":0,"cleared":0,"siteActivated":false,"nearbyTotal":1,"nearbyActivated":0,"nearbyInProcess":0,"nearbyOO":0,"nearby3P":1,"radiusActivated":false,"nearestActivated":null}},{"type":"Feature","geometry":{"type":"Point","coordinates":[-75.9760751,36.8496579]},"properties":{"city":"Virginia Beach","state":"Virginia","cityStateKey":"Virginia Beach|Virginia","cityLevel":1,"isPriority":true,"ooCount":1,"partnerCount":0,"totalSites":1,"totalTCAs":4,"inProcess":2,"cleared":2,"siteActivated":true,"nearbyTotal":1,"nearbyActivated":1,"nearbyInProcess":0,"nearbyOO":1,"nearby3P":0,"radiusActivated":true,"nearestActivated":{"id":"11353","name":"VIRGINIA BEACH","city":"Virginia Beach","state":"Virginia","distanceKm":8.6,"distanceMiles":5.3}}},{"type":"Feature","geometry":{"type":"Point","coordinates":[-76.2899539,36.8493695]},"properties":{"city":"Norfolk","state":"Virginia","cityStateKey":"Norfolk|Virginia","cityLevel":2,"isPriority":true,"ooCount":0,"partnerCount":0,"totalSites":0,"totalTCAs":0,"inProcess":0,"cleared":0,"siteActivated":true,"nearbyTotal":1,"nearbyActivated":1,"nearbyInProcess":0,"nearbyOO":1,"nearby3P":0,"radiusActivated":true,"nearestActivated":{"id":"11353","name":"VIRGINIA BEACH","city":"Virginia Beach","state":"Virginia","distanceKm":19.8,"distanceMiles":12.3}}},{"type":"Feature","geometry":{"type":"Point","coordinates":[-122.330062,47.6038321]},"properties":{"city":"Seattle","state":"Washington","cityStateKey":"Seattle|Washington","cityLevel":1,"isPriority":true,"ooCount":0,"partnerCount":0,"totalSites":0,"totalTCAs":0,"inProcess":0,"cleared":0,"siteActivated":true,"nearbyTotal":9,"nearbyActivated":2,"nearbyInProcess":0,"nearbyOO":1,"nearby3P":8,"radiusActivated":true,"nearestActivated":{"id":"13203","name":"Bellevue - Brainseed Testing Center","city":"Bellevue","state":"Washington","distanceKm":12.6,"distanceMiles":7.8}}},{"type":"Feature","geometry":{"type":"Point","coordinates":[-117.2613936,47.6571104]},"properties":{"city":"Spokane Valley","state":"Washington","cityStateKey":"Spokane Valley|Washington","cityLevel":2,"isPriority":true,"ooCount":1,"partnerCount":0,"totalSites":1,"totalTCAs":2,"inProcess":2,"cleared":0,"siteActivated":true,"nearbyTotal":2,"nearbyActivated":1,"nearbyInProcess":0,"nearbyOO":1,"nearby3P":1,"radiusActivated":true,"nearestActivated":{"id":"10653","name":"SPOKANE","city":"Spokane Valley","state":"Washington","distanceKm":1.8,"distanceMiles":1.1}}},{"type":"Feature","geometry":{"type":"Point","coordinates":[-81.6332812,38.3505995]},"properties":{"city":"Charleston","state":"West Virginia","cityStateKey":"Charleston|West Virginia","cityLevel":1,"isPriority":true,"ooCount":0,"partnerCount":0,"totalSites":0,"totalTCAs":0,"inProcess":0,"cleared":0,"siteActivated":true,"nearbyTotal":2,"nearbyActivated":1,"nearbyInProcess":0,"nearbyOO":0,"nearby3P":2,"radiusActivated":true,"nearestActivated":{"id":"12311","name":"Huntington -  Mountwest Community and Technical College","city":"Huntington","state":"West Virginia","distanceKm":72.1,"distanceMiles":44.8}}},{"type":"Feature","geometry":{"type":"Point","coordinates":[-82.445154,38.4192496]},"properties":{"city":"Huntington","state":"West Virginia","cityStateKey":"Huntington|West Virginia","cityLevel":2,"isPriority":true,"ooCount":0,"partnerCount":1,"totalSites":1,"totalTCAs":2,"inProcess":2,"cleared":0,"siteActivated":true,"nearbyTotal":3,"nearbyActivated":1,"nearbyInProcess":0,"nearbyOO":1,"nearby3P":2,"radiusActivated":true,"nearestActivated":{"id":"12311","name":"Huntington -  Mountwest Community and Technical College","city":"Huntington","state":"West Virginia","distanceKm":3.2,"distanceMiles":2}}},{"type":"Feature","geometry":{"type":"Point","coordinates":[-87.9090751,43.0386475]},"properties":{"city":"Milwaukee","state":"Wisconsin","cityStateKey":"Milwaukee|Wisconsin","cityLevel":1,"isPriority":true,"ooCount":0,"partnerCount":0,"totalSites":0,"totalTCAs":0,"inProcess":0,"cleared":0,"siteActivated":false,"nearbyTotal":1,"nearbyActivated":0,"nearbyInProcess":1,"nearbyOO":0,"nearby3P":1,"radiusActivated":false,"nearestActivated":null}},{"type":"Feature","geometry":{"type":"Point","coordinates":[-89.3841663,43.07469]},"properties":{"city":"Madison","state":"Wisconsin","cityStateKey":"Madison|Wisconsin","cityLevel":2,"isPriority":true,"ooCount":0,"partnerCount":1,"totalSites":1,"totalTCAs":0,"inProcess":0,"cleared":0,"siteActivated":false,"nearbyTotal":1,"nearbyActivated":0,"nearbyInProcess":0,"nearbyOO":0,"nearby3P":1,"radiusActivated":false,"nearestActivated":null}},{"type":"Feature","geometry":{"type":"Point","coordinates":[-104.820246,41.139981]},"properties":{"city":"Cheyenne","state":"Wyoming","cityStateKey":"Cheyenne|Wyoming","cityLevel":1,"isPriority":true,"ooCount":0,"partnerCount":2,"totalSites":2,"totalTCAs":4,"inProcess":1,"cleared":2,"siteActivated":true,"nearbyTotal":4,"nearbyActivated":1,"nearbyInProcess":1,"nearbyOO":1,"nearby3P":3,"radiusActivated":true,"nearestActivated":{"id":"10789","name":"Cheyenne - Wyoming Montana Safety Council","city":"Cheyenne","state":"Wyoming","distanceKm":3.9,"distanceMiles":2.4}}},{"type":"Feature","geometry":{"type":"Point","coordinates":[-106.325138,42.8501191]},"properties":{"city":"Casper","state":"Wyoming","cityStateKey":"Casper|Wyoming","cityLevel":2,"isPriority":true,"ooCount":0,"partnerCount":1,"totalSites":1,"totalTCAs":1,"inProcess":1,"cleared":0,"siteActivated":true,"nearbyTotal":1,"nearbyActivated":1,"nearbyInProcess":0,"nearbyOO":0,"nearby3P":1,"radiusActivated":true,"nearestActivated":{"id":"5182","name":"Casper - Casper College","city":"Casper","state":"Wyoming","distanceKm":1.8,"distanceMiles":1.1}}}]}